Id;Address;Zone;Name;Longitude;Latitude
TSL2;R.SIMÕES LOPES;C9;TV.SIMÕES LOPES;-8.555346;41.228848
TSL1;R.SIMÕES LOPES;C9;TV. SIMÕES LOPES;-8.555267;41.228703
QRS2;R.MAÍNÇA;C5;QUEIRÃOS;-8.623049;41.203205
RBRI1;R.NOVA ALFÂNDEGA;C1;RIBEIRA (INFANTE);-8.616863;41.140804
BRRS1;R.COSTA CABRAL;C6;BARROCAS;-8.5874405;41.172386
DPV2;R.VILAR;C1;D.PEDRO V;-8.628509;41.15122
RBRI2;LGO.S.FRANCISCO;C1;RIBEIRA (INFANTE);-8.616531;41.140503
BRRS2;R.COSTA CABRAL;C6;BARROCAS;-8.587981;41.171883
DPV3;R.D.PEDRO V;C1;D.PEDRO V;-8.629133;41.151154
BBL;R.BESSA LEITE;C1;BAIRRO BESSA LEITE;-8.645596;41.15767
PINC2;R.BONJÓIA;C6;PINHEIRO DE CAMPANHÃ;-8.5819025;41.15164
ACD1;AV.MENERES;C3;AFONSO CORDEIRO;-8.685062;41.178787
IGMI1;R.GENERAL HUMBERTO DELGADO;C9;IGREJA (MILHEIROS);-8.588389;41.214638
EFRD2;R.MANUEL PINTO AZEVEDO;C2;ENG. FERREIRA DIAS;-8.644485;41.17108
EFRD1;R.MANUEL PINTO AZEVEDO;C2;ENG. FERREIRA DIAS;-8.644534;41.170902
CMR2;AV.GEN.HUMBERTO DELGADO;C8;CAPITÃO MOURA;-8.529389;41.157444
CMR1;AV.GEN.HUMBERTO DELGADO;C8;CAPITÃO MOURA;-8.529496;41.157722
MJP1;R.MACHADO SANTOS;S8;MAJOR PÁLA;-8.631328;41.12996
MJP2;R.FERNANDES ANJOS;S8;MAJOR PÁLA;-8.630901;41.130688
LGM1;LGO.MONTINHO;S8;L.GO MONTINHO;-8.630421;41.135002
RGLO1;R.PONTE PARADA;C9;ROD. GONÇALVES LAGE;-8.596673;41.206985
CVC2;R.JORGE FERREIRINHA;C5;CAVACO;-8.59905;41.23093
CVC1;R.JORGE FERREIRINHA;C5;CAVACO;-8.5991535;41.231014
RGLO2;R.PONTE PARADA;C9;ROD. GONÇALVES LAGE (OESTE);-8.596902;41.20695
VESS1;R.VESSADA;C9;VESSADA;-8.593061;41.215874
IGMI2;R.GENERAL HUMBERTO DELGADO;C9;IGREJA (MILHEIROS);-8.588034;41.21486
VESS2;R.VESSADA;C9;VESSADA;-8.593291;41.215805
STCZ1;R.DR.SEVERIANO;C8;S.TA CRUZ;-8.531165;41.160843
JAE1;AV.PAIVA COUCEIRO;C1;J.A.E.;-8.581927;41.143833
STCZ2;R.DR.SEVERIANO;C8;S.TA CRUZ;-8.531524;41.161186
FEUP2;R.DR.ROBERTO FRIAS;C6;FACULDADE DE ENGENHARIA;-8.598766;41.17891
TSJN;R.BELMONTE;C1;S.JOÃO NOVO;-8.6168375;41.142612
JSP;URB.JOSÉ DOMINGUES POÇAS;S2;JOSÉ POÇAS;-8.643718;41.105213
JAE2;AV.PAIVA COUCEIRO;C1;J.A.E.;-8.581981;41.1437
BCG;R.CONSTITUIÇÃO;C1;BCG;-8.617913;41.16368
FEUP1;R.DR.ROBERTO FRIAS;C6;FACULDADE DE ENGENHARIA;-8.598446;41.17916
.;R.CONS.LUÍS MAGALHÃES;N11;.;-8.653679;41.254143
AVTE2;R.CONDE AVRANCHES;C6;ALMEIDA VALENTE;-8.61148;41.176846
ALFG3;LGO.ALFÂNDEGA;C1;ALFÂNDEGA;-8.6219845;41.144035
ALFG2;R.NOVA ALFÂNDEGA;C1;ALFÂNDEGA;-8.622612;41.14393
ALFG1;R.NOVA ALFÂNDEGA;C1;ALFÂNDEGA;-8.621926;41.14387
CMS6;R.CAPITÃO HENRIQUE GALVÃO;C1;CASA DA MÚSICA (METRO);-8.629439;41.161274
CMS5;CASA DA MÚSICA;C1;CASA DA MÚSICA (METRO);-8.629439;41.161274
AGM1;AV.BOAVISTA;C1;AGRAMONTE;-8.634337;41.159073
CMS4;CASA DA MÚSICA;C1;CASA DA MÚSICA (METRO);-8.629676;41.161068
AGM2;AV.BOAVISTA;C1;AGRAMONTE;-8.634396;41.15872
CMS3;CASA DA MÚSICA;C1;CASA DA MÚSICA (METRO);-8.630025;41.161373
CMS2;CASA DA MÚSICA;C1;CASA DA MÚSICA (METRO);-8.629695;41.16117
CMS1;CASA DA MÚSICA;C1;CASA DA MÚSICA (METRO);-8.629821;41.161304
AVTE1;R.CONDE AVRANCHES;C6;ALMEIDA VALENTE;-8.611297;41.176743
QRS1;R.MAÍNÇA;C5;QUEIRÃOS;-8.622902;41.20335
CSBV1;R.PEDRO HISPANO;C1;CASA DE SAÚDE DA BOAVISTA;-8.629972;41.165527
CVD2;R.PADRE COSTA;C5;CAVADAS;-8.597224;41.188667
ALFG5;R.NOVA ALFÂNDEGA;C1;ALFÂNDEGA;-8.622187;41.14378
CVD1;R.PADRE COSTA;C5;CAVADAS;-8.597122;41.18881
VLGE1;R.ESTAÇÃO;C10;VALONGO (ESTAÇÃO);-8.486915;41.187485
SCR1;R.CARLOS MALHEIRO DIAS;C1;S. CRISPIM;-8.593789;41.160675
SCR4;R.NOVA S.CRISPIM;C1;S. CRISPIM;-8.592811;41.16069
31JA1;R.31 JANEIRO;C4;31 DE JANEIRO;-8.687876;41.221336
31JA2;R.31 JANEIRO;C4;31 DE JANEIRO;-8.688237;41.22123
LGO3;AV.BOAVISTA;C2;LICEU GARCIA ORTA;-8.667884;41.164364
LGO2;AV.BOAVISTA;C2;LICEU GARCIA ORTA;-8.667715;41.164516
LEIR2;R.PROF.AMADEU SANTOS;S2;LARGO EIRÓS;-8.625048;41.098034
LGM2;LGO.MONTINHO;S8;LGO. MONTINHO;-8.630696;41.13457
PNHL1;VIA DE ARDEGÃES;C9;PINHAL;-8.572611;41.230736
MCAM2;R.FALCÃO;C6;MONTE CAMPANHÃ;-8.574555;41.157204
MSB1;R.S.BRÁS;C4;MONTE S. BRÁS;-8.663181;41.218914
MSB2;R.S.BRÁS;C4;MONTE S.BRÁS;-8.6632185;41.218796
MCAM1;R.FALCÃO;C6;MONTE CAMPANHÃ;-8.574916;41.15692
PING1;R.SRA.LUZ;C2;PRAIA DOS INGLESES;-8.676853;41.15165
TBNJ2;R.BONJÓIA;C6;TRAVESSA DE BONJÓIA;-8.579389;41.152775
SGM;R.D.AFONSO HENRIQUES;C9;S. GEMIL;-8.576491;41.19645
PNHL2;VIA DE ARDEGÃES;C9;PINHAL;-8.572471;41.23085
BFB;R.PROF.BONFIM BARREIROS;C6;BONFIM BARREIROS;-8.584391;41.168903
FRX1;R.FREIXO;C6;FREIXO;-8.578613;41.145504
FRX3;R.FREIXO;C6;FREIXO;-8.578272;41.146233
FRX2;ESTR.CIRCUNVALAÇÃO;C6;FREIXO;-8.579357;41.146584
SCT2;AV.D.JOAO I;C8;S. CAETANO;-8.559098;41.1688
FRX4;ESTR.CIRCUNVALAÇÃO;C6;FREIXO;-8.579575;41.14655
SCT3;R.PEDRO ÁLVARES CABRAL;C8;S. CAETANO;-8.560094;41.170162
SCT1;AV.D.JOAO I;C8;S. CAETANO;-8.5593815;41.168724
BRRO1;AV.AEROPORTO;N10;BARREIRO;-8.67005;41.23405
BRRO2;AV.AEROPORTO;N10;BARREIRO;-8.669598;41.234596
DDA2;R.HÍNTZE RIBEIRO;C4;DOIS AMIGOS;-8.701537;41.19067
BRRO3;R.BARREIRO;N10;BARREIRO;-8.669369;41.234104
DDA1;R.HERÓIS ÁFRICA;C4;DOIS AMIGOS;-8.7015705;41.191116
BRRO4;R.BARREIRO;N10;BARREIRO;-8.669427;41.233974
CRPO2;R.D.AFONSO HENRIQUES;C9;CRESPO;-8.579811;41.192432
ACH2;R.ALTO CHAQUEDAS;S2;ALTO CHAQUEDAS;-8.653876;41.11181
CSSR2;R.SOARES REIS;S8;C. SAÚDE S. REIS;-8.609766;41.120583
CRPO1;R.D.AFONSO HENRIQUES;C9;CRESPO;-8.579495;41.192627
CSSR1;R.SOARES REIS;S8;C. SAÚDE S. REIS;-8.609994;41.120583
ACH1;R.ALTO CHAQUEDAS;S2;ALTO CHAQUEDAS;-8.653825;41.11168
SCT4;R.PEDRO ÁLVARES CABRAL;C8;S. CAETANO;-8.560201;41.169514
SI1;R.ALEGRIA;C1;S.TO ISIDRO;-8.601768;41.15792
SI2;R.ALEGRIA;C1;STO. ISIDRO;-8.601347;41.158295
CVI5;R.PRELADA;C1;CARVALHIDO;-8.625918;41.16679
ROTA2;AV.FERNÃO MAGALHAES;C6;ROT. DA AREOSA;-8.582121;41.179573
CVI4;AV.FRANÇA;C1;CARVALHIDO;-8.626443;41.166348
LGO5;R.FEZ;C2;LICEU GARCIA ORTA;-8.666201;41.161472
CVI3;R.PRELADA;C1;CARVALHIDO;-8.626041;41.167065
CHOL2;R.S.ROQUE LAMEIRA;C6;CHAVES OLIVEIRA;-8.577648;41.160835
LGO4;R.FEZ;C2;LICEU GARCIA ORTA;-8.666855;41.16157
CVI2;PR.EXÉRC.LIBERTADOR;C1;CARVALHIDO;-8.625133;41.166656
CVI1;PR.EXÉRC.LIBERTADOR;C1;CARVALHIDO;-8.624972;41.166786
MSHP4;R.ELIAS GARCIA;C9;MAIASHOPPING;-8.558834;41.219467
ANTZ1;R.PADRE LUÍS CAMPOS;N11;ANTUNES AZEVEDO;-8.610406;41.241848
MSHP3;R.ELIAS GARCIA;C9;MAIASHOPPING;-8.5586405;41.2192
ANTZ2;R.PADRE LUÍS CAMPOS;N11;ANTUNES AZEVEDO;-8.610422;41.24165
TFV3;R.TEIXEIRA LOPES;C5;TV.FONTE VELHA;-8.640853;41.19975
TFV2;R.FONTE VELHA;C5;TV.FONTE VELHA;-8.63996;41.199326
BH1;R.EDUARDO CASTRO GANDRA;C11;BELO HORIZONTE;-8.513829;41.153774
BH2;R.EDUARDO CASTRO GANDRA;C11;BELO HORIZONTE;-8.513634;41.153828
CMEI2;R.D.ANTÓNIO CASTRO MEIRELES;C9;CASTRO MEIRELES;-8.59471;41.19793
CMEI1;R.D.ANTÓNIO CASTRO MEIRELES;C9;CASTRO MEIRELES;-8.594453;41.19785
PSSM1;R.PASSOS MANUEL;C3;PASSOS MANUEL;-8.663926;41.197487
PSSM2;R.PASSOS MANUEL;C3;PASSOS MANUEL;-8.66381;41.19709
AANT4;ALAM.DAS ANTAS;C1;ALAMEDA DAS ANTAS;-8.588536;41.16414
ALFC2;AV.D.AFONSO HENRIQUES;C3;ALFREDO CUNHA;-8.68411;41.184032
ALFC1;R.GODINHO;C3;ALFREDO CUNHA;-8.68402;41.1845
AANT3;ALAM.DAS ANTAS;C1;ALAMEDA DAS ANTAS;-8.588834;41.16366
ISS1;R.ANTÓNIO FRANCISCO SOUSA;S2;ISOLINO SOUSA;-8.638664;41.107605
ISS2;R.ANTÓNIO FRANCISCO SOUSA;S2;ISOLINO SOUSA;-8.638557;41.107464
BRRM1;R.DR.AIRES GOUVEIA OSÓRIO;C2;BR. RAMALDE;-8.648461;41.17044
ARCO1;R.M.FERREIRA CRUZ;C5;ARCO;-8.601543;41.21375
BRRM2;R.DR.AIRES GOUVEIA OSÓRIO;C2;BR. RAMALDE;-8.648412;41.170284
ARCO2;R.ARCO;C5;ARCO;-8.601547;41.213894
LDSM1;R.SOEIRO MENDES;C2;LIDADOR-SOEIRO MENDES;-8.663111;41.17625
BFM8;R.BARROS LIMA;C1;BONFIM;-8.594216;41.151505
BFM4;R.BONFIM;C1;BONFIM;-8.594581;41.1507
PCUA2;R.D.AFONSO HENRIQUES;C9;PÍCUA;-8.569876;41.20441
PCUA1;R.D.AFONSO HENRIQUES;C9;PÍCUA;-8.569262;41.204624
BFM2;R.BONFIM;C1;BONFIM;-8.594746;41.15041
AGR4;R.CINCO OUTUBRO;C9;ROT.AGRA;-8.594581;41.214066
BFM1;R.BONFIM;C1;BONFIM;-8.594927;41.15031
AGR2;R.AGRA;C9;AGRA;-8.59453;41.21245
AGR3;R.CINCO OUTUBRO;C9;ROT.AGRA;-8.594711;41.213924
AGR1;R.AGRA;C9;AGRA;-8.594404;41.212704
CVI6;PEDRO HISPÂNO;C1;CARVALHIDO;-8.627276;41.166546
MALM2;R.PONTE PEDRA;C5;MALMEQUERES;-8.605234;41.20964
FR2;R.FRANCOS;C1;FRANCOS;-8.6337595;41.16698
MALM1;R.PONTE PEDRA;C5;MALMEQUERES;-8.605049;41.209507
BJ1;R.BOLAMA;C1;BENTO JÚNIOR;-8.603158;41.16542
ALNV2;R.MARINHA;S2;ALDEIA NOVA;-8.647865;41.100395
ALNV1;R.MARINHA;S2;ALDEIA NOVA;-8.648044;41.100548
BJ3;R.BOLAMA;C1;BENTO JÚNIOR;-8.603393;41.16556
LDSM2;R.SOEIRO MENDES;C2;LIDADOR-SOEIRO MENDES;-8.663912;41.176357
FRB;R.ENG.FERREIRA DIAS;C2;FRANCOS (BOMBEIROS);-8.6428795;41.170498
SL2;AV.ANTÓNIO SANTOS LEITE;C5;SANTOS LEITE;-8.618663;41.22753
SL1;AV.ANTÓNIO SANTOS LEITE;C5;SANTOS LEITE;-8.618862;41.22746
VDN1;LGO.VENDA NOVA;C8;VENDA NOVA;-8.545781;41.174156
VDN4;LGO.VENDA NOVA;C8;VENDA NOVA;-8.545936;41.174408
FNT1;R.1 MAIO (N 105);N16;FONTE;-8.532312;41.238262
FS2;AV.ENG.DUARTE PACHECO;C10;FLOR DA SERRA;-8.521133;41.196434
FS1;AV.ENG.DUARTE PACHECO;C10;FLOR DA SERRA;-8.521037;41.196224
FRS;R.FRANCISCO SANCHES;C1;R.FRANCISCO SANCHES;-8.629773;41.164707
FNT2;R.1 MAIO (N 105);N16;FONTE;-8.531608;41.238804
NVL1;R.BARREIRO;S2;NOVA LISBOA;-8.630878;41.11332
NVL2;R.BARREIRO;S2;NOVA LISBOA;-8.630977;41.113483
CAB4;LGO.CABINE;S2;CABINE;-8.641142;41.10619
CAB3;LGO.CABINE;S2;CABINE;-8.641194;41.106342
CAB2;LGO.CABINE;S2;CABINE;-8.640735;41.10597
CAB1;R.CRASTO;S2;CABINE;-8.640869;41.105965
FNTA;R.FONTAINHAS;C1;FONTAINHAS;-8.602177;41.143753
SM1;R.GODINHO FARIA;C5;SÁ E MELO;-8.610796;41.196434
SM3;TV.DOS MANINHOS;C5;SÁ E MELO;-8.607664;41.22096
SM2;R.GODINHO FARIA;C5;SÁ E MELO;-8.611133;41.195396
SM5;R.SÁ E MELO;C5;SÁ E MELO;-8.611351;41.19608
SM4;TV.DOS MANINHOS;C5;SÁ E MELO;-8.607937;41.221043
OLV2;R.31 JANEIRO;C4;OLIVEIRAS;-8.686157;41.2236
OLV1;R.31 JANEIRO;C4;OLIVEIRAS;-8.686136;41.223267
MFP1;R.MANUEL FERREIRA PINTO;C5;M. FERREIRA PINTO;-8.603626;41.22204
MFP2;R.MANUEL FERREIRA PINTO;C5;M. FERREIRA PINTO;-8.603796;41.222248
BL1;R.BARROS LIMA;C1;BARROS LIMA;-8.595111;41.154263
CVLO;R.COVÊLO;C1;COVELO;-8.607342;41.166622
BL2;AV.FERNÃO MAGALHAES;C1;BARROS LIMA;-8.595392;41.15513
BL4;AV.FERNÃO MAGALHAES;C1;BARROS LIMA;-8.595724;41.154198
PINM1;AV.BOAVISTA;C2;PINHEIRO MANSO;-8.651961;41.16186
CSSO2;AV.DA CONDUTA;C8;C.SOCIAL SOUTELO;-8.5507345;41.169624
PINM3;AV.BOAVISTA;C2;PINHEIRO MANSO;-8.652003;41.161705
URBP1;R.DE MARIA LAMAS;C2;URB. PRELADA;-8.637349;41.170856
CSSO1;AV.DA CONDUTA;C8;C.SOCIAL SOUTELO;-8.550868;41.169495
URBP2;R.DE MARIA LAMAS;C2;URB. PRELADA;-8.637353;41.17099
PINM5;R.S.JOÃO BRITO;C2;PINHEIRO MANSO;-8.650849;41.1624
PINM6;R.S.JOÃO BRITO;C2;PINHEIRO MANSO;-8.651066;41.162426
LGT4;ESTR.CIRCUNVALAÇÃO;C6;LAGARTEIRO;-8.571635;41.155724
GDM11;R.CORONEL CARLOS MOREIRA;N11;GODIM;-8.63767;41.241486
LGT3;ESTR.CIRCUNVALAÇÃO;C6;LAGARTEIRO;-8.57169;41.155823
LPDZ;R.SARAIVA DE CARVALHO;C1;L.GO 1º DEZEMBRO;-8.608979;41.14315
GDM12;R.CORONEL CARLOS MOREIRA;N11;GODIM;-8.637476;41.241394
LGT2;R.AZEVÊDO;C6;LAGARTEIRO;-8.568754;41.151745
LGT1;TV.OUTEIRO TINE;C6;LAGARTEIRO;-8.568767;41.151394
AGU1;R.ANTÓNIO FRANCISCO SOUSA;S2;AGUIM;-8.63661;41.108463
AGU2;R.ANTÓNIO FRANCISCO SOUSA;S2;AGUIM;-8.636233;41.10868
BLM;R.FERNANDES TOMÁS;C1;BOLHÃO (METRO);-8.604888;41.149666
PCB2;R.CAVACO;C5;PONTE CABRAS;-8.600262;41.23369
PCB1;R.CAVACO;C5;PONTE CABRAS;-8.600358;41.23365
CVN2;R.FERNÃO MAGALHÃES;C8;CAVADA NOVA;-8.551467;41.173878
CVN1;R.PEDRO ÁLVARES CABRAL;C8;CAVADA NOVA;-8.553144;41.173798
CZV4;R.N.SRA FÁTIMA;C1;CRUZ VERMELHA;-8.623819;41.160206
CZV3;R.N.SRA.FÁTIMA;C1;CRUZ VERMELHA;-8.625103;41.15963
CZV2;R.OLIVEIRA MONTEIRO;C1;CRUZ VERMELHA;-8.624762;41.16125
ECC1;R.D.JOÃO CASTRO;C8;ENTRE CANCELAS;-8.532333;41.18182
CZV1;R.OLIVEIRA MONTEIRO;C1;CRUZ VERMELHA;-8.624569;41.161263
ECC2;R.D.JOÃO CASTRO;C8;ENTRE CANCELAS;-8.532406;41.181965
SAMP1;R.SIMÕES LOPES;C9;SAMPAIO;-8.560122;41.229664
SAMP2;R.SIMÕES LOPES;C9;SAMPAIO;-8.559039;41.22994
PTD1;R.BARREIRO;S2;PITADA;-8.634914;41.113148
SO1;R.SOARES REIS;S8;S.TO OVÍDIO;-8.606755;41.115643
ETRP2;ESPLANADA RIO JANEIRO;C2;EDIF. TRANSPARENTE;-8.688119;41.17242
SO3;AV.REPÚBLICA;S8;STO. OVÍDIO;-8.60671;41.11619
PTD2;AV.GOMES JUNIOR;S2;PITADA;-8.635426;41.113846
SO2;R.SOARES REIS;S8;STO. OVÍDIO;-8.607354;41.116432
OG1;R.PADRE COSTA;C5;OLIVEIRA GAIO;-8.603678;41.18985
SO4;AV.REPÚBLICA;S8;STO. OVÍDIO;-8.606223;41.11645
ACN1;R.ANTÓNIO CÂNDIDO;C1;ANTÓNIO CÂNDIDO;-8.610425;41.164505
OG2;R.PADRE COSTA;C5;OLIVEIRA GAIO;-8.604185;41.189804
RGDI3;AV.COMERCIO  LEIXÕES;C3;REGADIO;-8.682231;41.189533
RGDI4;R.REGADIO;C3;REGADIO;-8.676948;41.191185
QNV1;R.CEGONHEIRA;C5;QUINTA NOVA;-8.609853;41.235435
RGDI5;R.REGADIO;C3;REGADIO;-8.67701;41.192177
QNV2;R.CEGONHEIRA;C5;QUINTA NOVA;-8.610095;41.235336
LIEG2;R.MARECHAL SALDANHA;C2;PR. DE LIÉGE;-8.677655;41.15498
LIEG1;PR.LIÉGE;C2;PR. DE LIÉGE;-8.677504;41.155155
CRG2;R.MOSTEIRO;C9;CORGA;-8.574867;41.209724
PMAI2;R.AGRA;C9;1º DE MAIO;-8.595567;41.210854
CRG1;R.MOSTEIRO;C9;CORGA;-8.575048;41.209656
PMAI1;R.PONTE PARADA;C9;1º DE MAIO;-8.595473;41.210682
TVLR2;ESTR.CIRCUNVALAÇÃO;C2;TEATRO VILARINHA;-8.6734705;41.17336
QSEC1;R.DR.EDUARDO TORRES;C3;QUINTA SECA;-8.668855;41.180557
SONH1;R.ANTERO QUENTAL;C9;SONHOS;-8.541614;41.216652
TVLR1;ESTR.CIRCUNVALAÇÃO;C2;TEATRO VILARINHA;-8.673434;41.173595
QSEC2;AV.VILLAGARCIA AROSA;C3;QUINTA SECA;-8.667174;41.180363
CSSM1;R.GODINHO FARIA;C5;C. SAÚDE S. MAMEDE;-8.610819;41.19823
SP2;AV.SERPA PINTO;C3;S. PEDRO;-8.696014;41.18559
SP1;AV.SERPA PINTO;C3;S. PEDRO;-8.695661;41.185516
SP4;AV.ENG.DUARTE PACHECO;C3;S.PEDRO;-8.69597;41.186157
MCAU4;R.ALTINO COELHO;C5;MACAU;-8.613233;41.231564
SP3;LGO.S.PEDRO CAMPANHÃ;C6;S. PEDRO;-8.573271;41.146965
ACO1;R.COSTA CABRAL;C6;ANTÓNIO COELHO;-8.584901;41.177353
ACO2;R.COSTA CABRAL;C6;ANTÓNIO COELHO;-8.585338;41.177
CSSM2;R.GODINHO FARIA;C5;C. SAÚDE S. MAMEDE;-8.611009;41.19728
CERR2;R.AREEIROS;S2;CERRO;-8.661164;41.10577
BRRG1;R.ENG.CARLOS AMARANTE;C2;BR.REGADO;-8.61597;41.175556
BRRG2;R.ENG.CARLOS AMARANTE;C2;BR.REGADO;-8.616648;41.175327
SPC;R.ENG.FARINAS ALMEIDA;C11;S. PEDRO DA COVA;-8.503892;41.152058
PING3;R.CORONEL RAÚL PERES;C2;PRAIA DOS INGLESES;-8.678449;41.15266
1CNTM2;R.CONDE CASTELO MELHOR;C6;CONTUMIL;-8.578652;41.165985
CRTO1;AV.BRASIL;C2;CRASTO;-8.681936;41.157463
JAS2;R.OSCAR DA SILVA;C4;JOAQUIM ALVES DA SILVA;-8.692268;41.216454
PINH2;R.PINHEIRO;C9;PINHEIRO;-8.542966;41.219395
JAS1;R.OSCAR DA SILVA;C4;JOAQUIM ALVES DA SILVA;-8.692152;41.2164
PINH1;R.PINHEIRO;C9;PINHEIRO;-8.543097;41.2193
PGM2;R.PAULO GAMA;C2;PAULO DA GAMA;-8.657239;41.148045
CRTO4;R.GONDARÉM;C2;CRASTO;-8.680328;41.15672
VFRR1;R.D.JOÃO CASTRO;C8;VALE FERREIROS;-8.535381;41.18104
PGM1;R.PAULO GAMA;C2;PAULO DA GAMA;-8.65713;41.14823
VFRR2;R.D.JOÃO CASTRO;C8;VALE FERREIROS;-8.535026;41.18128
CRTO2;AV.BRASIL;C2;CRASTO;-8.682065;41.157326
CRTO3;R.MARECHAL SALDANHA;C2;CRASTO;-8.679718;41.15774
CERR1;R.AREEIROS;S2;CERRO;-8.660967;41.105824
PCC1;R.PINTO BESSA;C1;PISCINA CAMPANHÃ;-8.590404;41.149914
ABMG2;R.OSCAR DA SILVA;C4;ABADE MONDEGO;-8.69404;41.21449
ABMG1;R.OSCAR DA SILVA;C4;ABADE MONDEGO;-8.693935;41.214256
PCC2;R.PINTO BESSA;C1;PISCINA CAMPANHÃ;-8.590455;41.1501
GODC1;R.5 OUTUBRO;C8;GONDOMAR (CÂMARA);-8.535733;41.143635
MOD1;R.PADRE COSTA;C5;MOALDE;-8.606015;41.190647
SR2;R.S.ROQUE LAMEIRA;C6;S. ROQUE;-8.569309;41.166172
SR1;R.S.ROQUE LAMEIRA;C6;S. ROQUE;-8.569471;41.166134
MOD2;R.PADRE COSTA;C5;MOALDE;-8.606318;41.1906
SR4;R.S.ROQUE LAMEIRA;C6;S. ROQUE;-8.566847;41.16645
SR3;R.ANTERO ANTUNES DE ALBUQUERQUE;C6;S. ROQUE;-8.5678835;41.1668
SR6;ESTR.CIRCUNVALAÇÃO;C6;S. ROQUE;-8.56655;41.166927
SR5;ESTR.CIRCUNVALAÇÃO;C6;S. ROQUE (CIRCUNV.);-8.568797;41.16773
LCP1;R.ALBERTO LAURA MOREIRA;C4;LEÇA PALMEIRA;-8.696851;41.1988
DJOA4;R.FERNANDES TOMÁS;C1;D. JOÃO IV;-8.601513;41.148983
FNZ2;AV.DA CONDUTA;C8;FÂNZERES (METRO);-8.543254;41.16852
ALD1;R.MARTIM MONIZ;C2;ALDOAR JUNTA  FREG.;-8.67078;41.170948
ALD2;R.MARTIM MONIZ;C2;ALDOAR JUNTA  FREG.;-8.67054;41.170765
CRJ2;R.S.ROQUE LAMEIRA;C6;CORUJEIRA;-8.58076;41.159447
PTH1;R.CUSTIÓ;C5;PONTELHAS;-8.638627;41.222492
RCMB1;R.RIBEIRO CAMBADO;C10;RIBEIRO CAMBADO;-8.51503;41.1926
CRJ1;R.S.ROQUE LAMEIRA;C6;CORUJEIRA;-8.580877;41.159313
JNN2;R.GONDARÉM;C2;JACINTO NUNES;-8.681512;41.158134
PTH2;R.CUSTIÓ;C5;PONTELHAS;-8.638781;41.22235
FLUN1;R.DIOGO BOTELHO;C2;FLUVIAL (NORTE);-8.655342;41.15212
FLUN2;R.DIOGO BOTELHO;C2;FLUVIAL (NORTE);-8.654072;41.152122
RCMB2;R.RIBEIRO CAMBADO;C10;RIBEIRO CAMBADO;-8.514469;41.19247
SRP;R.SERPA PINTO;S8;SERPA PINTO;-8.6181965;41.13351
CSSH3;AV.VASCO GAMA;C3;CENTRO DE SAÚDE SRA HORA;-8.658287;41.191284
FMGO3;R.MOSTEIRO;C9;FORMIGUEIRO;-8.586445;41.20527
CSSH1;R.LAGOA;C3;C.SAÚDE DA  SRA.HORA;-8.657813;41.19169
FMGO4;R.MOSTEIRO;C9;FORMIGUEIRO;-8.5866;41.205376
CRTM2;VIA ESTRUTURANTE DE CRESTINS;N10;CRESTINS (METRO);-8.65554;41.231358
SLOP;R.SIMÕES LOPES;C9;SIMÕES LOPES;-8.553468;41.227787
FMGO1;R.GUERRA JUNQUEIRO;C9;FORMIGUEIRO;-8.5869875;41.204887
FMGO2;R.GUERRA JUNQUEIRO;C9;FORMIGUEIRO;-8.587188;41.20487
LGCL1;LGO.CAMPO LINDO;C1;LGO.CAMPO LINDO;-8.607755;41.169933
LGCL2;LGO.CAMPO LINDO;C1;LGO.CAMPO LINDO;-8.608247;41.169735
CRTM1;VIA ESTRUTURANTE DE CRESTINS;N10;CRESTINS (METRO);-8.6557455;41.231598
VDV2;AV.INFANTE D.HENRIQUE;S8;VISCONDE DEVESAS;-8.613971;41.12286
ST2;ESTR.CIRCUNVALAÇÃO;C6;S. TOMÉ;-8.6101265;41.18444
ST1;ESTR.CIRCUNVALAÇÃO;C6;S. TOMÉ;-8.610644;41.184082
ST4;R.S.TOMÉ;C6;S. TOMÉ;-8.609535;41.184013
ST3;R.S.TOMÉ;C6;S. TOMÉ;-8.609331;41.183933
OL2;R.HÍNTZE RIBEIRO;C4;OLIVEIRA LESSA;-8.703617;41.1906
EXP1;AV.ANT.MACEDO;C4;EXPONOR;-8.691805;41.198883
EXP2;AV.ANT.MACEDO;C4;EXPONOR;-8.69191;41.19853
OL1;R.HERÓIS ÁFRICA;C4;OLIVEIRA LESSA;-8.703624;41.191055
EXP5;AV.ANT.MACEDO;C4;EXPONOR;-8.692834;41.2012
EXP6;AV.ANT.MACEDO;C4;EXPONOR;-8.69305;41.20119
SRSD1;R.SANTANA;C5;S.RA DA SAÚDE;-8.614118;41.216064
TOR4;R.TOURAIS;C3;TOURAIS;-8.667247;41.198345
SRSD2;R.SANTANA;C5;S.RA DA SAÚDE;-8.614329;41.215973
PJUV1;R.PAULO GAMA;C2;POUSADA JUVENTUDE;-8.659909;41.148685
RMT3;R.MATAS;S8;R. DAS MATAS;-8.633059;41.12103
PJUV2;R.PAULO GAMA;C2;POUSADA JUVENTUDE;-8.660178;41.148716
TOR1;R.TOURAIS;C3;TOURAIS;-8.66751;41.198288
RMT1;R.ENTRE MUROS;S8;R. DAS MATAS;-8.633513;41.12107
CPNH2;R.MANUEL M.COSTA JÚNIOR;S2;CAMPOLINHO;-8.631825;41.09614
FNZ1;AV.DA CONDUTA;C8;FÂNZERES (METRO);-8.543334;41.168415
CPNH1;R.MANUEL M.COSTA JÚNIOR;S2;CAMPOLINHO;-8.6313715;41.095543
RMT2;R.DR.DOMINGOS MATOS;S8;R. DAS MATAS;-8.6333;41.120804
BS2;LGO.FERREIRA LAPA;C1;BOAVISTA - B.SUCESSO;-8.628362;41.155197
BS1;R.JÚLIO DINIS;C1;BOAVISTA - B.SUCESSO;-8.627884;41.15643
BS4;LGO.FERREIRA LAPA;C1;BOAVISTA - B.SUCESSO;-8.6284275;41.156143
BS6;LGO.FERREIRA LAPA;C1;BOAVISTA - B. SUCESSO;-8.628556;41.155952
BS5;LGO.FERREIRA LAPA;C1;BOAVISTA-B.SUCESSO;-8.628559;41.156322
BS8;LGO.FERREIRA LAPA;C1;BOM SUCESSO;-8.628286;41.155243
BS7;LGO.FERREIRA LAPA;C1;BOAVISTA - B.SUCESSO;-8.628628;41.156082
ICAM2;R.FALCÃO;C6;IGREJA DE CAMPANHÃ;-8.574084;41.15551
APRD2;R.BARÃO CORVO;S8;ARCO DO PRADO;-8.624727;41.127125
APRD1;R.BARÃO CORVO;S8;ARCO DO PRADO;-8.625079;41.126694
BS9;R.BOM SUCESSO;C1;BOAVISTA (BOM SUCESSO);-8.628349;41.15577
APRD3;R.SENHOR MATOSINHOS;S8;ARCO DO PRADO;-8.624775;41.126743
BSB;R.CONSTITUIÇÃO;C1;SAPADOR. BOMBEIROS;-8.615629;41.163395
OLM;R.QUINTA AMARELA;C1;OLIVEIRA MONTEIRO;-8.62406;41.163242
PDCM1;TV.NOVA DA GIESTA;C9;PEDROUÇOS (CEMITÉRIO);-8.589024;41.188957
EPC1;R.FRANÇA BORGES;C5;EST PRISIONAL DE CUSTOIAS;-8.636638;41.206535
PINT2;R.DR.BERNARDINO MACHADO;N11;PINTA;-8.621114;41.24234
PINT1;R.DR.BERNARDINO MACHADO;N11;PINTA;-8.620901;41.242332
IGRA1;R.S.VICENTE;N16;IGREJA DE ALFENA;-8.525795;41.236572
IGRA2;R.S.VICENTE;N16;IGREJA DE ALFENA;-8.525935;41.236717
RFND1;R.PASSARIAS;N16;R. FUNDA;-8.534949;41.233738
FBC1;ESTR.CIRCUNVALAÇÃO;C6;FÁBRICA DO COBRE;-8.570618;41.169308
CRM3;R.DELFIM FERREIRA;C2;CASA DE RAMALDE;-8.645584;41.169098
FBC2;ESTR.CIRCUNVALAÇÃO;C6;FÁBRICA DO COBRE;-8.568711;41.170612
CRM2;R.CRUZES;C2;CASA DE RAMALDE;-8.646038;41.168365
CRM1;R.CRUZES;C2;CASA DE RAMALDE;-8.645911;41.168243
CIRC5;R.SENHOR;C2;CIRCUNVALAÇÃO;-8.6464405;41.18314
RFND2;R.PASSARIAS;N16;R.FUNDA;-8.534944;41.234135
VNEM1;R.ESTEVES;C8;VITORINO NEMESIO;-8.557274;41.164898
VNEM2;R.ESTEVES;C8;VITORINO NEMESIO;-8.557184;41.16509
ZOID1;R.SANTOS DIAS;C5;ZONA INDUSTRIAL;-8.608657;41.20259
ZOID2;R.SANTOS DIAS;C5;ZONA INDUSTRIAL;-8.608765;41.202988
DDN2;R.GUERRA JUNQUEIRO;C9;D.DINIS;-8.583257;41.19769
DDN1;R.GUERRA JUNQUEIRO;C9;D.DINIS;-8.583668;41.1981
CBMN2;R.ALMEIRIGA NORTE;C4;CABO MUNDO;-8.713028;41.220566
C62;AV.DR.ANTUNES GUIMARÃES;C4;CAIS 6;-8.688848;41.19367
CPRN4;R.DR.MANUEL PEREIRA SILVA;C6;CEMITÉRIO PARANHOS;-8.600452;41.174236
C61;AV.DR.ANTUNES GUIMARÃES;C4;CAIS 6;-8.689;41.19377
CPRN3;R.DR.MANUEL PEREIRA SILVA;C6;CEMITÉRIO PARANHOS;-8.600176;41.174248
GODH5;AV.SERPA PINTO;C3;GODINHO;-8.692116;41.18189
GODH4;R.ÁLVARO CASTELÕES;C3;GODINHO;-8.687924;41.18281
GODH6;AV.SERPA PINTO;C3;GODINHO;-8.692227;41.181725
CALE;R.BOM SUCESSO;C1;R.CAMPO ALEGRE;-8.628588;41.152843
JFB1;R.P. ABÍLIO SAMPAIO;N11;JUNTA FREG. BARCA;-8.611832;41.24681
GODH3;R.ROBERTO IVENS;C3;GODINHO;-8.6911955;41.182613
BSS3;AV.BOAVISTA;C1;BESSA;-8.642931;41.160343
BSS2;AV.BOAVISTA;C1;BESSA;-8.644766;41.160496
JFB3;R.P. ABÍLIO SAMPAIO;N11;JUNTA FREG. BARCA;-8.61121;41.24666
BSS1;AV.BOAVISTA;C1;BESSA;-8.6447115;41.160645
SHRM2;AV.FABRIL NORTE;C2;SRA. HORA (METRO);-8.654051;41.187298
MFZ1;PR.IMPÉRIO;C2;MERCADO DA FOZ;-8.673295;41.155075
MFZ2;R.CÊRCA;C2;MERCADO DA FOZ;-8.673742;41.15447
SHRM4;R.VASCO SANTANA;C2;SENHORA DA HORA (METRO);-8.653631;41.187813
GRC1;AV.FRANÇA;C1;GRACIOSA;-8.627457;41.16295
LGCP1;LGO.S.SEBASTIÃO;C5;LGO. DA CAPELA;-8.623296;41.2067
LGCP2;LGO.S.SEBASTIÃO;C5;LGO. DA CAPELA;-8.623395;41.206837
CAL2;R.ANT.JOSE ALMEIDA;C5;CAL;-8.642982;41.20505
CAL1;R.ANTÓNIO J.ALMEIDA;C5;CAL;-8.643356;41.205273
BV1;R.EDUARDO CASTRO GANDRA;C11;BELA VISTA;-8.516226;41.157093
BV2;R.EDUARDO CASTRO GANDRA;C11;BELA VISTA;-8.51595;41.157097
GUAR2;R.OCIDENTAL;C4;GUARDA;-8.706945;41.22416
CNG2;ESTR.CIRCUNVALAÇÃO;C2;CONGOSTAS;-8.633983;41.180145
CNG1;ESTR.CIRCUNVALAÇÃO;C2;CONGOSTAS;-8.6340885;41.180016
BPTL2;R.BARTOLOMEU VELHO;C2;BR. DA PASTELEIRA;-8.658153;41.154922
BPTL1;R.BARTOLOMEU VELHO;C2;BR. DA PASTELEIRA;-8.658138;41.1551
CTIO2;R.CUSTIÓ;C5;CUSTIÓ;-8.639539;41.22474
CTIO1;R.CUSTIÓ;C5;CUSTIÓ;-8.639271;41.224415
CMIC1;R.OLIVEIRA MONTEIRO;C1;CAROLINA MICHAELIS;-8.6221075;41.157986
CMIC2;R.OLIVEIRA MONTEIRO;C1;CAROLINA MICHAELIS;-8.6227255;41.158134
CAM3;R.AMIAL;C6;CARLOS AMARANTE;-8.613824;41.17548
CAM1;R.AMIAL;C6;CARLOS AMARANTE;-8.613605;41.175476
GATS2;R.PONTE DO CARRO;C3;GATÕES;-8.664549;41.210197
GATS1;R.PONTE DO CARRO;C3;GATÕES;-8.6651125;41.210697
NEVG;R.PERO ALENQUER;C2;NEVOGILDE;-8.679182;41.161537
URBS2;AV.DA CONDUTA;C8;URB.SOUTELO;-8.547904;41.169
DQL1;AV.RODRIGUES FREITAS;C1;DUQUE LOULÉ;-8.603578;41.14558
GA1;R.JOSÉ MARIANI;S8;GUEDES AMORIM;-8.619088;41.12588
URBS1;AV.DA CONDUTA;C8;URB.SOUTELO;-8.547771;41.168827
GIT1;R.D.AFONSO HENRIQUES;C9;GIESTA;-8.580105;41.19114
ALVT2;R.CORONEL ALMEIDA VALENTE;C6;ALMEIDA VALENTE;-8.609432;41.175133
RMAR2;R.MARINHA;S2;R.MARINHA;-8.653981;41.100952
RMAR1;R.MARINHA;S2;R.MARINHA;-8.654123;41.10106
PTLH;R.MANARIZ;C8;PORTELINHA;-8.546363;41.162
JAZ1;R.JERÓNIMO AZEVEDO;C2;JERÓNIMO AZEVEDO;-8.648587;41.17952
PTM2;R.CUSTIÓ;C5;PONTE DE MOREIRA;-8.645056;41.23535
JAZ2;R.JERÓNIMO AZEVEDO;C2;JERÓNIMO AZEVEDO;-8.645674;41.180824
PTM1;R.CUSTIÓ;C5;PONTE DE MOREIRA;-8.645187;41.235516
MOIN3;R.MAINÇA;C5;MOINHOS;-8.6189;41.19435
MOIN4;R.MAINÇA;C5;MOINHOS;-8.619061;41.194294
NEV3;AV.BOAVISTA;C2;NEVOGILDE;-8.678414;41.16615
CNTT2;R.ANTERO QUENTAL;C1;CONSTITUIÇÃO;-8.6110525;41.16413
NEV2;AV.BOAVISTA;C2;NEVOGILDE;-8.678238;41.166267
PCL2;R.DIOGO BOTELHO;C2;PADRE LUIS CABRAL;-8.667738;41.151566
DCAS2;R.STA.CATARINA;C1;DOZE CASAS;-8.604609;41.158054
PCL1;R.DIOGO BOTELHO;C2;PADRE LUIS CABRAL;-8.668304;41.152004
MTCT1;R.PAUS;C3;MONTE CASTELO;-8.67192;41.197186
ALVS2;R.ORIENTAL;C4;JOAQUIM ALVES SILVA;-8.695235;41.223816
DCAS1;R.STA.CATARINA;C1;DOZE CASAS;-8.60433;41.159435
MTCT2;R.PAUS;C3;MONTE CASTELO;-8.671704;41.197094
ALVS1;R.J.ALVES SILVA;C4;JOAQUIM ALVES SILVA;-8.695333;41.224236
RRDL1;R.RODELO;S2;R.RODELO;-8.645888;41.11527
RRDL2;R.RODELO;S2;R. RODELO;-8.645743;41.115307
PASS3;R.PASSEIO ALEGRE;C2;PASSEIO ALEGRE;-8.672047;41.14917
1SGZ2;AV.SALGADO ZENHA;C3;AV. SALGADO ZENHA;-8.660867;41.1946
1SGZ1;AV.SALGADO ZENHA;C3;AV. SALGADO ZENHA;-8.661018;41.1948
PASS1;ESPLANADA CASTELO;C2;PASSEIO ALEGRE;-8.6725855;41.148903
PASS2;R.PASSEIO ALEGRE;C2;PASSEIO ALEGRE;-8.667623;41.147713
APT3;R.ANTÓNIO PATRÍCIO;C1;ANTÓNIO PATRÍCIO;-8.6403885;41.1587
CRR2;R.N.SRA.AMPARO;C8;CARREIRA;-8.540992;41.177876
CRR1;R.N.SRA.AMPARO;C8;CARREIRA;-8.540721;41.17782
APT1;R.ANTÓNIO CARDOSO;C1;ANTÓNIO PATRÍCIO;-8.640868;41.15917
PRUE1;R.CRUZ GUARDEIRAS;N10;PEDRAS RUBRAS (ESTAÇÃO);-8.662064;41.248276
GC1;AV.BOAVISTA;C2;VODAFONE SERRALVES;-8.657416;41.162785
RFER1;R.FERROVIÁRIO;C3;R.FERROVIÁRIO;-8.66155;41.209595
RFER2;R.FERROVIÁRIO;C3;R.FERROVIÁRIO;-8.661638;41.209446
GC2;AV.BOAVISTA;C2;VODAFONE SERRALVES;-8.657407;41.1626
BZ1;R.ESTRADA NOVA;C9;BAZAR;-8.559799;41.18252
PAST1;R.JOÃO MASCARENHAS;C2;PASTELEIRA;-8.655218;41.153366
STLZ1;R.STA.LUZIA;C2;STA. LUZIA;-8.624705;41.177395
STLZ2;R.STA.LUZIA;C2;S.TA LUZIA;-8.6249075;41.177402
BZ2;R.ESTRADA NOVA;C9;BAZAR;-8.560087;41.182495
CART2;R.CAMPO ALEGRE;C1;CASA DAS ARTES;-8.640988;41.15364
STLZ3;VIA ESTRUTURANTE DE CRESTINS;C5;CRESTINS (STA. LUZIA);-8.649889;41.23535
STLZ4;VIA ESTRUTURANTE DE CRESTINS;C5;CRESTINS (STA. LUZIA);-8.649711;41.23535
PCNS;TV.CALOUSTE GULBENKIAN;C9;PISCINAS;-8.560899;41.177814
CART1;R.CAMPO ALEGRE;C1;CASA DAS ARTES;-8.641294;41.153843
2PVC2;AV.MARECHAL GOMES COSTA;C2;PÊRO VAZ CAMINHA;-8.667089;41.157284
GIT2;R.D.AFONSO HENRIQUES;C9;GIESTA;-8.580426;41.190742
MFOT2;R.VILAR;N16;MONFORTE;-8.541308;41.231552
PRUE2;R.DR.FARINHOTE;N10;PEDRAS RUBRAS (ESTAÇÃO);-8.663014;41.247616
MFOT1;R.VILAR;N16;MONFORTE;-8.541305;41.23137
ALM2;AV.GUSTAVO EIFFEL;C1;ALAMEDA;-8.599186;41.14169
ALM1;AV.GUSTAVO EIFFEL;C1;ALAMEDA;-8.599019;41.14178
PCN2;R.GONÇALVES ZARCO;C4;PONTE CARRO;-8.674706;41.214752
PCN1;R.GONÇALVES ZARCO;C4;PONTE CARRO;-8.67491;41.2147
GCR;R.VASCO GAMA;C10;GASPAR CORTE REAL;-8.510061;41.19484
DNAP3;AV.VILLAGARCIA AROSA;C3;D. NUNO A. PEREIRA;-8.679539;41.17921
MTCR2;R.BENTO JESUS CARAÇA;C8;MONTE CRASTO;-8.53158;41.139145
DNAP4;R.D.NUN''ÁLVARES PEREIRA;C3;D. NUNO A. PEREIRA;-8.679021;41.179066
A25A1;AV.25 ABRIL;C1;AV. 25 DE ABRIL;-8.58627;41.155537
MTCR1;R.25 ABRIL;C8;MONTE CRASTO;-8.531857;41.139347
CRTD;R.AREIAS;C4;CARTÓDROMO;-8.713924;41.224026
GENT;R.JÁU;S8;GENERAL TORRES;-8.608315;41.133
CRT2;R.ESCOLAS;C6;CARTES;-8.572711;41.1615
CRT1;ALAMEDA CARTES;C6;CARTES;-8.574848;41.162605
SLZ3;AV.RODRIGUES FREITAS;C1;S. LÁZARO;-8.601289;41.14583
FRXI2;TV.31 JANEIRO;C4;FREIXIEIRO;-8.685474;41.227375
SLZ1;AV.RODRIGUES FREITAS;C1;S. LÁZARO;-8.602577;41.145546
FRXI3;AV.AEROPORTO;C4;FREIXIEIRO (E.N.107);-8.68076;41.22625
FRXI6;R.31 JANEIRO;C4;FREIXIEIRO;-8.684051;41.226208
CARR2;AV.ANT.DOMINGUES SANTOS;C3;CARRIÇAL;-8.657943;41.186382
FRXI7;R.ORIENTAL;C4;FREIXIEIRO;-8.683518;41.22558
CARR1;AV.ANT.DOMINGUES SANTOS;C3;CARRIÇAL;-8.658686;41.186176
PCID4;ESTR.CIRCUNVALAÇÃO;C2;PR. CID. SALVADOR;-8.689001;41.17397
PCID2;PR.CIDADE SALVADOR;C2;PR. CID. SALVADOR;-8.689393;41.173428
PCID3;ESPLANADA RIO JANEIRO;C2;PR. CID. SALVADOR;-8.688003;41.17263
PCID1;ESTR.CIRCUNVALAÇÃO;C2;PR. CID. SALVADOR;-8.688351;41.17402
HPRL2;R.MONTE BURGOS;C1;HOSP. PRELADA;-8.625879;41.170124
HPRL3;R.SARMENTO BEIRES;C1;HOSPITAL DA PRELADA;-8.628109;41.169796
HPRL4;R.SARMENTO BEIRES;C1;HOSPITAL DA PRELADA;-8.628339;41.16971
HPRL1;R.CARVALHIDO;C1;HOSP. PRELADA;-8.625408;41.168957
ASRR4;R.VASCO GAMA;C8;ALTO DA SERRA;-8.518341;41.19305
ASRR2;AV.ENG.DUARTE PACHECO;C10;ALTO DA SERRA;-8.517819;41.194504
ASRR3;AV.ENG.DUARTE PACHECO;C10;ALTO DA SERRA;-8.518249;41.194595
JZOO1;R.IGREJA;C5;JARDIM ZOOLÓGICO;-8.629438;41.233482
JZOO2;R.IGREJA;C5;JARDIM ZOOLÓGICO;-8.629455;41.23322
FSNT1;R.FERREIRA SANTOS;C6;FERREIRA SANTOS;-8.578027;41.15648
CART;R.ANTÓNIO CARDOSO;C1;CASA  DAS ARTES;-8.641855;41.155968
SRGB1;R.GAMA BARROS;C6;S. ROQUE G. BARROS;-8.570504;41.16697
TXP1;R.CONSTITUIÇÃO;C1;TEIXEIRA PASCOAIS;-8.598676;41.16126
SRGB3;R.S.ROQUE LAMEIRA;C6;S.ROQUE G. BARROS;-8.57036;41.166065
FMGC1;R.FORMIGA;C9;FORMIGA CEMITÉRIO;-8.542131;41.209713
FMGC2;R.FORMIGA;C9;FORMIGA CEMITÉRIO;-8.54221;41.209454
NATV;AV.N.SRA.NATIVIDADE;C9;NOSSA SRA. DA NATIVIDADE;-8.587944;41.187992
VILR;R.D.MANUEL II;C1;VILAR;-8.626218;41.148876
CRV2;AV.D.AFONSO HENRIQUES;C3;CARCAVELOS;-8.681726;41.179634
LOTA1;AV.SERPA PINTO;C3;LOTA;-8.693735;41.18354
CRV1;AV.D.AFONSO HENRIQUES;C3;CARCAVELOS;-8.681604;41.17987
LOTA2;AV.SERPA PINTO;C3;LOTA;-8.693527;41.183056
MOR1;R.ALEGRIA;C1;MOREIRA;-8.60345;41.153675
MOR2;R.D.JOÃO IV;C1;MOREIRA;-8.60225;41.153038
GGF;PR.GUILHERME GOMES FERNANDES;C1;GUIL. G. FERNANDES;-8.614693;41.147694
MOR3;R.SANTOS POUSADA;C1;MOREIRA;-8.599726;41.153755
ADA4;R.VALE FORMOSO;C1;ARCA D ÁGUA;-8.6126995;41.17082
5OUT1;R.5 OUTUBRO;C9;5 DE OUTUBRO;-8.5847025;41.199554
ANTG1;AV.VASCO GAMA;C2;ANTUNES GUIMARÃES;-8.655652;41.170555
5OUT2;R.5 OUTUBRO;C9;5 DE OUTUBRO;-8.584701;41.199715
ANTG2;AV.VASCO GAMA;C2;ANTUNES GUIMARÃES;-8.655774;41.17043
ADA2;R.MONSANTO;C1;ARCA D ÁGUA;-8.6140785;41.171936
ADA3;R.VALE FORMOSO;C1;ARCA D ÁGUA;-8.612918;41.170753
ADA1;R.MONSANTO;C1;ARCA D ÁGUA;-8.613944;41.171787
MGB2;R.A.CASAIS MONTEIRO;C1;MIGUEL BOMBARDA;-8.622849;41.14871
PLC2;R.PADRE LUÍS CAMPOS;N11;PADRE LUIS CAMPOS;-8.61512;41.239952
PLC1;R.PADRE LUÍS CAMPOS;N11;PADRE LUIS CAMPOS;-8.615272;41.23998
NAT1;R.NATÁRIA;C1;NATÁRIA;-8.6240635;41.16743
NAT2;R.NATÁRIA;C1;NATÁRIA;-8.623755;41.167343
CRVL;R.CONCEIÇÃO FERNANDES;S8;CRAVEL;-8.602271;41.114037
SARI1;R.TOURAIS;C3;SARILHOS;-8.669368;41.19671
IGRL2;AV.COMBATENTES G.GUERRA;C4;IGREJA LEÇA;-8.697372;41.193134
SARI2;R.TOURAIS;C3;SARILHOS;-8.669004;41.196552
IGRL1;AV.COMBATENTES G.GUERRA;C4;IGREJA LEÇA;-8.698338;41.19329
TAN;R.ALDEIA NOVA;S2;TV. ALDEIA NOVA;-8.649241;41.1032
PISA2;R.ARREGADAS;C9;PISÃO;-8.572733;41.222717
PISA1;R.ARREGADAS;C9;PISÃO;-8.572673;41.222565
DCVT1;ALAM.DAS ANTAS;C1;DOLCE VITA;-8.585969;41.16274
DCVT2;ALAM.DAS ANTAS;C1;DOLCE VITA;-8.585713;41.163216
MCBL1;R.SÁ BANDEIRA;C1;MERCADO DO BOLHÃO;-8.607408;41.149406
PRQC1;R.CERRO;S2;PARQUE CAMPISMO;-8.656463;41.10684
PRQC2;R.CERRO;S2;PARQUE CAMPISMO;-8.656526;41.1072
AGOM1;R.AUGUSTO GOMES;S8;AUGUSTO GOMES;-8.633909;41.123417
FCAS2;RUA FERREIRA DE CASTRO;S8;FERREIRA DE CASTRO;-8.611152;41.109776
FCAS1;RUA FERREIRA DE CASTRO;S8;FERREIRA DE CASTRO;-8.611101;41.10988
GEST;R.P. ABÍLIO SAMPAIO;N11;GESTALINHO;-8.610139;41.2463
FTMR4;R.ILHAR MOURISCA;C10;FONTE MOURISCA;-8.492037;41.19075
FTMR3;R.ILHAR MOURISCA;C10;FONTE MOURISCA;-8.492096;41.190887
PRDJ1;R.SÁ BANDEIRA;C1;PR. D. JOÃO I;-8.608342;41.14807
PRDJ2;R.SÁ BANDEIRA;C1;PR.D.JOÃO I;-8.608105;41.14805
IGAL2;R.JORNAL NOTÍCIAS;C2;IGREJA DE  ALDOAR;-8.666221;41.17045
IGAL1;R.JORNAL NOTÍCIAS;C2;IGREJA DE ALDOAR;-8.66637;41.170116
GJ2;R.ANTÓNIO FRANCISCO SOUSA;S2;GOMES JÚNIOR;-8.634459;41.10961
GJ1;R.ANTÓNIO FRANCISCO SOUSA;S2;GOMES JÚNIOR;-8.634505;41.109776
GSHP2;AV.DESCOBRIMENTOS;S8;GAIASHOPPING;-8.622123;41.11876
CB2;AV.CARVALHA;C8;CARVALHA DE BAIXO;-8.539246;41.163914
GSHP1;AV.DESCOBRIMENTOS;S8;GAIASHOPPING;-8.622186;41.118412
CB1;AV.CARVALHA;C8;CARVALHA DE BAIXO;-8.5393305;41.163773
GUFE1;AV.FLORES;C5;GUEIFÃES (ESC.EB2/3);-8.600051;41.214527
GND2;AV.GUSTAVO EIFFEL;C1;GUINDAIS;-8.6058655;41.141617
GUFE2;AV.FLORES;C5;GUEIFÃES (ESC.EB2/3);-8.600283;41.214455
GND1;AV.GUSTAVO EIFFEL;C1;GUINDAIS;-8.605894;41.141758
PCT4;R.5 OUTUBRO;C5;PICOUTOS;-8.623589;41.19148
PCT3;R.5 OUTUBRO;C5;PICOUTOS;-8.623315;41.191395
CAZ;R.NOVA S.CRISPIM;C1;COUTINHO AZEVEDO;-8.596949;41.15936
RNF1;R.MANUEL J.FERNANDES SANTOS;C9;R.NOVA DA FONTE;-8.546237;41.220417
LDD2;AV.ANTUNES GUIMARÃES;C2;LIDADOR;-8.657434;41.170334
ASRR1;R.VASCO GAMA;C8;ALTO DA SERRA;-8.518093;41.19335
LDD1;AV.ANTUNES GUIMARÃES;C2;LIDADOR;-8.657635;41.169827
RFAR1;R.DO FAROL;C2;FOZ;-8.677245;41.15276
LDD6;ESTR.CIRCUNVALAÇÃO;C2;LIDADOR /HOSPITAL;-8.662355;41.17724
VALC2;AV.5 OUTUBRO;C10;VALONGO (CENTRO);-8.4977255;41.190155
RALG;R.LATINO COELHO;C1;R. DA ALEGRIA;-8.601725;41.159557
LDD9;ESTR.CIRCUNVALAÇÃO;C2;LIDADOR /HOSPITAL;-8.662713;41.177937
RNF2;R.MANUEL J.FERNANDES SANTOS;C9;R.NOVA DA FONTE;-8.546686;41.22082
RGDU1;R.LOMBA;C3;REGEDOURA;-8.66474;41.20334
ADNV1;R.S.VICENTE;N16;ALDEIA NOVA;-8.527648;41.229584
ADNV2;R.S.VICENTE;N16;ALDEIA NOVA;-8.527999;41.22949
SDP1;AV.SIDÓNIO PAIS;C1;SIDÓNIO PAIS;-8.637155;41.164623
SDP2;AV.SIDÓNIO PAIS;C1;SIDÓNIO PAIS;-8.637046;41.164482
VALC1;PR.MACHADO SANTOS;C10;VALONGO (CENTRO);-8.496443;41.189205
ALT1;R.DE ALTOS;C5;ALTOS;-8.612916;41.236866
ALT2;R.DE ALTOS;C5;ALTOS;-8.612747;41.2369
CRZ2;R.RODRIGUES FREITAS;C9;CRUZEIRO;-8.554373;41.213272
CRZ1;R.RODRIGUES FREITAS;C9;CRUZEIRO;-8.554108;41.213432
GCRT1;R.DR.ALFREDO MAGALHÃES;C1;GONÇALO CRISTÓVÃO;-8.60945;41.15434
MTA2;R.M.FERREIRA CRUZ;C5;MOUTA;-8.604225;41.211327
GAN1;R.ELIAS GARCIA;C9;GANDRA;-8.559342;41.215683
GCRT2;R.CAMÕES;C1;GONÇALO CRISTÓVÃO;-8.610085;41.1543
MTA3;R.M.FERREIRA CRUZ;C5;MOUTA;-8.604043;41.211327
GAN2;R.D.AFONSO HENRIQUES;C9;GANDRA;-8.559787;41.215397
VRZL1;ESTR.CIRCUNVALAÇÃO;C6;VARZIELA;-8.576974;41.180862
PLG2;R.FONTE VELHA;C5;PADRÃO DA LÉGUA;-8.633572;41.19193
PLG1;R.NOVA SEIXO;C5;PADRÃO DA LÉGUA;-8.633518;41.192562
CCB;R.SANTANA;C5;CAMILO C. BRANCO;-8.613423;41.20875
VRZL2;ESTR.CIRCUNVALAÇÃO;C6;VARZIELA;-8.576959;41.18112
2PREL2;R.PADRE DIAMANTINO;C2;PRELADA;-8.638512;41.173164
PCV2;R.GONDARÉM;C2;PERO COVILHÃ;-8.685193;41.164577
PLG4;R.S.GENS;C5;PADRÃO LÉGUA;-8.634635;41.192516
PLG3;R.MONTE MINA;C5;PADRÃO LÉGUA;-8.633058;41.192905
CCL;R.BÉLGICA;S1;CANCELINHAS;-8.651694;41.13142
RAL3;R.CONS.LUÍS MAGALHÃES;N11;REAL;-8.648286;41.24464
RAL4;R.CONS.LUÍS MAGALHÃES;N11;REAL;-8.648625;41.24441
RAL1;R.D.SILVIA ALVES TEIXEIRA;C5;REAL;-8.604731;41.232864
TEC;R.ARRÁBIDA;C2;TV. ENTRE CAMPOS;-8.643904;41.149506
RAL2;R.D.SILVIA ALVES TEIXEIRA;C5;REAL;-8.604726;41.233032
AHRQ2;R.1 MAIO (N 105);N16;AFONSO HENRIQUES;-8.536595;41.236347
AHRQ1;R.D.AFONSO HENRIQUES;N16;D.AFONSO HENRIQUES;-8.536497;41.23619
RNH2;ESTR.CIRCUNVALAÇÃO;C6;RANHA;-8.567981;41.17757
TF2;R.SANTANA;C5;TV. FEIRA;-8.6133585;41.21033
VRD1;AV.PAIVA COUCEIRO;C1;VARANDAS;-8.587498;41.142277
TPEN;R.PENEDO;S2;TV. PENEDO;-8.62447;41.09525
VRD2;AV.PAIVA COUCEIRO;C1;VARANDAS;-8.58738;41.142223
RNH1;ESTR.CIRCUNVALAÇÃO;C6;RANHA;-8.5674095;41.17694
PPR2;R.MONTE BURGOS;C2;PARQUE DA PRELADA;-8.627663;41.1751
ALVC;R.GODINHO;C3;ÁLVARO CASTELÕES;-8.68793;41.183388
UFP2;R.DELFIM MAIA;C6;UNIV. F. PESSOA;-8.6097975;41.17285
CNT4;R.PASSEIO ALEGRE;C2;CANTAREIRA;-8.665646;41.14782
UFP1;R.CARLOS MAIA;C6;UNIV. F. PESSOA;-8.608987;41.17257
CNT3;R.PASSEIO ALEGRE;C2;CANTAREIRA;-8.665632;41.14801
CNT2;R.PASSEIO ALEGRE;C2;CANTAREIRA;-8.665809;41.147934
CTSS2;R.CATASSOL;C5;CATASSOL;-8.614179;41.22032
CTSS1;R.CATASSOL;C5;CATASSOL;-8.614034;41.22056
VIS1;R.BORDEAUX;C2;VISO (METRO);-8.645283;41.178688
VIS2;R.JOÃO COUTINHO;C2;VISO (METRO);-8.646567;41.178116
VIS3;R.FERREIRA CASTRO;C2;VISO;-8.642295;41.177795
VIS4;R.FERREIRA CASTRO;C2;VISO;-8.643256;41.177544
VIS5;R.JOÃO COUTINHO;C2;VISO (METRO);-8.646202;41.177395
EBSR2;R.CONCEIÇÃO FERNANDES;S8;ESC. EB 2/3 S REIS;-8.598084;41.110687
EBSR1;R.CONCEIÇÃO FERNANDES;S8;ESC. EB 2/3 S REIS;-8.598556;41.11095
LDDM;R.LIDADOR;C2;LIDADOR / M. MONIZ;-8.66067;41.174965
STBX1;AV.D.JOAO I;C8;SOUTELO BAIXO;-8.554885;41.168797
STBX2;AV.D.JOAO I;C8;SOUTELO BAIXO;-8.554689;41.168972
1URBP3;RUA DE SARAH AFONSO;C2;URB. PRELADA II;-8.636147;41.17171
REV1;R.LIDADOR;C2;REVILÃO;-8.660329;41.17324
REV2;R.LIDADOR;C2;REVILÃO;-8.660525;41.173275
CF2;R.COSTA CABRAL;C6;CONDE FERREIRA;-8.589225;41.17002
CF1;R.COSTA CABRAL;C6;CONDE FERREIRA;-8.58948;41.16953
MTB1;ESTR.CIRCUNVALAÇÃO;C2;MTE BURGOS (CIRC.);-8.628734;41.179523
BGJ2;R.BÉLGICA;S1;BRAGA JÚNIOR;-8.649363;41.130665
MTB2;ESTR.CIRCUNVALAÇÃO;C2;MTE BURGOS (CIRC.);-8.628587;41.179676
BGJ1;R.BÉLGICA;S1;BRAGA JÚNIOR;-8.650083;41.13078
PPR1;R.MONTE BURGOS;C2;PARQUE DA PRELADA;-8.627492;41.17519
CNTM;R.CONDE CASTELO MELHOR;C6;CONTUMIL (METRO);-8.579448;41.165398
MTB3;R.NOVA SEIXO;C5;MONTE DOS BURGOS;-8.630353;41.18156
MTB4;R.NOVA SEIXO;C5;MONTE DOS BURGOS;-8.630407;41.181232
BTC2;R.BOTICA;N10;BOTICA;-8.663856;41.23894
BARC1;R.GESTALINHO;N11;BARCA;-8.607543;41.24761
BARC2;R.GESTALINHO;N11;BARCA;-8.607685;41.24758
MCBL;R.SÁ BANDEIRA;C1;MERCADO DO BOLHÃO;-8.607487;41.14966
FTCC5;AV.SALGADO ZENHA;C3;FONTE DO CUCO;-8.661547;41.195114
CPOV1;R.S.BRÁS;C4;CASA DO POVO;-8.673901;41.21868
QBV2;AV.GOMES JUNIOR;S2;QUINTA BELA VISTA;-8.634648;41.118843
FTCC6;AV.SALGADO ZENHA;C3;FONTE DO CUCO;-8.661554;41.194336
QBV1;AV.GOMES JUNIOR;S2;QUINTA BELA VISTA;-8.634929;41.118908
RCTL2;R.ARREGADAS;C9;R.CRISTAL;-8.570005;41.224937
CFM;R.SOUSA AROSO;C3;COMENDADOR FERREIRA  MATOS;-8.682828;41.17702
CPOV2;R.S.BRÁS;C4;CASA DO POVO;-8.673875;41.2185
RCTL1;R.ARREGADAS;C9;R.CRISTAL;-8.569811;41.224884
PGON1;AV.BRASIL;C2;PRAIA DE GONDARÉM;-8.680412;41.15565
PGON2;AV.BRASIL;C2;PRAIA DE GONDARÉM;-8.680488;41.155445
CNV2;R.SANTOS DIAS;C5;CEMITÉRIO NOVO;-8.608564;41.20438
CNV1;R.SANTOS DIAS;C5;CEMITÉRIO NOVO;-8.608393;41.204304
ALX1;R.CONDOMINHAS;C2;ALEIXO;-8.6494465;41.1526
SCND1;R.D.SILVIA ALVES TEIXEIRA;C5;STO.CONDESTÁVEL;-8.608125;41.231373
ALX2;R.CONDOMINHAS;C2;ALEIXO;-8.6493;41.15172
SCND2;R.D.SILVIA ALVES TEIXEIRA;C5;STO.CONDESTÁVEL;-8.6082735;41.231567
TPG2;R.LINHARES;C4;TV.PINGUELA;-8.658546;41.217224
TPG1;R.LINHARES;C4;TV.PINGUELA;-8.658482;41.217354
CGG;R.COMBATENTES G.GUERRA;C8;COMBATENTES G.GUERRA;-8.534145;41.143486
MTD1;R.CINCO OUTUBRO;C9;MATADOURO;-8.596709;41.2156
MTD2;R.CINCO OUTUBRO;C9;MATADOURO;-8.596579;41.215736
MTCV;R.DAMIÃO GÓIS;C1;MONTE CATIVO;-8.615825;41.16227
ALXH2;R.1 MAIO (N 105);N16;ALEX. HERCULANO;-8.523703;41.242695
MCE3;ALAM.BASÍLIO TELES;C1;MUSEU C. ELÉCTRICO;-8.632216;41.14693
ALXH1;R.1 MAIO (N 105);N16;ALEX. HERCULANO;-8.523668;41.242596
MCE4;ALAM.BASÍLIO TELES;C1;MUSEU C. ELÉTRICO;-8.632209;41.14673
AUL2;R.AUGUSTO LESSA;C1;AUGUSTO LESSA;-8.602464;41.170006
VARZ1;AV.CARVALHA;C8;VÁRZEA;-8.535999;41.16265
VARZ2;AV.CARVALHA;C8;VÁRZEA;-8.536137;41.16282
MCE1;ALAM.BASÍLIO TELES;C1;MUSEU C. ELÉCTRICO;-8.632166;41.146908
AUL1;R.AUGUSTO LESSA;C1;AUGUSTO LESSA;-8.602755;41.169895
MCE2;ALAM.BASÍLIO TELES;C1;MUSEU C. ELÉCTRICO;-8.632031;41.14664
FOR2;R.SIMÃO BOLIVAR;C5;FÓRUM;-8.624628;41.233803
FOR1;R.SIMÃO BOLIVAR;C5;FÓRUM;-8.6243305;41.234024
PTHS1;R.N.SRA.AMPARO;C8;PONTELHAS;-8.537593;41.179672
PTHS2;R.N.SRA.AMPARO;C8;PONTELHAS;-8.538449;41.179268
ALXH3;R.ALEXANDRE HERCULANO;C1;ALEX. HERCULANO;-8.605205;41.14427
RBHR1;R.FERROVIÁRIO;C3;R.BOA HORA;-8.662886;41.211933
TTS2;R.CIDRES;C4;TV.TRÁS;-8.679025;41.219658
TTS1;R.CIDRES;C4;TV.TRÁS;-8.678821;41.21973
PLIM2;R.COSTA CABRAL;C1;PIRES DE LIMA;-8.597186;41.16626
RBHR2;R.FERROVIÁRIO;C3;R.BOA HORA;-8.6630945;41.21193
PLIM1;R.COSTA CABRAL;C1;PIRES DE LIMA;-8.596879;41.166183
CSA3;R.PROF.ALVARO RODRIGUES;C2;C.SAÚDE DE ALDOAR;-8.666704;41.17574
TPI2;R.ANT.JOSE ALMEIDA;C5;TV.PIAS;-8.648839;41.20871
TPI1;R.ANTÓNIO J.ALMEIDA;C5;TV.PIAS;-8.648974;41.209053
PLM2;R.DIOGO BOTELHO;C2;PALMEIRAS;-8.651411;41.152515
BGND;R.AUGUSTO ROSA;C1;BATALHA-GUINDAIS;-8.607309;41.14359
PLM1;R.DIOGO BOTELHO;C2;PALMEIRAS;-8.6520605;41.15238
NAVE1;AV.FERNÃO MAGALHAES;C1;NAVE;-8.597005;41.151974
ICDF1;LGO.PRIORADO;C1;IGREJA CEDOFEITA;-8.62222;41.155853
GAS2;R.OURO;C2;GÁS;-8.648438;41.148323
GAS1;R.OURO;C2;GÁS;-8.648004;41.148262
NAVE2;AV.FERNÃO MAGALHAES;C1;NAVE;-8.597411;41.15161
BRBQ1;R.D.NUN''ÁLVARES PEREIRA;C3;BAIRRO DA BIQUINHA;-8.675216;41.174164
GAS4;R.OURO;C2;GÁS;-8.648265;41.148193
GAS3;R.OURO;C2;GÁS;-8.648641;41.14827
BLRB3;R.BOLHÃO;C1;BOLHÃO;-8.607307;41.15141
BRBQ4;AV.D.MARIA II;C3;BAIRRO DA BIQUINHA;-8.674512;41.175247
BLRB2;R.BOLHÃO;C1;BOLHÃO;-8.607213;41.15165
GRJ;R.GUERRA JUNQUEIRO;C1;GUERRA JUNQUEIRO;-8.637274;41.155857
DVE1;R.VISCONDE DEVESAS;S8;DEVESAS (ESTAÇÃO);-8.619646;41.12905
DVE2;R.BARÃO CORVO;S8;DEVESAS (ESTAÇÃO);-8.620242;41.129353
QSPL2;R.RODRIGUES FREITAS;S8;QUARTEL SRR. PILAR;-8.6059065;41.137157
JSP2;URB.JOSÉ DOMINGUES POÇAS;S2;JOSÉ POÇAS;-8.642925;41.10507
PTDM1;AV.PAIVA COUCEIRO;C1;PTE.D.MARIA PIA;-8.595814;41.140316
PTDM2;AV.PAIVA COUCEIRO;C1;PTE.D.MARIA PIA;-8.59592;41.140198
PDC;R.PÁDUA CORREIA;S8;PÁDUA CORREIA;-8.606558;41.126183
QSPL1;R.RODRIGUES FREITAS;S8;QUARTEL SRR. PILAR;-8.605856;41.137352
HMGL5;R.ALVARO RODRIGUES;C2;HOSP.MAGALHÃES LEMOS;-8.663744;41.177357
HMGL2;R.ALVARO RODRIGUES;C2;HOSP.MAGALHÃES LEMOS;-8.663495;41.177357
CSBV;R.PEDRO HISPANO;C1;CASA DE SAÚDE DA BOAVISTA;-8.631948;41.1646
TARR2;R.BOUÇA CAVADINHA;C5;TV. ARROTEIA;-8.597352;41.185112
TLR;R.ALDEIA NOVA;S2;TV. LOUREIRO;-8.649931;41.104965
PDR;R.FORMOSA;C1;LARGO DO PADRÃO;-8.602883;41.14734
CSE2;R.ARROTEIA;C9;C.SAÚDE DE ERMESINDE;-8.545618;41.225075
CSE1;R.BELA;C9;C.SAÚDE DE ERMESINDE;-8.545599;41.22562
ROSA1;R.CLUBE CAÇADORES;S8;ROSÁRIO;-8.602894;41.11156
RAEP1;AV.ASSOC.EMP.DE PORTUGAL;C2;ROT. A.E.P.;-8.653801;41.17691
RAEP4;AV.ASSOC.EMP.DE PORTUGAL;C2;ROT. A.E.P.;-8.654715;41.177105
RAEP2;ESTR.CIRCUNVALAÇÃO;C2;ROT. A.E.P.;-8.654081;41.17839
RAEP3;ESTR.CIRCUNVALAÇÃO;C2;ROT. A.E.P.;-8.654272;41.17849
GU1;R.CORONEL CARLOS MOREIRA;N11;GUARDA;-8.6387005;41.2453
GU2;R.CORONEL CARLOS MOREIRA;N11;GUARDA;-8.638727;41.24583
PDB1;AV.N.SRA.NATIVIDADE;C9;PEDROUÇOS-BOMBEIROS;-8.58848;41.18599
VASG1;R.JOSÉ JOAQUIM R.TELES;C9;VASCO DA GAMA;-8.5512905;41.21644
IPO2;R.ANT.BERNARDINO ALMEIDA;C6;INST. ONCOLOGIA;-8.604007;41.18275
CM3;R.GEN.TORRES;S8;CAMÕES;-8.609621;41.13423
STCB1;R.GONÇALVES ZARCO;C4;STA.CRUZ BISPO;-8.674861;41.21662
VASG2;R.JOSÉ JOAQUIM R.TELES;C9;VASCO DA GAMA;-8.551223;41.216114
HML2;R.RICARDO SEVERO;C1;HOSPITAL MILITAR;-8.625038;41.156834
STCB2;R.GONÇALVES ZARCO;C4;STA.CRUZ BISPO;-8.674567;41.2171
HML1;AV.BOAVISTA;C1;HOSPITAL MILITAR;-8.624172;41.157204
IPO4;ESTR.CIRCUNVALAÇÃO;C6;IPO (CIRCUNVAL.);-8.604292;41.183987
FNTL1;AV.MENERES;C3;FONTE LUMINOSA;-8.682181;41.179012
IPO5;ESTR.CIRCUNVALAÇÃO;C6;IPO (CIRCUNVAL.);-8.605387;41.1844
CBD2;R.S.VICENTE;N16;CABEDA;-8.5324745;41.22387
CBD1;R.S.VICENTE;N16;CABEDA;-8.532591;41.22343
PG2;R.DIOGO BOTELHO;C2;PAULO DA GAMA;-8.658601;41.15073
PG1;R.DIOGO BOTELHO;C2;PAULO DA GAMA;-8.65866;41.150883
DRB1;R.PADRE COSTA;C5;DR. BARROS;-8.601562;41.18947
DRB2;R.PADRE COSTA;C5;DR.BARROS;-8.601825;41.189396
SOUT1;R.D.MANUEL II;C5;SOUTO;-8.605838;41.237022
SOUT2;R.D.MANUEL II;C5;SOUTO;-8.605889;41.237167
SRVM1;R.GIL EANES;C2;SERRALVES (MUSEU);-8.660244;41.157635
CMO;R.CARMO;C1;CARMO;-8.616795;41.147335
SRVM2;R.DUARTE LOPES;C2;SERRALVES (MUSEU);-8.661136;41.156998
SRVM3;R.AFONSO ALBUQUERQUE;C2;SERRALVES (MUSEU);-8.661204;41.15729
TPM2;R.PASSOS MANUEL;C3;TV. PASSOS MANUEL;-8.662853;41.19608
CN2;R.JOÃO VIEIRA;C9;CASAIS NOVOS;-8.56191;41.189507
TPM1;R.PASSOS MANUEL;C3;TV. PASSOS MANUEL;-8.6623;41.19575
CN1;R.JOÃO VIEIRA;C9;CASAIS NOVOS;-8.562104;41.18966
TCT2;R.S.VICENTE;N16;TV. DA COSTA;-8.525847;41.23848
TCT1;R.S.VICENTE;N16;TV. DA COSTA;-8.525608;41.238796
CMV;AV.5 OUTUBRO;C10;CÂMARA DE VALONGO;-8.498421;41.19109
SPTO1;R.CONSTITUIÇÃO;C1;SERPA PINTO;-8.621719;41.164158
VNC1;ESTR.CIRCUNVALAÇÃO;C2;VIA NORTE (CIRC.);-8.621998;41.18047
VNC2;ESTR.CIRCUNVALAÇÃO;C2;VIA NORTE (CIRC.);-8.622013;41.18063
FARM1;R.JOÃO VIEIRA;C9;FORÇAS ARMADAS;-8.568393;41.19032
SMM5;AV.CONDE;C5;S. MAMEDE;-8.609892;41.19344
SMM6;AV.CONDE;C5;S. MAMEDE;-8.608756;41.193523
FARM2;R.JOÃO VIEIRA;C9;FORÇAS ARMADAS;-8.568513;41.19022
SMM3;R.PADRE COSTA;C5;S. MAMEDE;-8.609175;41.193188
SMM4;AV.MARECHAL GOMES COSTA;C5;S. MAMEDE;-8.607658;41.19334
VALE;R.BOA NOVA;S2;VALADARES (ESCOLAS);-8.620516;41.095955
IMAI1;AV.ANTÓNIO SANTOS LEITE;C5;IGREJA DA MAIA;-8.620544;41.229595
IMAI2;AV.ANTÓNIO SANTOS LEITE;C5;IGREJA DA MAIA;-8.62074;41.22956
GAZ1;R.FERNÃO LOPES;S8;GOMES AZURARA;-8.611694;41.113438
LMB2;R.LOMBA;C3;LOMBA;-8.6634035;41.206715
HMCH2;AV.DA CONDUTA;C8;HENRIQUE MACHADO;-8.553665;41.17217
LMB1;R.LOMBA;C3;LOMBA;-8.663705;41.2066
GAZ2;R.FERNÃO LOPES;S8;GOMES AZURARA;-8.610909;41.113506
TPR;R.FONTE CONTUMIL;C6;TV. PRESA;-8.579938;41.168262
COD;R.1 MAIO (N 105);N16;LGO DA CODICEIRA;-8.519775;41.24465
PLU2;R.GEN.TORRES;S8;PONTE LUÍZ I;-8.609483;41.138805
PLU1;LGO.D.LUIS I;S8;PONTE LUÍZ I;-8.609475;41.13914
HMCH1;AV.DA CONDUTA;C8;HENRIQUE MACHADO;-8.553745;41.171967
PLU4;AV.DIOGO LEITE;S8;PONTE LUÍZ I;-8.609809;41.138805
GNR2;R.GEN.TORRES;S8;GNR;-8.611378;41.13566
GNR1;R.CÂNDIDO REIS;S8;GNR;-8.611994;41.13518
VRM1;R.PADRE LUÍS CAMPOS;N11;VERMOIM;-8.606869;41.242725
VRM2;R.PADRE LUÍS CAMPOS;N11;VERMOIM;-8.606766;41.242546
ILH2;R.S.ROQUE LAMEIRA;C6;ILHÉU;-8.572381;41.163486
ESTV2;R.GUERRA JUNQUEIRO;C8;ESTIVADA;-8.525379;41.159966
ESTV1;R.GUERRA JUNQUEIRO;C8;ESTIVADA;-8.525207;41.159477
SALM1;R.CAP.SALGUEIRO MAIA;S9;SALGUEIRO MAIA;-8.58964;41.101196
SALM2;R.CAP.SALGUEIRO MAIA;S9;SALGUEIRO MAIA;-8.58973;41.10138
JBR1;AV.MARECHAL GOMES COSTA;C2;JOÃO BARROS;-8.664174;41.158592
SMM1;R.GODINHO FARIA;C5;S. MAMEDE;-8.611172;41.193775
VAL1;AV.ANTÓNIO COELHO MOREIRA;S2;VALADARES;-8.629053;41.098198
SMM2;R.GODINHO FARIA;C5;S. MAMEDE;-8.611499;41.192326
JBR2;AV.MARECHAL GOMES COSTA;C2;JOÃO BARROS;-8.664213;41.158436
TCVC;R.D.ANTÓNIO FERREIRA GOMES;S8;TV.CONSELHEIRO VELOSO DA CRUZ;-8.614986;41.125347
CPL;R.CAMPO LINDO;C1;CAMPO LINDO;-8.610429;41.16809
COB4;R.CALHEIROS LOBO;S8;COIMBRÕES;-8.631666;41.1243
COB3;R.CALHEIROS LOBO;S8;COIMBRÕES;-8.631456;41.124275
THB2;R.HENRIQUE BRAVO;C5;TV. HENRIQUE BRAVO;-8.601104;41.195915
CQ3;AV.BOAVISTA;C2;CASTELO DO QUEIJO;-8.686929;41.16757
THB1;R.HENRIQUE BRAVO;C5;TV. HENRIQUE BRAVO;-8.601272;41.19557
ARDG2;R.CENTRAL ARDEGÃES;C9;ARDEGÃES;-8.567834;41.226036
ARDG3;VIA DE ARDEGÃES;C9;ARDEGÃES;-8.566813;41.227077
CSJ4;R.ANT.BERNARDINO ALMEIDA;C6;CAMPUS S. JOÃO;-8.605313;41.179924
CQ5;PR.GONÇALVES ZARCO;C2;CASTELO DO QUEIJO;-8.687852;41.168335
GENT3;AV.REPÚBLICA;S8;GENERAL TORRES;-8.607478;41.133923
ARDG1;R.CENTRAL ARDEGÃES;C9;ARDEGÃES;-8.567627;41.225967
GENT2;AV.REPÚBLICA;S8;GENERAL TORRES;-8.607651;41.13369
AQL2;R.DAMIÃO GÓIS;C1;ANTERO DE QUENTAL;-8.610635;41.161583
CQ9;PR.GONÇALVES ZARCO;C2;CASTELO DO QUEIJO;-8.689301;41.167583
AQL1;R.CONSTITUIÇÃO;C1;ANTERO DE QUENTAL;-8.610151;41.16271
CQ8;PR.GONÇALVES ZARCO;C2;CASTELO DO QUEIJO;-8.689407;41.167862
AMRQ3;R.ANTÓNIO MARQUES;C5;ANTÓNIO MARQUES;-8.613522;41.238594
DAC2;AV.CARVALHA;C8;DR. AMÉRICO COSTA;-8.543394;41.165356
QTC2;AV.DR.ANTUNES GUIMARÃES;C4;Q.TA DA CONCEICÃO;-8.686338;41.19498
DAC1;AV.CARVALHA;C8;DR. AMÉRICO COSTA;-8.543577;41.165253
BCM5;AV.FRANÇA;C1;BOAVISTA-CASA DA MÚSICA;-8.628842;41.159325
LBM;R.CORUJEIRAS;S8;LABORIM;-8.608367;41.107353
BCM4;R.5 OUTUBRO;C1;BOAVISTA-CASA DA MÚSICA;-8.630132;41.158974
QTC1;AV.DR.ANTUNES GUIMARÃES;C4;Q.TA DA CONCEICÃO;-8.686508;41.195118
BCM3;AV.FRANÇA;C1;BOAVISTA-CASA DA MÚSICA;-8.62864;41.15916
BCM2;AV.FRANÇA;C1;BOAVISTA-CASA DA MÚSICA;-8.628582;41.15929
BCM1;PR.MOUZINHO ALBUQUERQUE;C1;BOAVISTA-CASA DA MÚSICA;-8.629483;41.15895
AMRQ2;R.ANTÓNIO MARQUES;C5;ANTÓNIO MARQUES;-8.612942;41.238598
ELV1;R.BÉLGICA;S1;ESTAMPARIA LAVADORES;-8.665367;41.131588
ELV2;R.BÉLGICA;S1;ESTAMPARIA LAVADORES;-8.665388;41.131474
SCAL2;R.PEDRO ÁLVARES CABRAL;C8;SR.DO CALVÁRIO;-8.558962;41.171696
SCAL1;R.PEDRO ÁLVARES CABRAL;C8;SR. DO CALVÁRIO;-8.559016;41.171535
SCAL4;R.ENG. MAIA BERNARDO;C8;SR. DO CALVÁRIO;-8.558483;41.172005
NSHP;RUA Nº.1;C2;NORTESHOPPING;-8.654265;41.181217
ACDR2;R.CORUJEIRAS;S8;ALAMEDA CEDRO;-8.608781;41.109398
ACDR1;R.CORUJEIRAS;S8;ALAM. CEDRO;-8.608909;41.10926
ESPL1;VL9;S8;ESCARPA SERRA  PILAR;-8.601592;41.13834
ERMI1;R.D.ANTÓNIO CASTRO MEIRELES;C9;ERMESINDE (IGREJA);-8.553212;41.219437
ERMI2;R.D.ANTÓNIO CASTRO MEIRELES;C9;ERMESINDE (IGREJA);-8.552682;41.21873
ESPL2;VL9;S8;ESCARPA SERRA PILAR;-8.60144;41.13824
FTC2;R.CONTUMIL;C6;FONTE DE CONTUMIL;-8.582528;41.16843
FTC1;R.CONTUMIL;C6;FONTE DE CONTUMIL;-8.582136;41.1683
CSTM2;R.CÂNDIDO REIS;C5;CUSTÓIAS (METRO);-8.655435;41.200203
CSTM1;R.MONTE PIPOS;C5;CUSTÓIAS (METRO);-8.655203;41.200317
COB6;R.BARÃO CORVO;S8;COIMBRÕES 1;-8.630296;41.12406
AVLM2;AV.LIDADOR MAIA;C9;AV.LIDADOR DA MAIA;-8.561353;41.20562
RARR1;R.ARROTEIA;C9;ARROTEIA;-8.591364;41.219254
MAKR6;R.SENHOR MATOSINHOS;S8;MAKRO;-8.6276245;41.119812
RARR2;R.ARROTEIA;C9;ARROTEIA;-8.591502;41.219296
MAKR5;AV.DESCOBRIMENTOS;S8;MAKRO;-8.627139;41.119904
ESGZ2;AV.VILLAGARCIA AROSA;C3;E. SEC. G. ZARCO;-8.676145;41.179184
MAKR4;R.D.HENRIQUE CERNACHE;S8;MAKRO;-8.626563;41.12035
ESGZ1;AV.VILLAGARCIA AROSA;C3;E. SEC. G. ZARCO;-8.676094;41.1794
COD4;R.N.SRA.DO AMPARO;N16;CODICEIRA;-8.512889;41.245792
MAKR3;R.D.HENRIQUE CERNACHE;S8;MAKRO;-8.626788;41.120403
CRT;R.S.ROQUE LAMEIRA;C6;CARTES;-8.575092;41.162197
FRRS1;R.CIDRES;C4;FARRAPAS;-8.6785145;41.222504
COD3;R.N.SRA.DO AMPARO;N16;LGO DA CODICEIRA;-8.519814;41.244488
FRRS2;R.CIDRES;C4;FARRAPAS;-8.6787;41.22234
FRRS3;ESTR.N.107;C4;FARRAPAS;-8.681942;41.22522
AVLM1;AV.LIDADOR MAIA;C9;AV.LIDADOR DA MAIA;-8.561081;41.205692
PLE;AV.LIBERDADE;C4;PRAIA DE LEÇA;-8.705817;41.19105
CRZ;R.OCIDENTAL;C4;CRUZEIRO;-8.703384;41.224636
CSC;R.S.ROQUE LAMEIRA;C1;C. SAÚDE CAMPANHÃ;-8.589937;41.157085
BFTM4;R.ANGOLA;C2;BR.FONTE DA MOURA;-8.659703;41.16971
MATC2;AV.D.AFONSO HENRIQUES;C3;MATOSINHOS (CMM);-8.682854;41.18175
MSTO1;R.MONSANTO;C1;MONSANTO;-8.620381;41.17056
BFTM3;R.ANGOLA;C2;BR. FONTE DA MOURA;-8.659692;41.16983
MATC1;R.1 DE MAIO;C3;MATOSINHOS (CMM);-8.68238;41.18258
MSTO2;R.NOVA REGADO;C1;MONSANTO;-8.620146;41.170387
SCRP5;AV.FERNÃO MAGALHAES;C1;S. CRISPIM;-8.592257;41.160244
BFTM2;R.LIDADOR;C2;BR. FONTE DA MOURA;-8.658406;41.171112
BFTM1;R.LIDADOR;C2;BR. FONTE DA MOURA;-8.657935;41.171047
BCNT;R.CONTUMIL;C6;BR.CONTUMIL;-8.580552;41.165825
PDI2;R.BARREIRO;S2;PEDREIRAS;-8.633418;41.112453
SCRP6;AV.FERNÃO MAGALHAES;C1;S. CRISPIM;-8.592393;41.1603
SDMC4;R.REGADIO;C3;SENDIM (CEMITÉRIO);-8.675341;41.189896
SDMC3;R.REGADIO;C3;SENDIM (CEMITÉRIO);-8.675549;41.1901
DIU1;R.CÂNDIDA SÁ ALBERGARIA;C2;DIU;-8.6758995;41.15366
FNTE2;R.MANUEL J.FERNANDES SANTOS;C9;FONTE;-8.5458;41.22029
FNTE1;R.MANUEL J.FERNANDES SANTOS;C9;FONTE;-8.545549;41.220284
9AG1;R.GEN.HUMBERTO DELGADO;C9;9 DE AGOSTO;-8.532002;41.21149
9AG2;R.D.AFONSO HENRIQUES;C9;9 DE AGOSTO;-8.532144;41.21195
MTP1;R.VASCO GAMA;C8;MONTE PEDRO;-8.524108;41.189583
MTP2;R.VASCO GAMA;C8;MONTE PEDRO;-8.524491;41.189606
CSXS2;R.NOVA SEIXO;C5;C. SEIXO (SUL);-8.631293;41.183273
CSXS1;R.NOVA SEIXO;C5;C. SEIXO (SUL);-8.631359;41.184013
ESTR2;VIA ESTRUTURANTE DE CRESTINS;N10;RUA DA ESTRADA;-8.660552;41.232445
ESTR1;VIA ESTRUTURANTE DE CRESTINS;N10;RUA DA ESTRADA;-8.660667;41.232605
RPAC1;R.D.ANTÓNIO CASTRO MEIRELES;C9;PAÇO;-8.59525;41.200348
28J2;R.CAMILO CASTELO BRANCO;S8;28 DE JANEIRO;-8.632999;41.13674
RPAC2;R.D.ANTÓNIO CASTRO MEIRELES;C9;PAÇO;-8.595393;41.200474
ARDG4;VIA DE ARDEGÃES;C9;ARDEGÃES;-8.566641;41.22719
28J1;R.28 JANEIRO;S8;28 DE JANEIRO;-8.63194;41.13684
BCP2;ESTR.CIRCUNVALAÇÃO;C6;BR.CERCO PORTO;-8.570169;41.157394
MRDR2;R.ESTEVES;C8;MIRADOURO;-8.555685;41.16216
BCP1;ESTR.CIRCUNVALAÇÃO;C6;BR.CERCO PORTO;-8.570307;41.157444
MRDR1;R.ESTEVES;C8;MIRADOURO;-8.555991;41.162548
CTP;R.DAMIÃO GÓIS;C1;CLUBE TÉNIS PORTO;-8.613857;41.162018
TPT1;R.AFONSO ALBUQUERQUE;C8;TV. DA PONTE;-8.56429;41.167248
BOVT2;R.ELIAS GARCIA;C9;BOAVISTA;-8.54863;41.229862
BOVT1;R.ELIAS GARCIA;C9;BOAVISTA;-8.548473;41.229755
HMT2;R.ALFREDO CUNHA;C3;HOSPITAL MATOSINHOS;-8.678766;41.185966
CTS;R.CASTELOS;C1;CASTELOS;-8.629485;41.168076
HMT1;R.ALFREDO CUNHA;C3;HOSPITAL MATOSINHOS;-8.67905;41.186005
BRSE1;ESTR.CIRCUNVALAÇÃO;C2;BR. STO. EUGÉNIO;-8.636423;41.181313
LFC;R.VELOSO SALGADO;C4;LEÇA F.CLUBE;-8.688895;41.204662
NOF1;R.31 JANEIRO;C4;NÓ FREIXIEIRO;-8.690067;41.21895
MTSP1;AV.REPÚBLICA;C3;MATOSINHOS PRAIA;-8.690049;41.18014
NOF2;R.31 JANEIRO;C4;NÓ FREIXIEIRO;-8.690292;41.21898
MTSP2;R.ROBERTO IVENS;C3;MATOSINHOS PRAIA;-8.690378;41.179565
COEM;R.MANUEL M.COSTA JÚNIOR;S2;COELHO MOREIRA;-8.628659;41.09869
MATI2;AV.D.AFONSO HENRIQUES;C3;MATOSINHOS (IGREJA);-8.685173;41.18641
BRSE2;ESTR.CIRCUNVALAÇÃO;C2;BR. STO. EUGÉNIO;-8.6364155;41.181477
CV2;AV.CARVALHA;C8;CARVALHA;-8.541496;41.164715
CV1;AV.CARVALHA;C8;CARVALHA;-8.5415745;41.164577
PRCD2;R.ANTÓNIO AROSO;C2;PARQUE CIDADE;-8.670921;41.165684
PRCD1;R.ANTÓNIO AROSO;C2;PARQUE CIDADE;-8.6706915;41.16548
BLD2;R.CIDRES;C4;BALDÕES;-8.679631;41.218044
BLD1;R.CIDRES;C4;BALDÕES;-8.679459;41.217983
LMG1;R.JORGE FERREIRINHA;C5;LARGO DOS MOGOS;-8.600137;41.225758
PQC1;ESTR.CIRCUNVALAÇÃO;C2;PARQUE DA CIDADE;-8.677586;41.171783
MLAM;TV.PRELADA;C1;MARIA LAMAS;-8.632607;41.169655
LMG2;R.JORGE FERREIRINHA;C5;LARGO DOS MOGOS;-8.59999;41.225807
PP1;R.GODINHO FARIA;C5;PONTE DA PEDRA;-8.614283;41.203957
CFER1;R.CONDE FERREIRA;C10;CONDE FERREIRA;-8.505777;41.190163
JFPD2;AV.N.SRA.NATIVIDADE;C9;J. FREGUESIA PEDROUÇOS;-8.589943;41.184006
CVC;R.SERPA PINTO;S8;CONSELHEIRO VELOSO DA CRUZ;-8.617154;41.13041
MTRA;R.SERRALVES;C2;MOUTEIRA;-8.650206;41.154682
JFPD1;AV.N.SRA.NATIVIDADE;C9;J. FREGUESIA PEDROUÇOS;-8.58958;41.18427
PP2;R.GODINHO FARIA;C5;PONTE DA PEDRA;-8.6143;41.203583
CFER2;R.CONDE FERREIRA;C10;CONDE FERREIRA;-8.505786;41.190323
PQC2;ESTR.CIRCUNVALAÇÃO;C2;PARQUE DA CIDADE;-8.678;41.17156
TMEI1;R.MEIRAL;C8;TV.MEIRAL;-8.562711;41.167164
DAH2;ESTR.CIRCUNVALAÇÃO;C2;D.AFONSO HENRIQUES;-8.681533;41.172535
JDEU4;AV.JOAO DEUS;C9;JOÃO DE DEUS;-8.555704;41.20928
ESPH1;R.BÉLGICA;S1;ESPINHEIRO;-8.643805;41.129513
DAH1;ESTR.CIRCUNVALAÇÃO;C2;D.AFONSO HENRIQUES;-8.681498;41.172646
TLN2;R.LINHARES;C5;TV. DE LINHARES;-8.653261;41.21405
JDEU3;AV.JOAO DEUS;C9;JOÃO DE DEUS;-8.5555105;41.20941
PRCD4;AV.BOAVISTA;C2;PARQUE DA CIDADE;-8.671679;41.165005
TLN1;R.LINHARES;C5;TV. DE LINHARES;-8.652667;41.214054
PRCD3;AV.BOAVISTA;C2;PARQUE DA CIDADE;-8.671427;41.16513
CVO;R.ALDEIA NOVA;S2;CARVALHEIRO;-8.647644;41.10192
ESPH2;R.BÉLGICA;S1;ESPINHEIRO;-8.643063;41.128983
RTEL1;R.JOSÉ JOAQUIM R.TELES;C9;RIBEIRO TELES;-8.549707;41.214203
EDM1;R.VASCO GAMA;C8;ESTR. D. MIGUEL;-8.521541;41.191113
RTEL2;R.JOSÉ JOAQUIM R.TELES;C9;RIBEIRO TELES;-8.549739;41.213852
EDM2;R.VASCO GAMA;C8;ESTR. D. MIGUEL;-8.521811;41.191227
FCH1;R.MARECHAL SALDANHA;C2;FUNCHAL;-8.683361;41.16316
FCH2;R.GONDARÉM;C2;FUNCHAL;-8.68401;41.1621
JGD1;R.JORGE DIAS;S1;JORGE DIAS;-8.667523;41.131615
JGD2;R.BÉLGICA;S1;JORGE DIAS;-8.66713;41.13119
ESCN2;R.D.JOÃO IV;C1;ESCOLA NORMAL;-8.602419;41.15542
ESCN1;R.ALEGRIA;C1;ESCOLA NORMAL;-8.602813;41.155273
CSP2;R.VALE FORMOSO;C1;C. SAÚDE PARANHOS;-8.612377;41.168396
CSP1;R.VALE FORMOSO;C1;C. SAÚDE PARANHOS;-8.612325;41.168865
AQR2;R.DR.BERNARDINO MACHADO;N11;AQUILINO RIBEIRO;-8.618955;41.245186
AQR1;R.DR.BERNARDINO MACHADO;N11;AQUILINO RIBEIRO;-8.61857;41.245567
AZC2;R.DR.EDUARDO TORRES;C3;AZENHA DE CIMA;-8.660181;41.179966
AZC3;ESTR.CIRCUNVALAÇÃO;C2;AZENHA DE CIMA;-8.660634;41.17719
AZC1;R.DR.EDUARDO TORRES;C3;AZENHA DE CIMA;-8.660575;41.1802
QCH2;R.JOSÉ JOAQUIM R.TELES;C9;QUINTA CHÃOS;-8.543993;41.209393
CSXN2;R.NOVA SEIXO;C5;C. SEIXO (NORTE);-8.63284;41.189453
FZIN1;AV.ASSOC.EMP.DE PORTUGAL;C2;FRANCOS Z. INDUSTR;-8.644213;41.169033
CSXN1;R.NOVA SEIXO;C5;C. SEIXO (NORTE);-8.632665;41.189465
CBN2;R.AUGUSTO SIMÕES;C5;COMBONIANOS;-8.615154;41.22298
PDM2;R.CORONEL CARLOS MOREIRA;N11;PADRÃO MOREIRA;-8.647781;41.245834
ERMD2;R.S.VICENTE;C9;ERMIDA;-8.540626;41.222332
AVLH2;R.FONTE VELHA;C5;AVILHÓ;-8.6388445;41.19714
CBN1;R.AUGUSTO SIMÕES;C5;COMBONIANOS;-8.615045;41.223316
PDM1;R.CORONEL CARLOS MOREIRA;N11;PADRÃO MOREIRA;-8.647695;41.24573
AVLH3;R.TEIXEIRA LOPES;C5;AVILHÓ;-8.639763;41.196682
PDM4;R.CONS.LUÍS MAGALHÃES;N11;PADRÃO DE MOREIRA;-8.648846;41.24656
QCH1;R.JOSÉ JOAQUIM R.TELES;C9;QUINTA CHÃOS;-8.543923;41.20953
CBMN;R.ALMEIRIGA NORTE;C4;CABO MUNDO;-8.713227;41.22051
PDM3;R.CONS.LUÍS MAGALHÃES;N11;PADRÃO MOREIRA;-8.648577;41.246162
ERMD1;R.S.VICENTE;C9;ERMIDA;-8.540631;41.2222
MTT2;R.SANTOS POUSADA;C1;MONTE TADEU;-8.599211;41.156235
VCHS1;AV.OLIVEIRA ZÍNA;C10;VALE CHÃS;-8.507225;41.194336
CVLO1;R.FARIA GUIMARÃES;C1;COVELO;-8.606264;41.16587
CVLO2;R.BOLAMA;C1;COVELO;-8.605839;41.1654
BSEE1;R.CEGONHAS;C2;BR. STO.EUGÉNIO (ESCOLA);-8.637455;41.179142
BSEE2;R.CEGONHAS;C2;BR.STO.EUGÉNIO (ESCOLA);-8.637336;41.179115
MPL7;R.CONSTITUIÇÃO;C1;MARQUÊS;-8.603278;41.16185
MPL1;PR.MARQUÊS POMBAL;C1;MARQUÊS;-8.604211;41.16059
MPL2;PR.MARQUÊS POMBAL;C1;MARQUÊS;-8.604126;41.16076
MPL3;PR.MARQUÊS POMBAL;C1;MARQUÊS;-8.604013;41.160988
MPL4;PR.MARQUÊS POMBAL;C1;MARQUÊS;-8.604731;41.16151
MPL9;PR.MARQUÊS POMBAL;C1;MARQUÊS;-8.604719;41.161503
HB1;R.HENRIQUE BARROS;C5;HENRIQUE BARROS;-8.608074;41.2235
HB2;R.HENRIQUE BARROS;C5;HENRIQUE BARROS;-8.608212;41.22345
AFEI1;R.D.AFONSO HENRIQUES;C9;AREOSA (FEIRA);-8.58144;41.18554
AFEI2;R.D.AFONSO HENRIQUES;C9;AREOSA (FEIRA);-8.581257;41.18605
HIP2;R.DR.BERNARDINO MACHADO;N11;HIPERMERCADO;-8.617919;41.24782
HIP1;R.DR.BERNARDINO MACHADO;N11;HIPERMERCADO;-8.617735;41.24772
LUCM1;R.JOSÉ RODRIGUES JÚNIOR;C5;LUIS CAMÕES;-8.618696;41.23284
LUCM2;R.JOSÉ RODRIGUES JÚNIOR;C5;LUIS CAMÕES;-8.618853;41.233276
AML4;R.AMIAL;C5;AMIAL;-8.613364;41.18409
BLG2;R.AMIAL;C6;BERLENGAS;-8.613917;41.17955
MPL11;R.JOÃO PEDRO RIBEIRO;C1;MARQUÊS;-8.6058445;41.1607
BLG1;R.AMIAL;C6;BERLENGAS;-8.613671;41.180176
AML2;ESTR.CIRCUNVALAÇÃO;C6;AMIAL;-8.612718;41.18327
AML3;ESTR.CIRCUNVALAÇÃO;C6;AMIAL;-8.612288;41.183582
CSR2;AV.VASCO GAMA;C2;C. SAÚDE RAMALDE;-8.650834;41.16896
AML1;R.AMIAL;C6;AMIAL;-8.613382;41.182526
CSR1;AV.VASCO GAMA;C2;C. SAÚDE RAMALDE;-8.650851;41.16908
HIPD;ESTR.N.107;C4;HIPÓDROMO;-8.683415;41.197475
MATM3;R.ÁLVARO CASTELÕES;C3;MATOSINHOS MERCADO;-8.692157;41.187378
MATM1;AV.ENG.DUARTE PACHECO;C3;MATOSINHOS MERCADO;-8.693592;41.18752
MPN1;R.DR.JOAQUIM NOGUEIRA SANTOS;C9;MONTE PENEDO;-8.579702;41.228676
MPN2;R.DR.JOAQUIM NOGUEIRA SANTOS;C9;MONTE PENEDO;-8.579789;41.22883
PSG;R.CÊRCO PORTO;C6;PEDRAS SALGADAS;-8.56896;41.159363
PUNV;NOVO ARRUAMENTO;C6;PÓLO UNIVERSITÁRIO (METRO);-8.603467;41.17641
PT3;R.DIOGO BOTELHO;C2;PASTELEIRA;-8.661441;41.150513
PT2;R.DIOGO BOTELHO;C2;PASTELEIRA;-8.661192;41.150414
CSS3;R.HEROÍSMO;C1;CAPELA S.RA SAÚDE;-8.588986;41.147522
CSS2;R.HEROÍSMO;C1;CAPELA SRA. SAÚDE;-8.589281;41.14707
MCU3;R.ALTINO COELHO;C5;MACAU;-8.613457;41.231518
RBD2;ESTR.CIRCUNVALAÇÃO;C6;REBORDÃOS;-8.572242;41.180122
RBD1;ESTR.CIRCUNVALAÇÃO;C6;REBORDÃOS;-8.572003;41.179993
RFL2;TV.TENENTE VALADIM;S1;R. FONTE LODOSA;-8.636082;41.13206
SCAT2;R.SANTA CATARINA;C1;SANTA CATARINA;-8.6067705;41.146774
SCAT1;R.FORMOSA;C1;S.TA CATARINA;-8.605651;41.148098
RFL1;TV.TENENTE VALADIM;S1;R. FONTE LODOSA;-8.636187;41.13217
ABVT2;R.SAGRES;C2;AV.DA BOAVISTA;-8.663326;41.162476
ASOT1;AV.D.JOAO I;C8;ALTO DE SOUTELO;-8.547627;41.166744
FRNS1;AV.PAIVA COUCEIRO;C1;FORNOS;-8.591148;41.1403
ABVT1;R.SAGRES;C2;AV.DA BOAVISTA;-8.663376;41.162827
QTM1;R.PONTE MOREIRA;C5;QUINTA DE MOREIRA;-8.648025;41.23838
ASOT2;AV.CARVALHA;C8;ALTO DE SOUTELO;-8.546242;41.16637
FRNS2;AV.PAIVA COUCEIRO;C1;FORNOS;-8.591134;41.14014
PCTO2;PRACETA OLIVEIRAS;S2;PRACETA OLIVEIRAS;-8.629377;41.111336
PCTO1;PRACETA OLIVEIRAS;S2;PRACETA OLIVEIRAS;-8.629489;41.111057
ASOT3;R.DR.OLIVEIRA LOBO;C8;ALTO DE SOUTELO;-8.546957;41.166325
SRC2;R.BUÇACO;C6;SRA.CAMPANHÃ;-8.575062;41.166553
SRC1;R.BUÇACO;C6;SRA.CAMPANHÃ;-8.574268;41.166466
QTM2;R.PONTE MOREIRA;C5;QUINTA DE MOREIRA;-8.648229;41.238323
FTN1;R.REI RAMIRO;S8;FONTE NOVA;-8.621593;41.13813
FTN2;R.REI RAMIRO;S8;FONTE NOVA;-8.621654;41.138012
GOA2;R.ALFREDO CUNHA;C3;GOA;-8.681223;41.184746
GOA1;R.ALFREDO CUNHA;C3;GOA;-8.682584;41.184345
EDP1;R.FREIXO;C1;EDP;-8.581343;41.14488
EDP2;R.FREIXO;C1;EDP;-8.581258;41.14506
NEVG1;R.MOLHE;C2;NEVOGILDE;-8.679511;41.161003
HSJ11;ESTR.CIRCUNVALAÇÃO;C6;HOSP. S. JOÃO (CIRCUNVALAÇÃO);-8.599893;41.18314
HSJ10;ESTR.CIRCUNVALAÇÃO;C6;HOSP. S. JOÃO (CIRCUNVALAÇÃO);-8.599568;41.183083
PARR3;R.OURO;C1;PONTE ARRÁBIDA;-8.641015;41.148468
PARR4;R.OURO;C1;PONTE ARRÁBIDA;-8.640093;41.148434
PARR1;R.OURO;C1;PONTE DA ARRÁBIDA;-8.640316;41.148422
PARR2;R.OURO;C1;PONTE DA ARRÁBIDA;-8.6407795;41.148525
MLH5;R.MARECHAL SALDANHA;C2;MOLHE;-8.68158;41.160027
COLS;R.PASSOS MANUEL;C1;COLISEU DO PORTO;-8.605106;41.14676
MLH1;AV.MONTEVIDEU;C2;MOLHE;-8.683749;41.15973
SJBC1;R.ARQUITETO CASSIANO BARBOSA;C2;S.JOÃO BOSCO;-8.647526;41.166115
MLH2;AV.MONTEVIDEU;C2;MOLHE;-8.683977;41.15974
MLH3;R.GONDARÉM;C2;MOLHE;-8.683137;41.160187
SJBC2;R.ARQUITETO CASSIANO BARBOSA;C2;S.JOÃO BOSCO;-8.647546;41.16592
QTL1;ESTR.CIRCUNVALAÇÃO;C2;QUARTEL MILITAR;-8.638706;41.18256
QTL2;ESTR.CIRCUNVALAÇÃO;C2;QUARTEL MILITAR;-8.6382;41.18247
SJBC3;R.SÃO JOÃO BOSCO;C2;S. JOÃO BOSCO;-8.647382;41.16687
REAL1;ESTR.CIRCUNVALAÇÃO;C2;REAL;-8.669766;41.17639
FTM2;AV.ANTUNES GUIMARÃES;C2;FONTE DA MOURA;-8.662599;41.16422
FTM1;AV.ANTUNES GUIMARÃES;C2;FONTE DA MOURA;-8.662097;41.16453
FTM4;AV.BOAVISTA;C2;FONTE DA MOURA;-8.663397;41.163784
REAL2;ESTR.CIRCUNVALAÇÃO;C2;REAL;-8.669589;41.176266
FTM5;AV.BOAVISTA;C2;FONTE DA MOURA;-8.663665;41.163654
HRC2;R.D.HENRIQUE CERNACHE;S8;HENRIQUE CERNACHE;-8.62214;41.123432
HRC1;R.D.HENRIQUE CERNACHE;S8;HENRIQUE CERNACHE;-8.622231;41.123516
VINH1;AV.GEN.HUMBERTO DELGADO;C8;VINHAL;-8.53114;41.150032
VINH2;AV.GEN.HUMBERTO DELGADO;C8;VINHAL;-8.53089;41.150322
FGT1;R.NOVA SEIXO;C5;FOGUETEIROS (SUL);-8.631927;41.186325
FGT2;R.NOVA SEIXO;C5;FOGUETEIROS (SUL);-8.632244;41.18693
MATR1;R.ROSÁRIO;C1;MATERNIDADE;-8.621072;41.151493
TESC1;R.ESCOLAS;C9;TV.ESCOLAS;-8.589664;41.21671
TESC2;R.ESCOLAS;C9;TV.ESCOLAS;-8.589345;41.21684
HG3;R.GEN.TORRES;S8;HOSP. GAIA;-8.608936;41.12933
GUIF1;LGO.PADRE JOAQUIM SANTOS;C3;GUIFÕES;-8.665607;41.200134
GUIF2;LGO.PADRE JOAQUIM SANTOS;C3;GUIFÕES;-8.665768;41.199932
HSJ12;ESTR.CIRCUNVALAÇÃO;C6;HOSP. S. JOÃO (CIRCUNVALAÇÃO);-8.600594;41.183342
GFR2;AV.CONDE;C5;GODINHO FARIA;-8.612683;41.19307
GFR1;AV.CONDE;C5;GODINHO FARIA;-8.612032;41.193027
RGLE2;R.MANUEL GONÇALVES LAGE;C9;ROD. GONÇALVES LAGE (ESTE);-8.591488;41.20534
PLNT1;R.CAMPO ALEGRE;C1;PLANETÁRIO;-8.638243;41.153122
RGLE1;R.MANUEL GONÇALVES LAGE;C9;ROD. GONÇALVES LAGE (ESTE);-8.591578;41.205463
LOI;R.CALDEIREIROS;C1;LOIOS;-8.612371;41.14588
LARJ2;R.HENRIQUE BRAVO;C5;LARANJEIRAS;-8.604844;41.195393
LARJ1;R.HENRIQUE BRAVO;C5;LARANJEIRAS;-8.605507;41.194874
SRD1;R.CONCEIÇÃO FERNANDES;S8;SARDOAL;-8.596378;41.108925
SRD2;R.CONCEIÇÃO FERNANDES;S8;SARDOAL;-8.596002;41.108967
CONT;VIA ACESSO CONTINENTE;C3;CONTINENTE;-8.657045;41.18
PDR3;R.COELHO NETO;C1;LARGO DO PADRÃO;-8.601546;41.14749
PDR2;R.ALVES SALDANHA;C10;PADRÃO;-8.49299;41.18832
QCM2;R.QUATRO CAMINHOS;C2;QUATRO CAMINHOS;-8.651368;41.188457
PDR4;R.MORGADO MATEUS;C1;PADRÃO;-8.601517;41.146507
QCM1;R.QUATRO CAMINHOS;C2;QUATRO CAMINHOS;-8.651608;41.188313
PDR1;R.ALVES SALDANHA;C10;PADRÃO;-8.492693;41.1881
PLNT2;R.CAMPO ALEGRE;C1;PLANETÁRIO;-8.637054;41.152683
MATR2;R.BREINER;C1;MATERNIDADE;-8.6223345;41.1505
QCM4;R.SOBREIRO;C2;QUATRO CAMINHOS;-8.6516075;41.189373
QCM3;R.SOBREIRO;C2;QUATRO CAMINHOS;-8.651612;41.18973
LPC;R.ARRÁBIDA;C2;LARGO PINTO CORREIA;-8.6451;41.150585
PQN2;ESTR.CIRCUNVALAÇÃO;C6;PARQUE NASCENTE;-8.5669155;41.17473
PQN1;ESTR.CIRCUNVALAÇÃO;C6;PARQUE NASCENTE;-8.567329;41.174652
PMVA2;R.CORONEL CARLOS MOREIRA;N11;PRIMAVERA;-8.645989;41.246704
PMVA1;R.CORONEL CARLOS MOREIRA;N11;PRIMAVERA;-8.645914;41.24659
SRG2;R.GUERRA JUNQUEIRO;C9;SRA. DA GUADALUPE;-8.587231;41.203392
SRG1;R.GUERRA JUNQUEIRO;C9;SRA. DA GUADALUPE;-8.587304;41.202854
SEMR;R.BOA NOVA;S2;SEMINÁRIO;-8.622867;41.094177
AMR2;R.OSCAR DA SILVA;C4;AMOROSA;-8.696788;41.20218
CSX2;R.MONTE MINA;C5;CENTRAL SEIXO;-8.6306095;41.19179
AMR1;R.OSCAR DA SILVA;C4;AMOROSA;-8.696627;41.20229
CSX1;R.MONTE MINA;C5;CENTRAL SEIXO;-8.62996;41.191452
GODS;LGO.STO.ANTONIO;C8;GONDOMAR (SOUTO);-8.530813;41.136402
AVC2;R.ÁLVARO CASTELÕES;C1;AVAL CIMA;-8.603477;41.168213
AVC1;R.ÁLVARO CASTELÕES;C1;AVAL CIMA;-8.603364;41.16845
AMSE;R.PROF.AMADEU SANTOS;S2;A.SANTOS (ESCOLAS);-8.622304;41.098152
BTLH7;PR.BATALHA;C1;BATALHA;-8.607078;41.145298
BTLH6;R.DUQUE LOULÉ;C1;BATALHA;-8.604365;41.14494
UC1;R.DIOGO BOTELHO;C2;UNIV. CATÓLICA;-8.670868;41.153564
CPSF1;R.ENG.CARLOS AMARANTE;C2;CAPELA SRA.FÁTIMA;-8.61821;41.17526
UC3;NOVO ARRUAMENTO;C6;U.C.-BIOTECNOLOGIA;-8.605794;41.178143
UC2;R.DIOGO BOTELHO;C2;UNIV. CATÓLICA;-8.6710415;41.153572
CPSF2;R.ENG.CARLOS AMARANTE;C2;CAPELA SRA.FÁTIMA;-8.61882;41.175026
RTES2;TV.CAVADA NOVA;C9;RIO TINTO (ESC. SEC.);-8.548701;41.17707
BTLH1;PR.BATALHA;C1;BATALHA;-8.607217;41.14528
RTES1;TV.CAVADA NOVA;C9;RIO TINTO (ESC. SEC.);-8.54855;41.176937
AEC1;R.REI RAMIRO;S8;ALAM.EMPRESA;-8.628002;41.136295
AEC2;R.REI RAMIRO;S8;ALAM.EMPRESA;-8.627795;41.13615
BTLH5;R.ALEXANDRE HERCULANO;C1;BATALHA;-8.6038685;41.14365
BTLH4;PR.BATALHA;C1;BATALHA;-8.607482;41.14556
DAM;R.SANTOS POUSADA;C1;D.AMÉLIA;-8.598936;41.157764
PSOC1;R.COSTA CABRAL;C1;PERPÉTUO SOCORRO;-8.602285;41.163155
PSOC2;R.COSTA CABRAL;C1;PERPÉTUO SOCORRO;-8.603564;41.162403
DB2;R.OLIVEIRA GAIO;C5;DR. BARROS;-8.603569;41.186382
AZN1;R.SANTOS DIAS;C5;AZENHA NOVA;-8.607796;41.20731
AZN2;R.PONTE PEDRA;C5;AZENHA NOVA;-8.607579;41.20774
CABN2;AV.DA CONDUTA;C8;CABANAS;-8.542921;41.168827
CABN1;AV.DA CONDUTA;C8;CABANAS;-8.5429735;41.168663
SRHR;AV.ANT.DOMINGUES SANTOS;C2;SRA. HORA;-8.654921;41.18663
DC2;R.SILVA TAPADA;C1;DIOGO CÃO;-8.592189;41.165947
DC1;R.DIOGO CÃO;C1;DIOGO CÃO;-8.592718;41.16522
GNDV2;R.ANT.JOSE ALMEIDA;C5;GONDIVINHO;-8.649522;41.211132
GNDV1;R.ANTÓNIO J.ALMEIDA;C5;GONDIVINHO;-8.649342;41.21141
PCTV2;R.5 OUTUBRO;C5;PICOUTOS (VIADUTO);-8.619702;41.19196
PCTV1;R.5 OUTUBRO;C5;PICOUTOS (VIADUTO);-8.619824;41.19174
SVP2;R.S.DINIS;C1;SILVA PORTO;-8.617266;41.167496
SVP1;R.S.DINIS;C1;SILVA PORTO;-8.616859;41.1677
PERL2;PR.ESTAÇÃO;C9;PERLINHAS;-8.557679;41.18347
QTR1;RUA GEN. HUMBERTO DELGADO;S8;QTA DAS ROSAS;-8.614417;41.109997
PERL1;TV.ESTAÇÃO;C9;PERLINHAS;-8.557444;41.18344
PDV1;AV.CONDE;C5;PEDRA VERDE;-8.616161;41.192734
FTS2;R.BÉLGICA;S1;FONTES;-8.657275;41.13191
REAR2;R.ARAÚJO;C5;R. ESTAÇÃO ARAÚJO;-8.63588;41.216904
FTS1;R.BÉLGICA;S1;FONTES;-8.656813;41.132145
REAR1;R.ARAÚJO;C5;R. ESTAÇÃO ARAÚJO;-8.635549;41.21656
PDV3;R.CMDTE.QUELHAS LIMA;C5;PEDRA VERDE;-8.616829;41.193317
ALFK2;R.ALFREDO KEIL;C2;ALFREDO KEIL;-8.666097;41.156746
PDV2;AV.CONDE;C5;PEDRA VERDE;-8.615904;41.19282
HMLM2;AV.MONTEVIDEU;C2;HOMEM DO LEME;-8.685488;41.162403
ALFK1;R.ALFREDO KEIL;C2;ALFREDO KEIL;-8.665854;41.156822
VDTM1;R.LINHARES;C3;VIADUTO DO METRO;-8.656674;41.2159
HMLM3;AV.MONTEVIDEU;C2;HOMEM DO LEME;-8.685839;41.163433
PDV4;R.CMDTE.QUELHAS LIMA;C5;PEDRA VERDE;-8.6167;41.193253
VDTM2;R.LINHARES;C3;VIADUTO DO METRO;-8.656607;41.21564
FCR1;R.DOMINGOS BARREIROS TOMÉ;C5;FERREIRA DA CRUZ;-8.625026;41.237568
FCR2;R.DOMINGOS BARREIROS TOMÉ;C5;FERREIRA DA CRUZ;-8.625184;41.237576
AVF2;R.CONSTITUIÇÃO;C1;AV.FRANÇA;-8.625678;41.16465
LIN2;R.REGADIO;C3;LINHARES;-8.675501;41.194042
LIN1;R.REGADIO;C3;LINHARES;-8.675849;41.19381
FTV1;AV.DR.ANTUNES GUIMARÃES;C4;FONTE VILA;-8.697694;41.18866
FTV2;AV.DR.ANTUNES GUIMARÃES;C4;FONTE VILA;-8.697569;41.188557
ISCP2;R.PADRE COSTA;C5;ISCAP;-8.598965;41.18889
ISCP1;R.PADRE COSTA;C5;ISCAP;-8.599;41.18904
RBO1;R.LOMBA;C3;RIBEIRO;-8.666487;41.204865
SER2;R.SENDIM;C3;SEARA;-8.676357;41.18702
RBO2;R.LOMBA;C3;RIBEIRO;-8.666614;41.204967
SER1;R.SENDIM;C3;SEARA;-8.676467;41.186787
ALFN3;R.1 MAIO (N 105);N16;ALFENA;-8.527049;41.240974
GC12;AV.MARECHAL GOMES COSTA;C2;GOMES COSTA 1;-8.655981;41.161922
GC11;AV.MARECHAL GOMES COSTA;C2;GOMES COSTA 1;-8.65695;41.161625
PFMA2;R.N.SRA. DA SILVA;C2;PROF. MELO ADRIÃO;-8.668115;41.16977
EZC1;R.CONDE COVILHÃ;C2;EZEQUIEL CAMPOS;-8.653746;41.174477
EZC2;R.CONDE COVILHÃ;C2;EZEQUIEL CAMPOS;-8.654008;41.174427
EZC3;NOVO ARRUAMENTO;C5;EZEQUIEL CAMPOS;-8.628422;41.210552
EZC4;NOVO ARRUAMENTO;C5;EZEQUIEL CAMPOS;-8.62847;41.210403
BOIM2;R.D.ANTÓNIO CASTRO MEIRELES;C9;BOI MORTO;-8.594151;41.195152
LV1;R.MACHADO SANTOS;S8;LAVOURAS;-8.631787;41.125458
BOIM1;R.D.ANTÓNIO CASTRO MEIRELES;C9;BOI MORTO;-8.594008;41.1949
ALFN2;R.1 MAIO (N 105);N16;ALFENA;-8.526625;41.24106
ALFN1;R.S.VICENTE;N16;ALFENA;-8.525428;41.24018
SRRS1;AV.NUNO ÁLVARES;S8;SOARES DOS REIS;-8.612107;41.122334
LV2;R.MACHADO SANTOS;S8;LAVOURAS;-8.6316395;41.12552
SRRS2;R.MARQUÊS SÁ BANDEIRA;S8;SOARES DOS REIS;-8.611449;41.123005
LV4;AV.ENG.LUDGERO MARQUES;S8;LAVOURAS;-8.631327;41.126007
PFMA1;R.N.SRA. DA SILVA;C2;PROF.MELO ADRIÃO;-8.667483;41.170277
HER2;R.HEROÍSMO;C1;HEROISMO;-8.593251;41.14652
HER1;R.HEROÍSMO;C1;HEROISMO;-8.592193;41.146526
COVH4;LGO.COVILHÃ;C11;COVILHÃ;-8.510718;41.15222
RSR3;R.SENHOR;C2;R.SENHOR;-8.648096;41.186497
RSR4;R.SENHOR;C2;R.SENHOR;-8.647952;41.18619
RSR1;ESTR.CIRCUNVALAÇÃO;C2;R. DO SENHOR;-8.646566;41.182384
LW2;R.COSTA CABRAL;C1;LUIS WOODHOUSE;-8.5918255;41.168304
PML2;AV.JOAO DEUS;C9;PALMILHEIRA;-8.555635;41.20524
COVH1;R.EDUARDO CASTRO GANDRA;C11;COVILHÃ;-8.510815;41.15207
RSR2;ESTR.CIRCUNVALAÇÃO;C2;R. DO SENHOR;-8.645129;41.183273
LW1;R.COSTA CABRAL;C1;LUIS WOODHOUSE;-8.591181;41.168495
PML1;AV.ENG.DUARTE PACHECO;C9;PALMILHEIRA;-8.556234;41.204758
LVP;AV.BEIRA MAR;S1;LAVADORES (PRAIA);-8.669259;41.131023
RNSG1;R.S.GENS;C5;R. NOVA S. GENS;-8.647519;41.188282
RNSG2;R.S.GENS;C5;R.NOVA S. GENS;-8.647209;41.18837
PQBT4;R.TOMÁS RIBEIRO;C3;PQ BASÍLIO TELES;-8.685067;41.182068
PQBT3;R.CONDE ALTO MEARIM;C3;PARQUE BASÍLIO TELES;-8.6844845;41.182446
SAL4;R.AUGUSTO LESSA;C1;SALGUEIROS;-8.596442;41.169594
VFM6;R.VALE FORMOSO;C1;VALE FORMOSO;-8.61146;41.166164
SAL2;R.AUGUSTO LESSA;C1;SALGUEIROS;-8.599279;41.169895
VFM7;R.VALE FORMOSO;C1;VALE FORMOSO;-8.611326;41.166298
SAL3;R.AUGUSTO LESSA;C1;SALGUEIROS;-8.596527;41.169712
SAL1;R.AUGUSTO LESSA;C1;SALGUEIROS;-8.598925;41.16969
AGRO2;R.REI RAMIRO;S8;AGRO;-8.625041;41.136047
AGRO1;R.REI RAMIRO;S8;AGRO;-8.625797;41.136303
VFM1;R.ANTERO QUENTAL;C1;VALE FORMOSO;-8.610776;41.165737
VFM2;R.S.DINIS;C1;VALE FORMOSO;-8.612583;41.16658
VFM3;R.S.DINIS;C1;VALE FORMOSO;-8.61267;41.16647
QTAM1;R.OLIVEIRA MONTEIRO;C1;QUINTA AMARELA;-8.624627;41.162777
LDDM1;R.MARTIM MONIZ;C2;LIDADOR/M.MONIZ;-8.661396;41.17525
QTAM2;R.OLIVEIRA MONTEIRO;C1;QUINTA AMARELA;-8.624823;41.16278
FOCO3;AV.BOAVISTA;C1;FOCO;-8.647498;41.16094
FOCO2;AV.BOAVISTA;C1;FOCO;-8.647357;41.161076
PIC1;R.BÉLGICA;S1;PICÃO;-8.659105;41.131985
FOCO1;AV.BOAVISTA;C1;FOCO;-8.647212;41.161053
SVT4;R.COSTA CABRAL;C1;SILVA TAPADA;-8.593219;41.167545
SVT3;R.COSTA CABRAL;C1;SILVA TAPADA;-8.59362;41.16718
SVT2;R.SILVA TAPADA;C1;SILVA TAPADA;-8.593893;41.166817
SVT1;R.SILVA TAPADA;C1;SILVA TAPADA;-8.593205;41.166588
AH;R.ALEXANDRE HERCULANO;S8;ALEX. HERCULANO;-8.632357;41.13571
PDZ2;R.ÁLVARO CASTELÕES;C3;1º DE DEZEMBRO;-8.690111;41.184727
PIC2;R.BÉLGICA;S1;PICÃO;-8.659156;41.13186
PDZ1;R.ROBERTO IVENS;C3;1º DE DEZEMBRO;-8.692843;41.184116
NSHP2;AV.DR.MANUEL T.RUELA;C2;NORTESHOPPING;-8.652925;41.181877
AZ;R.AMIAL;C6;AZENHA;-8.613669;41.181614
SNG2;R.CRASTO;S2;SOUSA NOGUEIRA;-8.638934;41.101635
MLAR1;R.MANUEL LARANJEIRA;C6;MANUEL LARANJEIRA;-8.598679;41.17319
LEIR;LGO.EIRÓZ;S2;LARGO EIRÓS;-8.625409;41.09767
MLAR2;R.MANUEL LARANJEIRA;C6;MANUEL LARANJEIRA;-8.598911;41.17322
SNG1;R.CRASTO;S2;SOUSA NOGUEIRA;-8.639032;41.10152
RST3;R.RESTAURAÇÃO;C1;RESTAURAÇÃO;-8.625267;41.14541
RST4;R.RESTAURAÇÃO;C1;RESTAURAÇÃO;-8.625424;41.145554
EDRG4;R.S.ROQUE LAMEIRA;C1;ESTÁDIO DO DRAGÃO;-8.583835;41.158577
LRD1;R.SERRALVES;C2;LORDELO;-8.648656;41.154415
HSPH2;R.DR.EDUARDO TORRES;C3;HOSP. P. HISPANO;-8.663663;41.180706
HSPH1;R.DR.EDUARDO TORRES;C3;HOSP. P. HISPANO;-8.663565;41.180836
PDVD5;PR.PEDRA VERDE;C2;PEDRA VERDE;-8.662449;41.172607
SAN2;R.CRASTO;S2;STO.  ANTÓNIO;-8.6403675;41.104797
PDVD4;R.JORNAL NOTÍCIAS;C2;PEDRA VERDE;-8.662509;41.173264
SAN3;R.IGREJA MADALENA;S2;STO. ANTÓNIO;-8.643562;41.103855
PDVD3;R.JORNAL NOTÍCIAS;C2;PEDRA VERDE;-8.662855;41.17264
LRD3;R.BESSA LEITE;C2;LORDELO;-8.647587;41.155167
LRD2;R.CAMPO ALEGRE;C2;LORDELO;-8.6479435;41.154163
SAN1;R.CRASTO;S2;STO. ANTÓNIO;-8.64031;41.104446
ARNH1;AV.PAIVA COUCEIRO;C6;AREINHO;-8.578983;41.14438
ARNH2;AV.PAIVA COUCEIRO;C6;AREINHO;-8.578949;41.144215
GNOR2;R.GONDIVAI;C5;GONDIVAI (NORTE);-8.634938;41.214027
AVM1;R.BRITO CAPELO;C3;AV. MENÉRES;-8.689153;41.17811
RBR1;R.INFANTE D.HENRIQUE;C1;RIBEIRA;-8.614119;41.141144
DJ1;R.SOUSA AROSO;C3;D.JOÃO I;-8.686614;41.17677
GNOR1;R.GONDIVAI;C5;GONDIVAI (NORTE);-8.634642;41.213856
RFZ1;R.D.JOÃO IV;C1;RUA FIRMEZA;-8.602047;41.150566
CCA2;R.CONSELHEIRO COSTA AROSO;C5;CONS.COSTA AROSO;-8.633448;41.2392
CCA1;R.CONSELHEIRO COSTA AROSO;C5;CONS.COSTA AROSO;-8.633327;41.239304
VSG1;R.AUGUSTO SIMÕES;C5;VASCO GAMA;-8.618331;41.228695
EDRG1;ALAM.DAS ANTAS;C1;ESTÁDIO DO DRAGÃO;-8.58358;41.160267
EDRG2;ALAM.DAS ANTAS;C1;ESTÁDIO DO DRAGÃO;-8.58194;41.161022
EDRG3;R.S.ROQUE LAMEIRA;C1;ESTÁDIO DO DRAGÃO;-8.583388;41.158665
SAM1;R.JOSÉ LUIS ARAÚJO;C8;SÁ DE MIRANDA;-8.547913;41.174282
SAM2;R.JOSÉ LUIS ARAÚJO;C8;SÁ DE MIRANDA;-8.547944;41.17416
RBR2;R.INFANTE D.HENRIQUE;C1;RIBEIRA;-8.614218;41.141247
ACNT2;R.CRASTO;S2;ALBERTO O CANTADOR;-8.634883;41.097736
ACNT1;R.CRASTO;S2;ALBERTO O CANTADOR;-8.634986;41.097656
LOUR4;R.CALOUSTE GULBENKIAN;C9;LOURINHA;-8.559799;41.181
LOUR3;R.LOURINHA;C9;LOURINHA;-8.558853;41.180935
AZV1;R.AZEVÊDO;C6;AZEVEDO;-8.566495;41.15147
AZV2;R.Dr MANUEL FIGUEIREDO;C6;AZEVEDO;-8.567042;41.151737
AREI;R. AREIAS;C6;AREIAS;-8.555126;41.159355
LNEV2;R.MOLHE;C2;LGO.NEVOGILDE;-8.676526;41.16273
LNEV1;R.MOLHE;C2;LGO.NEVOGILDE;-8.676397;41.162613
CCB2;R.CAMILO CASTELO BRANCO;S8;CAMILO C. BRANCO;-8.633619;41.138515
CCB1;R.CAMILO CASTELO BRANCO;S8;CAMILO C. BRANCO;-8.633886;41.13896
CRRS2;R.RESTAURAÇÃO;C9;CARREIROS;-8.570569;41.194363
HSA;R.ALBERTO AIRES GOUVEIA;C1;HOSP.STO. ANTÓNIO;-8.620294;41.14638
CRRS1;R.RESTAURAÇÃO;C9;CARREIROS;-8.570419;41.19452
PMQ1;R.SANTANA;C5;PEDRO MESQUITA;-8.614102;41.206703
PMQ2;R.SANTANA;C5;PEDRO MESQUITA;-8.614797;41.20587
EC;ALAM.EMPRESA;S8;ELECTROCERÂMICA;-8.629797;41.13682
SRHE3;AV.ANT.DOMINGUES SANTOS;C2;SRA.HORA (METRO);-8.654846;41.18646
HSM;R.CAMÕES;C1;HOSP. S.TA MARIA;-8.609965;41.159985
SRP3;AV.MANUEL PINTO AZEVEDO;C2;SRA. DA PENHA;-8.647442;41.185493
SRP4;AV.MANUEL PINTO AZEVEDO;C2;SRA. DA PENHA;-8.647198;41.184406
SRP1;ESTR.CIRCUNVALAÇÃO;C2;SRA.PENHA;-8.649621;41.180515
SRP2;ESTR.CIRCUNVALAÇÃO;C2;S.RA PENHA;-8.649509;41.180893
DJM1;AV.REPÚBLICA;S8;D.JOÃO II (METRO);-8.60632;41.119034
DL2;R.PASSEIO ALEGRE;C2;D. LEONOR;-8.660667;41.14746
DJM2;AV.REPÚBLICA;S8;D.JOÃO II (METRO);-8.605292;41.12017
DL5;R.PASSEIO ALEGRE;C2;D.LEONOR;-8.66048;41.1474
CCBR;R.LUÍS WOODHOUSE;C1;COSTA CABRAL;-8.592339;41.168274
CCC3;R.CONCEIÇÃO FERNANDES;S8;CLUBE CAÇADORES;-8.604672;41.114937
DL6;R.PASSEIO ALEGRE;C2;D.LEONOR;-8.660606;41.14727
CCC2;R.CONCEIÇÃO FERNANDES;S8;CLUBE CAÇADORES;-8.604548;41.115047
CCC1;R.CLUBE CAÇADORES;S8;CLUBE CAÇADORES;-8.604981;41.114906
CGK2;R.JÚLIO DINIS;C9;CALOUSTE GULBENKIAN;-8.562585;41.21056
CGK1;R.JÚLIO DINIS;C9;CALOUSTE GULBENKIAN;-8.5627;41.210423
TMTS2;R.MATAS;S8;TV. MATAS;-8.630392;41.119167
TVAS1;R.AUGUSTO SIMÕES;C5;TV.AUGUSTO SIMÕES;-8.616723;41.226986
TMTS1;R.MATAS;S8;TV. MATAS;-8.630833;41.11922
SRHH2;AV.CALOUSTE GULBENKIAM;C3;SRA. HORA (HIPER);-8.659201;41.181408
VNFZ1;R.CÊRCO PORTO;C6;VILA NOVA FOZ CÔA;-8.566881;41.161777
SRHH1;AV.CALOUSTE GULBENKIAM;C3;SRA. HORA (HIPER);-8.659409;41.181824
SMAI2;R.D.PEDRO V;C1;SALGUEIRO MAIA;-8.631732;41.148373
VNFZ2;R.CÊRCO PORTO;C6;VILA NOVA FOZ CÔA;-8.566681;41.161793
SAR2;R.ROBERTO IVENS;C3;SOUSA AROSO;-8.690095;41.177086
SAR1;R.BRITO CAPELO;C3;SOUSA AROSO;-8.688904;41.17617
VDAM1;R.ASSIS VAZ;C1;VITORINO DAMASIO;-8.594099;41.169323
PMS2;R.CAMPISMO;S2;PRAIA MADALENA SUL;-8.658182;41.101208
SMAI1;R.D.PEDRO V;C1;SALGUEIRO MAIA;-8.631303;41.14857
BRCP1;AV.VASCO GAMA;C2;BR. CAMPINAS;-8.653783;41.16972
BRCP2;AV.VASCO GAMA;C2;BR. CAMPINAS;-8.653602;41.169487
PMS1;R.CAMPISMO;S2;PRAIA MADALENA SUL;-8.658087;41.10121
SJB1;R.PROF.MOTA PINTO;C2;S. JOÃO DE BRITO;-8.650115;41.16648
SJB2;R.PROF.MOTA PINTO;C2;S. JOÃO DE BRITO;-8.6501465;41.16632
VFR1;R.RECAREI;C5;VILARINHO FREIRES;-8.633602;41.1958
HMBC1;R.ENG.FERNANDO PINTO OLIVEIRA;C4;HUMBERTO CRUZ;-8.699402;41.19866
PQBT2;R.LÓ FERREIRA;C3;PQ BASÍLIO TELES;-8.685411;41.18284
HMBC2;R.ENG.FERNANDO PINTO OLIVEIRA;C4;HUMBERTO CRUZ;-8.699439;41.198814
VFR2;R.RECAREI;C5;VILARINHO FREIRES;-8.633829;41.195255
ARJ1;R.ARAÚJO;C5;ARAÚJO;-8.636986;41.21935
ARJ2;R.ARAÚJO;C5;ARAÚJO;-8.637179;41.2193
LVR3;R.S.ROMÃO VERMOIM;C5;ROT.LAVRADOR;-8.615627;41.22611
LVR2;R.AUGUSTO SIMÕES;C5;ROT.LAVRADOR;-8.615799;41.22512
LVR1;AV.ANTÓNIO SANTOS LEITE;C5;ROT.LAVRADOR;-8.615598;41.225063
JLD1;R.JÚLIO DINIS;C9;JÚLIO DINIS;-8.5664425;41.208347
GGC2;R.MANUEL GONÇALVES LAGE;C9;GAGO COUTINHO;-8.5893345;41.205494
LVR4;R.5 OUTUBRO;C5;ROT.LAVRADOR;-8.615271;41.225502
GGC1;R.MANUEL GONÇALVES LAGE;C9;GAGO COUTINHO;-8.5887;41.205486
JLD2;R.D.AFONSO HENRIQUES;C9;JÚLIO DINIS;-8.567007;41.208557
MDL1;R.PENA;S2;MADALENA (ESCOLAS);-8.643945;41.11242
MDL2;R.PENA;S2;MADALENA (ESCOLAS);-8.643829;41.11252
AEP1;AV.ANT.MACEDO;C4;ASSOC. EMP. PORTUGAL;-8.689527;41.194798
SRLZ1;R.SRA.LUZ;C2;SENHORA DA LUZ;-8.67578;41.14998
SRV1;AV.MARECHAL GOMES COSTA;C2;SERRALVES;-8.659166;41.16058
SRV2;AV.MARECHAL GOMES COSTA;C2;SERRALVES;-8.657729;41.16103
RSMT2;R.MATAS;S8;R. SR MATOSINHOS;-8.627603;41.117744
RSMT1;R.MATAS;S8;R. SR MATOSINHOS;-8.627857;41.117638
FLO1;AV.FLORES;C5;FLORES;-8.599497;41.216946
FSTO1;R.ESCOLAS;C6;FERR. DOS SANTOS;-8.578017;41.159485
DP5;R.D.PEDRO V;S8;D.PEDRO V;-8.609163;41.12348
FLO2;AV.FLORES;C5;FLORES;-8.599679;41.216652
GONS1;R.GONÇALO SAMPAIO;C1;GONÇALO SAMPAIO;-8.631517;41.15431
FLO3;AV.DR.GERMANO VIEIRA;C5;FLORES;-8.59889;41.217403
FLO4;AV.DR.GERMANO VIEIRA;C5;FLORES;-8.598796;41.21722
RBX2;R.RECAREI;C5;RECAREI BAIXO;-8.633439;41.202934
RBX1;R.RECAREI;C5;RECAREI BAIXO;-8.633236;41.202843
CRRP2;AV.ANTUNES GUIMARÃES;C2;CORREIA PINTO;-8.658717;41.16884
ROR1;R.CIDRES;C4;R.ORIENTAL;-8.680234;41.224876
ROR2;R.CIDRES;C4;R.ORIENTAL;-8.680452;41.22485
PAUS1;R.PAUS;C3;PAUS;-8.673991;41.1957
RGD1;R.D.JOÃO CASTRO;C8;REGADAS;-8.528835;41.182636
UVDE3;R.CAP.SALGUEIRO MAIA;S9;URB. VILA D''ESTE;-8.588156;41.096798
PAUS2;R.REGADIO;C3;PAUS;-8.673432;41.19602
RGD2;R.D.JOÃO CASTRO;C8;REGADAS;-8.529056;41.18268
UVDE2;URB.VILA D''ESTE;S9;URB. VILA D''ESTE;-8.587952;41.097008
JR;R.DR.ALFREDO MAGALHÃES;C1;JOÃO REGRAS;-8.609099;41.155006
PVH1;AV.JOAO DEUS;C9;PAVILHÃO CPN;-8.555945;41.207455
LND1;R.SOBREIRO;C2;C. C. LONDRES;-8.652838;41.19144
LND2;R.SOBREIRO;C2;C. C. LONDRES;-8.65257;41.19081
CUSF1;R.CÂNDIDO REIS;C5;CUSTÓIAS (FEIRA);-8.644925;41.20218
CUSF2;R.CÂNDIDO REIS;C5;CUSTÓIAS (FEIRA);-8.645177;41.201946
PVH2;AV.JOAO DEUS;C9;PAVILHÃO CPN;-8.555723;41.2076
CUSF3;R.TEIXEIRA LOPES;C5;CUSTÓIAS (FEIRA);-8.643535;41.20215
UVDE1;VILA D''ESTE;S9;URB. VILA D ESTE;-8.588674;41.09721
DQL;AV.RODRIGUES FREITAS;C1;DUQUE LOULÉ;-8.603855;41.14552
MCB;AV.REPÚBLICA;S8;MOCAMBIQUE;-8.606059;41.12269
SMAT2;AV.COMERCIO  LEIXÕES;C3;SENHOR MATOSINHOS;-8.685116;41.1885
MDLI;R.IGREJA MADALENA;S2;MADALENA (IGREJA);-8.645645;41.099777
SMAT1;AV.COMERCIO  LEIXÕES;C3;SENHOR MATOSINHOS;-8.685124;41.188354
ARRG1;R.GENERAL HUMBERTO DELGADO;C9;ARREGADAS;-8.584926;41.2165
SMAT4;AV.ENG.DUARTE PACHECO;C3;SR. MATOSINHOS;-8.686062;41.188305
LNC2;R.MANUEL GONÇALVES LAGE;C5;LEONARDO COIMBRA;-8.599854;41.199154
SMAT3;PR.GUILHERMINA SUGGIA;C3;SR.  MATOSINHOS;-8.685783;41.188034
LNC1;R.MANUEL GONÇALVES LAGE;C5;LEONARDO COIMBRA;-8.599691;41.198845
JCT1;R.JACINTOS;C5;OS JACINTOS;-8.612688;41.233906
JCT2;R.JACINTOS;C5;OS JACINTOS;-8.612822;41.233948
ARRG2;R.AGRELA;C9;ARREGADAS;-8.584127;41.216946
PFOZ1;R.JOÃO DE BARROS;C2;PINHAIS DA FOZ;-8.663033;41.15518
PFOZ2;R.JOÃO DE BARROS;C2;PINHAIS DA FOZ;-8.663213;41.15517
PIN1;R.PADRE JOSÉ P.DUARTE;C5;PINHEIRAL;-8.629881;41.2368
PMV2;AV.DR.ANTUNES GUIMARÃES;C4;PONTE MOVEL;-8.695674;41.1898
PMV1;AV.DR.ANTUNES GUIMARÃES;C4;PONTE MOVEL;-8.6958475;41.18991
MDLP;R.PROF.MANUEL CARDOSO RIBEIRO;S2;MADALENA;-8.641981;41.11251
25A2;AV.GEN.HUMBERTO DELGADO;C8;25 DE ABRIL;-8.532227;41.14431
25A1;AV.GEN.HUMBERTO DELGADO;C8;25 DE ABRIL;-8.532475;41.144413
AREI2;R. AREIAS;C6;AREIAS;-8.555262;41.159416
AALB;R.AFONSO ALBUQUERQUE;C2;AFONSO  ALBUQUERQUE;-8.662284;41.158844
ARRB3;AV.ESCULTORES;S8;ARRÁBIDASHOPPING;-8.635542;41.139336
ARRB1;R.CAMILO CASTELO BRANCO;S8;ARRÁBIDASHOPPING;-8.635016;41.141006
TRBG2;R.CONS.VELOSO CRUZ;S8;TRIBUNAL DE GAIA;-8.611969;41.128906
ARRB2;AV.ESCULTORES;S8;ARRÁBIDASHOPPING;-8.635653;41.139202
TRBG1;R.CONS.VELOSO CRUZ;S8;TRIBUNAL DE GAIA;-8.610039;41.1289
PTCR1;R.RODRIGUES FREITAS;C9;PORTO CARREIRO;-8.557042;41.21096
PTCR2;R.RODRIGUES FREITAS;C9;PORTO CARREIRO;-8.557186;41.21114
AAL9;AV.ALIADOS;C1;AV.ALIADOS;-8.611436;41.147457
TMPR2;R.FREI DIOGO MELO PEREIRA;C5;TV. MELO PEREIRA;-8.622658;41.205574
TMPR1;R.FREI DIOGO MELO PEREIRA;C5;TV.MELO PEREIRA;-8.62289;41.205757
AAL4;AV.ALIADOS;C1;AV.ALIADOS;-8.610544;41.148384
MASC1;R.JOÃO MASCARENHAS;C2;MASCARENHAS;-8.654475;41.155804
AAL2;AV.ALIADOS;C1;AV. ALIADOS;-8.610412;41.14883
AAL3;AV.ALIADOS;C1;AV.ALIADOS;-8.61134;41.14849
5OTB2;R.5 OUTUBRO;C5;5 DE OUTUBRO;-8.610149;41.225582
AAL1;AV.ALIADOS;C1;AV.ALIADOS;-8.611348;41.148666
5OTB3;R.5 OUTUBRO;C5;5 DE OUTUBRO;-8.60988;41.22495
LGAJ1;AV.RAMOS PINTO;S8;LGO. ALJUBARROTA;-8.617916;41.13709
LGAJ2;LGO.ALJUBARROTA;S8;LGO. ALJUBARROTA;-8.6179;41.136925
EMZ1;R.CONCEIÇÃO FERNANDES;S9;EGAS MONIZ;-8.5939245;41.10776
RGDU;R.LOMBA;C3;REGEDOURA;-8.664623;41.20348
ABSS2;R.ARQUITETO CASSIANO BARBOSA;C1;AV. DO BESSA;-8.644464;41.165386
ABSS1;R.ARQUITETO CASSIANO BARBOSA;C1;AV. DO BESSA;-8.644272;41.16552
DSQ;R.GENERAL NOTON DE MATOS;C1;DOMINGOS SEQUEIRA;-8.631536;41.16298
DT2;AV.RODRIGUES FREITAS;C1;DUQUE TERCEIRA;-8.598668;41.145866
DSS;R.DIONÍSIO SANTOS SILVA;C6;DIONÍSIO SANTOS SILVA;-8.607067;41.17493
GGF1;PR.GUILHERME GOMES FERNANDES;C1;GUILHERME GOMES FERNANDES;-8.614637;41.14776
VLRA4;R.VILARINHA;C2;VILARINHA;-8.672948;41.171852
VLRA3;R.VILARINHA;C2;VILARINHA;-8.672951;41.172077
PRA2;R.EDUARDO J.R.FIGUEIRA;C10;PEREIRAS;-8.496007;41.195656
PRA1;R.EDUARDO J.R.FIGUEIRA;C10;PEREIRAS;-8.495998;41.19583
MF1;R.MARTIM MONIZ;C2;MARTIM FREITAS;-8.662852;41.173836
1PREL1;R.PADRE DIAMANTINO GOMES;C2;PRELADA;-8.638627;41.17342
DTR;R.TEATRO;C2;DIU/TEATRO;-8.676479;41.15338
JPR2;R.NOVA SANTEGÃOS;C9;JOÃO PINTO RIBEIRO;-8.568491;41.1938
JPR1;R.NOVA SANTEGÃOS;C9;JOÃO PINTO RIBEIRO;-8.56848;41.19322
PRD1;R.MANUEL GONÇALVES LAGE;C9;PARADA;-8.595609;41.20206
CTN2;R.ESTRADA NOVA;C9;CASTANHEIRA;-8.566245;41.181644
CTN1;R.ESTRADA NOVA;C9;CASTANHEIRA;-8.56603;41.18142
ALPR1;R.VISCONDE DEVESAS;S8;ALFÉRES PEREIRA;-8.616424;41.124447
25AB1;AV.25 ABRIL;C10;25 DE ABRIL;-8.503003;41.19193
PRD3;R.MANUEL GONÇALVES LAGE;C9;PARADA;-8.596174;41.201763
PRD2;R.PONTE PARADA;C9;PARADA;-8.596255;41.202496
25AB2;AV.25 ABRIL;C10;25 DE ABRIL;-8.503491;41.19177
OG;R.OLIVEIRA GAIO;C5;OLIVEIRA GAIO;-8.604166;41.187595
EMZ2;R.CONCEIÇÃO FERNANDES;S9;EGAS MONIZ;-8.593952;41.10807
DV2;R.VISCONDE DEVESAS;S8;DEVESAS;-8.617963;41.125854
FLU1;R.CONDOMINHAS;C2;FLUVIAL;-8.652852;41.148735
FLU2;LGO.ANT.CÁLEM;C2;FLUVIAL;-8.653657;41.148605
VBR1;AV.VISCONDE BARREIROS;C5;VISCONDE BARREIROS;-8.625139;41.232613
FLU3;LGO.ANT.CÁLEM;C2;FLUVIAL;-8.653624;41.14839
AJA2;R.ANT.JOSE ALMEIDA;C5;ANTÓNIO J. ALMEIDA;-8.646665;41.207603
VBR2;AV.VISCONDE BARREIROS;C5;VISCONDE BARREIROS;-8.625167;41.232765
FLU4;R.ALEIXO MOTA;C2;FLUVIAL;-8.653397;41.148838
EIR3;R.BONFIM;C1;EIRINHAS;-8.592194;41.15223
AJA1;R.ANTÓNIO J.ALMEIDA;C5;ANTÓNIO JOSÉ  ALMEIDA;-8.647229;41.207813
FLU6;LGO.ANTÓNIO CÁLEM;C2;FLUVIAL;-8.653725;41.148407
R10;R.1;N10;RUA 10;-8.6645975;41.25403
LEV2;AV.DR.FRANCISCO SÁ CARNEIRO;C9;LEVADA;-8.56208;41.17785
R15;R.5;N10;RUA 15;-8.66283;41.255157
LEV1;AV.DR.FRANCISCO SÁ CARNEIRO;C9;LEVADA;-8.562113;41.177635
RDAG2;R.PORTO MOURO;C3;REGUINHO D ÁGUA;-8.658015;41.203682
RDAG1;R.PORTO MOURO;C3;REGUINHO D ÁGUA;-8.65781;41.203697
LGEQ1;R.TENENTE VALADIM;S8;LGO. EÇA QUEIRÓS;-8.632195;41.13402
PDEH2;R.PADRE DEHON;C8;PADRE DEHON;-8.553122;41.160313
PDEH1;R.PADRE DEHON;C8;PADRE DEHON;-8.552918;41.160202
TVFO2;R.RESTAURAÇÃO;C9;TV.FORNO;-8.57398;41.194424
PREG;R.PESO REGUA;C6;PESO DA RÉGUA;-8.569413;41.161594
TVFO1;R.RESTAURAÇÃO;C9;TV.FORNO;-8.574182;41.194534
PRF1;AV.25 ABRIL;C1;PR. DAS FLORES;-8.589946;41.155594
PRF2;PR.DR.PEDRO.T.PEREIRA;C1;PR. DAS FLORES;-8.591698;41.155945
TMQ2;R.S.ROMÃO VERMOIM;N11;TAMANQUEIROS;-8.606401;41.240902
TMQ1;R.S.ROMÃO VERMOIM;N11;TAMANQUEIROS;-8.60618;41.24106
R1;R.1;N10;RUA 1;-8.665509;41.255928
QSTG1;AV.DR.ANTUNES GUIMARÃES;C4;QUINTA DE SANTIAGO;-8.692281;41.19166
QSTG2;AV.DR.ANTUNES GUIMARÃES;C4;QUINTA DE SANTIAGO;-8.692732;41.191208
FTSR2;R.VASCO GAMA;C10;FONTE DA SENHORA;-8.510226;41.19183
FTSR1;R.RIBEIRO CAMBADO;C10;FONTE DA SENHORA;-8.510956;41.190998
FTSR4;R.RIBEIRO CAMBADO;C10;FONTE DA SENHORA;-8.510725;41.191154
ARS8;ESTR.CIRCUNVALAÇÃO;C6;AREOSA;-8.5827055;41.180782
ARS7;R.GONÇALO MENDES MAIA;C9;AREOSA;-8.585173;41.18147
PISC;R.CONSTITUIÇÃO;C1;PISCINA CONSTIT.;-8.612985;41.163067
ARS4;ESTR.CIRCUNVALAÇÃO;C6;AREOSA;-8.582482;41.18066
ARS5;ESTR.CIRCUNVALAÇÃO;C6;AREOSA;-8.584988;41.18115
PRDJ;R.DR.MAGALHÃES LEMOS;C1;PR. D. JOÃO I;-8.60908;41.14761
ARS2;R.COSTA CABRAL;C6;AREOSA;-8.583375;41.180447
ARS3;R.COSTA CABRAL;C6;AREOSA;-8.583529;41.18058
VSV1;R.S.VICENTE;N16;VIELA S.VICENTE;-8.530471;41.226078
VSV2;R.S.VICENTE;N16;VIELA S.VICENTE;-8.530848;41.22595
PIT2;R.JOÃO VIEIRA;C9;PADRE IVO TONELLI;-8.564987;41.19024
PIT1;R.JOÃO VIEIRA;C9;PADRE IVO TONELLI;-8.565213;41.190403
SGMC1;R.GUERRA JUNQUEIRO;C9;S. GEMIL (CAMINHO FERRO);-8.581207;41.19578
TVA2;R. AREIAS;C6;TV. ALDEIA;-8.563342;41.152485
TVA1;R. AREIAS;C6;TV. ALDEIA;-8.563299;41.15236
IB2;R.S.TOMÉ;C6;ILHA BRAVA;-8.609441;41.181618
IB3;R.S.TOMÉ;C6;ILHA BRAVA;-8.609245;41.18181
PLUZ1;AV.BRASIL;C2;PRAIA DA LUZ;-8.67874;41.153652
SGMC2;R.GUERRA JUNQUEIRO;C9;S.GEMIL (CAMINHO FERRO);-8.581855;41.195873
AAS1;R.MEIRAL;C8;ANTÓNIO  AUG.SILVA;-8.558736;41.167397
AAS2;R.ESTEVES;C8;ANTÓNIO  AUG.SILVA;-8.557767;41.16753
BRCC1;AV.FERNÃO MAGALHAES;C6;BR. COSTA CABRAL;-8.585599;41.17198
BRCC2;AV.FERNÃO MAGALHAES;C6;BR. COSTA CABRAL;-8.585931;41.171772
ART7;R.MAÍNÇA;C5;ARROTEIA;-8.622157;41.19993
ART8;R.MAÍNÇA;C5;ARROTEIA;-8.622166;41.19978
C302;R.EDUARDO CASTRO GANDRA;C11;CURVA DO 30;-8.514527;41.155434
SA;R.SILVA AROSO;C4;SILVA AROSO;-8.698824;41.227043
C301;R.EDUARDO CASTRO GANDRA;C11;CURVA DO 30;-8.514755;41.15555
LGET1;R.SOARES REIS;S8;L. ESTEVÃO TORRES;-8.608614;41.11834
MTES1;R.OSCAR DA SILVA;C4;MONTE ESPINHO;-8.694938;41.21164
LGET2;R.SOARES REIS;S8;L. ESTEVÃO TORRES;-8.608456;41.118355
MTES2;R.OSCAR DA SILVA;C4;MONTE ESPINHO;-8.695062;41.211853
RNOR1;R.RECAREI;C5;RECAREI (NORTE);-8.633147;41.2048
RNOR2;R.RECAREI;C5;RECAREI (NORTE);-8.633319;41.204914
CPTO1;R.CÊRCO PORTO;C6;CERCO DO PORTO;-8.570102;41.160507
CCOR;R.D.AFONSO HENRIQUES;C9;CASA DO CORIM;-8.573185;41.201942
1PVC1;AV.MARECHAL GOMES COSTA;C2;PÊRO VAZ CAMINHA;-8.6670885;41.15745
SP;R.SERPA PINTO;C1;SERPA PINTO;-8.620811;41.16326
LARZ;R.ARMANDO LAROZE ROCHA;C2;LAROZE ROCHA;-8.624089;41.176254
4CAM3;R.CABEDA;C9;4 CAMINHOS;-8.528899;41.206093
4CAM4;R.CABEDA;C9;4 CAMINHOS;-8.528692;41.20602
RGSM2;AV.FERNÃO MAGALHAES;C6;RODRIGUES SEMIDE;-8.583089;41.177376
RGSM1;AV.FERNÃO MAGALHAES;C6;RODRIGUES SEMIDE;-8.582917;41.177322
PRG2;R.JÚLIO DINIS;C1;PR. DA GALIZA;-8.626476;41.153366
RTE1;PR.ESTAÇÃO;C9;RIO TINTO (ESTAÇÃO);-8.556369;41.18497
PRG1;R.JÚLIO DINIS;C1;PR. DA GALIZA;-8.626306;41.15351
RTE2;PR.ESTAÇÃO;C9;RIO TINTO (ESTAÇÃO);-8.556683;41.18487
PRG4;PR.GALIZA;C1;PR. DA GALIZA;-8.626995;41.152557
RGFT1;R.ELIAS GARCIA;C9;RODRIGUES FREITAS;-8.557426;41.221996
RGFT2;R.ELIAS GARCIA;C9;RODRIGUES FREITAS;-8.557718;41.222015
PRG3;PR.GALIZA;C1;PR. DA GALIZA;-8.626726;41.152634
PRFL;R.ELISIO DE MELO;C1;PR.FILIPA DE LENCASTRE;-8.612718;41.14833
R52;R.CRUZ GUARDEIRAS;N10;R.5;-8.658874;41.250523
CTS2;R.CASTELOS;C1;CASTELOS;-8.630081;41.168766
R51;R.5;N10;R.5;-8.659607;41.25105
CTS1;R.CASTELOS;C1;CASTELOS;-8.630341;41.168907
PIV2;R.D.AMÉLIA M.ALVES;C9;PEDRO IVO;-8.583398;41.19124
PIV1;R.D.AMÉLIA M.ALVES;C9;PEDRO IVO;-8.583293;41.191406
PRG6;PR.GALIZA;C1;PR. DA GALIZA;-8.626714;41.152466
RTE3;PR.ESTAÇÃO;C9;RIO TINTO (ESTAÇÃO);-8.557366;41.184288
RTE4;R.DR.MÁRIO CAL BRANDÃO;C9;RIO TINTO (ESTAÇÃO);-8.558052;41.184734
HSA1;R.ALBERTO AIRES GOUVEIA;C1;HOSP. STO. ANTÓNIO;-8.620191;41.146687
PHIP2;R.SIMÕES LOPES;C9;PEDRO HISPANO;-8.56285;41.228386
PHIP1;R.SIMÕES LOPES;C9;PEDRO HISPANO;-8.562788;41.228264
HSA3;R.CLEMENTE MENERES;C1;HOSP. STO. ANTÓNIO;-8.619874;41.148106
HSA5;R.D.MANUEL II;C1;HOSP. ST. ANTÓNIO;-8.622103;41.147755
COMB2;R.COSTA CABRAL;C1;COMBATENTES;-8.600659;41.164627
COMB1;R.COSTA CABRAL;C1;COMBATENTES;-8.600322;41.16466
QTI;ESTR.CIRCUNVALAÇÃO;C2;QUINTA INGLESES;-8.666452;41.179287
CPL2;R.LIMA JÚNIOR;C1;CAMPO LINDO;-8.6103525;41.16768
CPL1;R.CAMPO LINDO;C1;CAMPO LINDO;-8.610724;41.167286
PAME1;R.CENTRAL CAMPO;C16;PADRE AMÉRICO;-8.474788;41.182583
PAME2;R.CENTRAL CAMPO;C16;PADRE AMÉRICO;-8.474352;41.183002
RZAM1;R.ALTO CHAQUEDAS;S2;R. ZAMBUEIRAS;-8.649204;41.11328
BARR1;R.S.VICENTE;N16;BARREIRA;-8.525888;41.233116
BARR2;R.S.VICENTE;N16;BARREIRA;-8.526109;41.23306
RZAM2;R.ALTO CHAQUEDAS;S2;R. ZAMBUEIRAS;-8.649505;41.113373
TVFC;TV.NOVA DA GIESTA;C9;TV.FELICIANO CASTILHO;-8.585647;41.188984
BRTC1;R.GODINHO;C3;BRITO CAPELO;-8.6905365;41.182327
BRTC2;R.TOMÁS RIBEIRO;C3;BRITO CAPELO;-8.690258;41.18171
TIM2;AV.MONTEVIDEU;C2;TIMOR;-8.687072;41.16521
TIM1;AV.MONTEVIDEU;C2;TIMOR;-8.687049;41.16558
BRTC5;AV.MENERES;C3;BRITO CAPELO;-8.688903;41.17859
DAFC2;ESTR.CIRCUNVALAÇÃO;C2;DR. AFONSO CORDEIRO;-8.68533;41.173546
PRI4;AV.MARECHAL GOMES COSTA;C2;PR. DO IMPÉRIO;-8.671221;41.155678
MVTO1;LGO.MOINHO VENTO;S2;MOINHO VENTO;-8.6593685;41.104015
SSB1;R.FERNÃO MAGALHÃES;C8;S. SEBASTIÃO;-8.548349;41.172794
DAFC1;ESTR.CIRCUNVALAÇÃO;C2;DR. AFONSO CORDEIRO;-8.6854515;41.173683
MVTO2;R.CAMPISMO;S2;MOINHO VENTO;-8.659063;41.103226
PRI1;AV.MARECHAL GOMES COSTA;C2;PR. DO IMPÉRIO;-8.671329;41.155815
MN2;R.MONTE PIPOS;C3;MUNDO NOVO;-8.662616;41.201
MN1;R.MONTE PIPOS;C3;MUNDO NOVO;-8.662484;41.200886
SSB2;R.FERNÃO MAGALHÃES;C8;S. SEBASTIÃO;-8.547898;41.172924
ZIND3;R.BARREIRO;N10;ZONA INDUSTRIAL;-8.665224;41.232853
ZIND4;R.BARREIRO;N10;ZONA INDUSTRIAL;-8.66536;41.232697
ZIND1;R.SALGUEIROS;C9;ZONA INDUSTRIAL;-8.583469;41.22498
CRVL1;R.CONCEIÇÃO FERNANDES;S8;CRAVEL;-8.602256;41.113724
ZIND2;R.SALGUEIROS;C9;ZONA INDUSTRIAL;-8.583598;41.225117
PRL1;PR.LIBERDADE;C1;PR.LIBERDADE;-8.611614;41.14664
BVBR2;AV.BOAVISTA;C1;BOAVISTA BRASÍLIA;-8.626626;41.157616
IPRN1;LGO.IGREJA PARANHOS;C6;IGREJA DE PARANHOS;-8.605788;41.174156
IPRN2;R.IGREJA PARANHOS;C6;IGREJA DE PARANHOS;-8.60576;41.173435
BVBR1;AV.BOAVISTA;C1;BOAVISTA BRASÍLIA;-8.62733;41.15759
BIC4;R.OURO;C1;BICALHO;-8.635866;41.14813
PND3;R.MANUEL FERREIRA PINTO;C5;PENEDOS;-8.604542;41.223797
BIC3;R.OURO;C1;BICALHO;-8.63591;41.148243
BIC2;R.OURO;C1;BICALHO;-8.6356125;41.148064
BIC1;R.OURO;C1;BICALHO;-8.635331;41.148167
PRL8;PR.LIBERDADE;C1;PR. DA LIBERDADE;-8.611942;41.145977
SBNT2;PR.ALMEIDA GARRETT;C1;EST.S.BENTO;-8.610829;41.14581
SBNT3;R.MOUZINHO SILVEIRA;C1;EST. S.BENTO;-8.611169;41.144962
PND1;R.MANUEL FERREIRA PINTO;C5;PENEDOS;-8.604843;41.22394
QBNJ2;R.BONJÓIA;C6;QUINTA DE BONJÓIA;-8.57661;41.15291
CTV2;R.CEGONHAS;C2;COTOVIAS;-8.636183;41.1809
ERM2;LGO.ESTAÇÃO;C9;ERMESINDE (ESTAÇÃO);-8.553759;41.21685
CTV1;R.CEGONHAS;C2;COTOVIAS;-8.636402;41.18089
ERM3;LGO.ESTAÇÃO;C9;ERMESINDE (ESTAÇÃO);-8.553839;41.21717
ERM4;R.VASCO GAMA;C9;ERMESINDE (FORUM);-8.552752;41.215843
CCRN2;R.D.FREI ESTEVES VASQUEZ PIMENTEL;C5;CRISTOVÃO CERNACHE;-8.622646;41.20766
CCRN1;R.D.FREI ESTEVES VASQUEZ PIMENTEL;C5;CRISTOVÃO CERNACHE;-8.622562;41.20781
IPRN3;R.DR.MANUEL PEREIRA SILVA;C6;IGREJA DE PARANHOS;-8.604465;41.173634
AAX2;R.SANTANA;C5;ANTONIO ALEIXO;-8.614138;41.218
AAX1;R.SANTANA;C5;ANTONIO ALEIXO;-8.613939;41.218517
TEIB1;R.D.ANTÓNIO CASTRO MEIRELES;C9;TEIBAS;-8.592915;41.192463
CREI1;R.ANTÓNIO GALVÃO;C2;CRISTO REI;-8.666191;41.159866
FGTR2;R.S.GENS;C5;FOGUETEIROS;-8.638256;41.19161
TEIB2;R.D.ANTÓNIO CASTRO MEIRELES;C9;TEIBAS;-8.593583;41.19207
SSD2;R.LARANJEIRAS;C5;SANTOS DIAS;-8.608268;41.19835
TVG4;R.SIMÕES LOPES;C9;TRAVAGEM;-8.552669;41.2272
AALB1;R.AFONSO ALBUQUERQUE;C2;AFONSO  ALBUQUERQUE;-8.662138;41.158928
CREI2;R.ANTÓNIO GALVÃO;C2;CRISTO REI;-8.666279;41.159824
FGTR1;R.S.GENS;C5;FOGUETEIROS;-8.6378;41.191624
TVG2;ESTR.N.105;C9;TRAVAGEM;-8.5538645;41.22631
SSD1;R.LARANJEIRAS;C5;SANTOS DIAS;-8.608017;41.19848
TVG1;ESTR.N.105;C9;TRAVAGEM;-8.554081;41.226658
MP2;R.PORTO MOURO;C3;MONTE DOS PIPOS;-8.659482;41.200466
MP1;R.PORTO MOURO;C3;MONTE DOS PIPOS;-8.6592865;41.200424
PORI2;R.CORONEL RAÚL PERES;C2;PRAIA DO OURIGO;-8.67609;41.14963
MP3;R.MONTE PIPOS;C3;MONTE DOS PIPOS;-8.657502;41.19968
MPAZ2;R.MANUEL PINTO AZEVEDO;C2;MAN.P.AZEVEDO 2;-8.648494;41.17416
MPAZ3;R.MANUEL PINTO AZEVEDO;C2;MAN.P.AZEVEDO 1;-8.647233;41.173332
MPAZ1;R.MANUEL PINTO AZEVEDO;C2;MAN.P.AZEVEDO 1;-8.64681;41.172745
MPAZ6;R.MANUEL PINTO AZEVEDO;C2;MAN.P.AZEVEDO 3;-8.650788;41.176
MPAZ7;R.CONDE COVILHÃ;C2;MAN.P.AZEVEDO 3;-8.652037;41.17606
MPAZ4;R.MANUEL PINTO AZEVEDO;C2;MAN.P.AZEVEDO 2;-8.648611;41.174435
MPAZ5;R.MANUEL PINTO AZEVEDO;C2;MAN.P.AZEVEDO 3;-8.651789;41.177017
RCH1;R.ALTO CHAQUEDAS;S2;R.CHAQUEDAS;-8.657744;41.110703
RCH2;R.ALTO CHAQUEDAS;S2;R. CHAQUEDAS;-8.657542;41.110996
PSEC1;R.CENTRAL CAMPO;C16;PONTE SECA;-8.469925;41.18336
PSEC2;R.CENTRAL CAMPO;C16;PONTE SECA;-8.470066;41.183613
VAL;R.MANUEL M.COSTA JÚNIOR;S2;VALADARES (EST);-8.631873;41.098717
TVBO2;R.RESTAURAÇÃO;C9;TV.BRÁS OLEIRO;-8.576124;41.194748
TVBO1;R.RESTAURAÇÃO;C9;TV.BRÁS OLEIRO;-8.575979;41.19463
EALX;R.ARNALDO LEITE;C2;ESCOLA ALEIXO;-8.647289;41.15135
MMAI1;R.GONÇALO MENDES MAIA;C9;G. MENDES DA MAIA;-8.587892;41.18208
MMAI3;R.CONS.LUÍS MAGALHÃES;N11;GONÇALO MENDES MAIA;-8.650864;41.25097
MMAI2;R.CONS.LUÍS MAGALHÃES;N11;GONÇALO MENDES MAIA;-8.651349;41.251755
FMAG;R.CONTUMIL;C6;FERNÃO MAGALHÃES;-8.586406;41.168713
FMAI;R.VELOSO SALGADO;C4;FRANCISCO MAIA;-8.692142;41.204456
LGAV1;LGO.AVIADORES;S8;LGO. DOS AVIADORES;-8.610941;41.126835
CQ10;PR.GONÇALVES ZARCO;C2;CASTELO DO QUEIJO;-8.688999;41.167347
LGAV2;R.PÁDUA CORREIA;S8;LGO. DOS AVIADORES;-8.610282;41.126682
LGAV3;R.MARQUÊS SÁ BANDEIRA;S8;LGO. DOS AVIADORES;-8.611289;41.12708
ATSR2;R.EDUARDO CASTRO GANDRA;C11;ALTO DA SERRA;-8.517798;41.159985
GGT3;R.GÓLGOTA;C1;GÓLGOTA;-8.634914;41.152245
JLS1;R.JULIÃO SARMENTO;C10;JULIÃO SARMENTO;-8.494241;41.197124
JLS2;R.JULIÃO SARMENTO;C10;JULIÃO SARMENTO;-8.494441;41.19727
ATSR1;R.EDUARDO CASTRO GANDRA;C11;ALTO DA SERRA;-8.518046;41.160065
CRVH1;R.OURO;C2;CORDOARIA VELHA;-8.650592;41.147972
CRVH2;R.OURO;C2;CORDOARIA VELHA;-8.650995;41.14819
CHA2;R.CENTRAL CAMPO;C16;CHÃ;-8.478179;41.182327
CHA1;R.CENTRAL CAMPO;C16;CHÃ;-8.478281;41.182182
PAL2;R.JÚLIO DINIS;C1;PALÁCIO;-8.625421;41.149197
RGR1;R.BARÃO CORVO;S8;REGUEIRA;-8.627673;41.12497
BARO1;R.PAÇO DE SOUSA;C2;BAIRRO ANT. AROSO;-8.669468;41.167923
BARO2;R.PAÇO DE SOUSA;C2;BAIRRO ANT. AROSO;-8.669114;41.16836
IANT2;AV.COMBATENTES G.GUERRA;C1;IGREJA DAS ANTAS;-8.591426;41.16448
PJGL1;AV.CALOUSTE GULBENKIAM;C3;PARQUE J. G. LARANJO;-8.662116;41.185253
BLAM3;R.ALEXANDRE BRAGA;C1;BOLHÃO-MERCADO;-8.606674;41.149513
SMJT1;R.CÂNDIDO REIS;S8;STA. MARINHA;-8.611029;41.13254
BLAM2;R.ALEXANDRE BRAGA;C1;BOLHÃO-MERCADO;-8.606787;41.14931
PJGL2;AV.CALOUSTE GULBENKIAM;C3;PARQUE J. G. LARANJO;-8.662159;41.184906
PAL4;R.D.MANUEL II;C1;PALÁCIO;-8.624545;41.148304
PAL3;R.JÚLIO DINIS;C1;PALÁCIO;-8.625485;41.14954
MRD;R.SANTOS POUSADA;C1;MOREDA;-8.600235;41.150715
BLAM1;R.ALEXANDRE BRAGA;C1;BOLHÃO - MERCADO;-8.60672;41.14947
PAL5;R.D.MANUEL II;C1;PALÁCIO;-8.624931;41.14845
SETB1;R.SRA.PENHA;C2;SETE BICAS;-8.648537;41.18261
DBT2;R.DOMINGOS BONTEMPO;C5;DR.DOMINGOS BONTEMPO;-8.637871;41.204945
DBT1;R.DOMINGOS BONTEMPO;C5;DR DOMINGOS BONTEMPO;-8.638069;41.20486
MRL;R.MÁRTIRES LIBERDADE;C1;MÁRTIRES LIBERDADE;-8.613439;41.15277
TRD5;R.CAMÕES;C1;TRINDADE;-8.610116;41.152126
TRD4;R.TRINDADE;C1;TRINDADE;-8.609415;41.151333
TRD3;R.TRINDADE;C1;TRINDADE;-8.609471;41.151276
MS1;R.MOUZINHO SILVEIRA;C1;MOUZINHO SILVEIRA;-8.612268;41.14403
CRMT2;R.CÂNDIDO REIS;C5;CÂNDIDO REIS (METRO);-8.649863;41.20115
TRD1;R.TRINDADE;C1;TRINDADE;-8.609527;41.151817
MS2;R.MOUZINHO SILVEIRA;C1;MOUZINHO  SILVEIRA;-8.612342;41.144146
CRMT1;R.CÂNDIDO REIS;C5;CÂNDIDO REIS (METRO);-8.650544;41.20117
CPR2;AV.CIDADE XANGAI;C2;CASA DA PRELADA;-8.633272;41.17292
HSJ2;ALAM.HERNÂNI MONTEIRO;C6;HOSP. S. JOÃO (METRO);-8.60238;41.183353
CPR1;AV.CIDADE XANGAI;C2;CASA DA PRELADA;-8.633073;41.173115
HSJ1;ALAM.HERNÂNI MONTEIRO;C6;HOSP. S. JOÃO (METRO);-8.602705;41.18341
ANT1;AV.FERNÃO MAGALHAES;C1;ANTAS (L. CIDADÃO);-8.588721;41.16546
HSJ4;ALAM.HERNÂNI MONTEIRO;C6;HOSP. S. JOÃO (METRO);-8.601817;41.183224
ANT2;AV.FERNÃO MAGALHAES;C1;ANTAS (L. CIDADÃO);-8.589133;41.164955
HSJ3;ALAM.HERNÂNI MONTEIRO;C6;HOSP. S. JOÃO (METRO);-8.602104;41.1833
HSJ6;ALAM.HERNÂNI MONTEIRO;C6;HOSP. S. JOÃO (URGÊNCIA);-8.600478;41.18292
ICPU1;AV.GEN.HUMBERTO DELGADO;C8;IGREJA CAPUCHINHOS;-8.532033;41.145966
VDE;AV.MARGINAL;S9;VILA D ESTE;-8.590477;41.09585
TRD6;R.HERÓIS M.ANGOLA;C1;TRINDADE;-8.610808;41.15106
HSJ5;ALAM.HERNÂNI MONTEIRO;C6;HOSP. S. JOÃO (URGÊNCIA);-8.600703;41.182976
ICPU2;AV.GEN.HUMBERTO DELGADO;C8;IGREJA CAPUCHINHOS;-8.531742;41.146523
HSJ8;ESTR.CIRCUNVALAÇÃO;C6;HOSP. S. JOÃO (CIRCUNVALAÇÃO);-8.599542;41.18284
PRSM1;R.FARIA GUIMARÃES;C1;PARAÍSO (METRO);-8.608919;41.157692
HSJ7;ALAM.HERNÂNI MONTEIRO;C6;HOSP. S. JOÃO (URGÊNCIA);-8.600278;41.18286
HSJ9;ESTR.CIRCUNVALAÇÃO;C6;HOSP. S. JOÃO (CIRCUNVALAÇÃO);-8.5992155;41.182724
PRSM2;R.CAMÕES;C1;PARAÍSO (METRO);-8.610022;41.15702
PRO2;AV.ANTUNES GUIMARÃES;C2;PEREIRÓ;-8.655622;41.17251
PRO1;AV.ANTUNES GUIMARÃES;C2;PEREIRÓ;-8.65545;41.172394
CHC2;R.CORONEL CARLOS MOREIRA;N11;CHÂNCIDRO;-8.642927;41.247868
PNG2;ESTR.CIRCUNVALAÇÃO;C6;PEGO NEGRO;-8.566447;41.15907
CHC1;R.CORONEL CARLOS MOREIRA;N11;CHANCIDRO;-8.642204;41.247875
ACRD2;AV.BOAVISTA;C1;ANTÓNIO CARDOSO;-8.639975;41.159702
PNG1;ESTR.CIRCUNVALAÇÃO;C6;PEGO NEGRO;-8.566631;41.15922
PRNT;R.SANTANA;C5;PAULO RANITO;-8.613756;41.20798
ACRD1;AV.BOAVISTA;C1;ANTÓNIO CARDOSO;-8.640012;41.159912
PNG4;R. AREIAS;C6;PÊGO NEGRO;-8.5599985;41.154926
PNG3;R. AREIAS;C6;PÊGO NEGRO;-8.559982;41.154823
GTN2;R.CIDRES;C4;GATANHAL;-8.679433;41.21487
GTN1;R.CIDRES;C4;GATANHAL;-8.679289;41.21501
PFTT1;R.OCIDENTAL;C4;PERAFITA;-8.698853;41.22451
RGT1;R.CÂNDIDO REIS;C5;R. GATÕES;-8.646946;41.20167
PFTT2;R.OCIDENTAL;C4;PERAFITA;-8.698685;41.22435
RGT2;R.CÂNDIDO REIS;C5;R. GATÕES;-8.647016;41.20152
MTD;R.OCIDENTAL;C4;MONTEDOURO;-8.704963;41.224743
MTE;R.LOUREIRO;S2;MONTE;-8.646579;41.1059
PRR5;PR.REPÚBLICA;C1;PR. DA REPÚBLICA;-8.613343;41.154633
PRR7;R.ÁLVARES CABRAL;C1;PR. DA REPÚBLICA;-8.613889;41.154247
RTP2;R.CONCEIÇÃO FERNANDES;S8;RTP;-8.600074;41.11241
RTP3;R.CONCEIÇÃO FERNANDES;S8;RTP;-8.6001625;41.1123
PRR1;PR.REPÚBLICA;C1;PR. DA REPÚBLICA;-8.611872;41.15405
RTP1;R.D.AFONSO II;S8;RTP;-8.600241;41.11168
PTLS3;AV.COMERCIO  LEIXÕES;C3;PONTE LEÇA (SUL);-8.680615;41.19222
PRR3;R.JOÃO REGRAS;C1;PR. DA REPÚBLICA;-8.611577;41.155296
VIVA1;R.CONS.LUÍS MAGALHÃES;N11;C.C. VIVACCI;-8.653515;41.2542
PDAM4;R.PADRE AMÉRICO;C5;PADRE AMÉRICO;-8.604366;41.21929
ALCF1;R.MARTIM MONIZ;C2;ALCAIDE FARIA;-8.66691;41.171257
PDAM3;R.PADRE AMÉRICO;C5;PADRE AMÉRICO;-8.604661;41.219376
PDAM2;R.MANUEL FERREIRA PINTO;C5;PADRE AMÉRICO;-8.604106;41.21976
PDAM1;R.MANUEL FERREIRA PINTO;C5;PADRE AMÉRICO;-8.603922;41.219707
ANV1;R.SALGUEIROS;C9;ALDEIA NOVA;-8.586822;41.22017
ANV2;R.SALGUEIROS;C9;ALDEIA NOVA;-8.58661;41.221058
VTC1;R.REI RAMIRO;S8;VITERBO CAMPOS;-8.623108;41.138615
VTC2;R.REI RAMIRO;S8;VITERBO CAMPOS;-8.623075;41.138493
RTNM;AV.25 ABRIL;C10;ROT. 1º DE MAIO;-8.502059;41.19306
MGDE1;R.CUSTIÓ;C5;MONTE GRANDE;-8.642341;41.22976
MV2;R.CONCEIÇÃO FERNANDES;S9;MONTE DA VIRGEM;-8.589114;41.10408
MGDE2;R.CUSTIÓ;C5;MONTE GRANDE;-8.642627;41.22984
MV1;R.CONCEIÇÃO FERNANDES;S9;MONTE DA VIRGEM;-8.589443;41.10399
MV3;R.HERÓIS DO ULTRAMAR;S9;MONTE DA VIRGEM;-8.588893;41.10346
TARG2;VIA DE ARDEGÃES;C9;TV.ARDEGÃES;-8.569914;41.229233
TARG1;VIA DE ARDEGÃES;C9;TV. DE ARDEGÃES;-8.570019;41.22908
CPU2;ESTR.CIRCUNVALAÇÃO;C2;CAPUCHINHOS;-8.617667;41.182777
JQA1;R.ORIENTAL;C4;JOAQUIM ANDRADE;-8.687348;41.22567
E109;R.MANUEL M.COSTA JÚNIOR;S2;ESTR.NACIONAL 109;-8.629429;41.094933
CPU1;ESTR.CIRCUNVALAÇÃO;C2;CAPUCHINHOS;-8.618113;41.18234
PAP2;AV.FABRIL NORTE;C2;PADRE ANTÓNIO PORTO;-8.653499;41.184875
CPTO;R.SANTA MARTA PENAGUIÃO;C6;CERCO DO PORTO;-8.570246;41.159786
CMSM1;AV.ENG.LUDGERO MARQUES;S8;CEMITÉRIO STA. MARINHA;-8.626733;41.129276
JQA2;R.ORIENTAL;C4;JOAQUIM ANDRADE;-8.687473;41.22548
BVC2;AV.ENG.LUDGERO MARQUES;S8;B.V. COIMBRÕES;-8.629162;41.12704
HGAI1;R.PINTO MOURÃO FERREIRA;S8;HOSP. GAIA;-8.609247;41.12838
TRH1;R.ANÍBAL CUNHA;C1;TORRINHA;-8.620881;41.153404
DCPF2;R.NOVA S.GEMIL;C9;DR. CARLOS FELGUEIRAS;-8.583225;41.200592
DCPF1;R.NOVA S.GEMIL;C9;DR.CARLOS FELGUEIRAS;-8.583026;41.200596
PEDR2;R.ANTÓNIO SIMÕES;C9;PEDROUÇOS DE BAIXO;-8.590596;41.186325
PAS1;R.P. ABÍLIO SAMPAIO;N11;P. ABÍLIO SAMPAIO;-8.6149025;41.247036
QCMN2;R.TENENTE VALADIM;S1;QUATRO CAMINHOS;-8.639196;41.128277
QCMN1;R.TENENTE VALADIM;S1;QUATRO CAMINHOS;-8.63947;41.128223
TRH2;R.ANÍBAL CUNHA;C1;TORRINHA;-8.621011;41.153194
VGM4;AV.CALOUSTE GULBENKIAM;C3;AV.VASCO DA GAMA;-8.662146;41.190403
VGM5;R.N.SRA.DO AMPARO;N16;VASCO DA GAMA;-8.51509;41.245045
VGM6;R.N.SRA.DO AMPARO;N16;VASCO DA GAMA;-8.515221;41.245274
PAS2;R.P. ABÍLIO SAMPAIO;N11;P. ABÍLIO SAMPAIO;-8.614913;41.2472
PRU2;AV.AEROPORTO;N10;PEDRAS RUBRAS;-8.6662;41.238247
GCR1;R.VASCO GAMA;C10;GASPAR CORTE REAL;-8.509977;41.194107
PRU1;AV.AEROPORTO;N10;PEDRAS RUBRAS;-8.6665125;41.23848
VGM3;AV.VASCO GAMA;C3;AV.VASCO DA GAMA;-8.661638;41.19033
RA2;R.SERPA PINTO;C1;RAMADA ALTA;-8.621236;41.160736
RA1;LGO.RAMADA ALTA;C1;RAMADA ALTA;-8.621762;41.160263
SOLP2;R.SOL POENTE;C4;SOL POENTE;-8.70251;41.198956
PRS2;R.FONSECA DIAS;C10;PRESA;-8.489259;41.1877
PRS1;R.FONSECA DIAS;C10;PRESA;-8.48867;41.187057
PRS4;R.VALE DOS AMORES;C10;PRESA;-8.489618;41.187862
SOLP1;R.SOL POENTE;C4;SOL POENTE;-8.702314;41.198997
PRS3;R.VALE DOS AMORES;C10;PRESA;-8.48928;41.18823
SOCR;R.FRANCOS;C1;SOARES CORREIA;-8.62999;41.166775
HSM1;R.FARIA GUIMARÃES;C1;HOSP. S.TA MARIA;-8.608072;41.159447
HSM3;R.ANTERO QUENTAL;C1;HOSP. S.TA MARIA;-8.611502;41.160416
HSM4;R.ANTERO QUENTAL;C1;HOSP. S.TA MARIA;-8.611757;41.160095
RCP1;R.CÊRCO PORTO;C6;R. CERCO DO PORTO;-8.567224;41.164345
RCP2;R.CÊRCO PORTO;C6;R. CERCO DO PORTO;-8.567018;41.16438
RCON;AV.FERNÃO MAGALHAES;C6;R. CONTUMIL;-8.587021;41.169598
ASPL1;R.ASPRELA;C5;ASPRELA;-8.604658;41.184574
BVE2;R.5 OUTUBRO;C9;ERMESINDE - B. V.;-8.550989;41.21733
BVE1;R.5 OUTUBRO;C9;ERMESINDE - B. V.;-8.551323;41.21704
GSUL2;R.GONDIVAI;C5;GONDIVAI (SUL);-8.633201;41.208046
BVG2;R.25 ABRIL;C8;B. V. GONDOMAR;-8.532511;41.142166
GSUL1;R.GONDIVAI;C5;GONDIVAI (SUL);-8.632995;41.208557
VIS;R.SANTA CASA MESERICORDIA MAIA;C5;VISO;-8.624694;41.231964
BVG1;R.5 OUTUBRO;C8;B. V. GONDOMAR;-8.533095;41.14179
MIM1;URB.VILA D''ESTE;S9;MIMOSAS;-8.58882;41.09818
MIM2;R.CAP.SALGUEIRO MAIA;S9;MIMOSAS;-8.588799;41.09828
RAZ;R.AZEVÊDO;C6;R. AZEVEDO;-8.570981;41.15185
AA1;R.COSTA CABRAL;C6;ALTO DA AREOSA;-8.583841;41.179028
AA2;R.COSTA CABRAL;C6;ALTO DA AREOSA;-8.584151;41.17873
CSRT4;R.ACTOR MÁRIO VIEGAS;C9;C.SAÚDE DE RIO TINTO;-8.56138;41.1736
CSRT3;R.ACTOR MÁRIO VIEGAS;C9;C.SAÚDE RIO TINTO;-8.561664;41.173492
CEMT1;R.D.FREI ESTEVES VASQUEZ PIMENTEL;C5;CEMITÉRIO;-8.625854;41.20942
CEMT2;R.D.FREI ESTEVES VASQUEZ PIMENTEL;C5;CEMITÉRIO;-8.626055;41.209385
TRI2;R.D.AFONSO HENRIQUES;C9;TRIANA;-8.580698;41.188446
BRIB1;AV.GIL VICENTE;S8;BERNARDIM RIBEIRO;-8.611312;41.112038
RC1;AV.FERNÃO MAGALHAES;C6;R. CONTUMIL;-8.58676;41.169716
TRI1;R.D.AFONSO HENRIQUES;C9;TRIANA;-8.580542;41.188686
MED1;R.JOÃO VIEIRA;C9;MEDANCELHE;-8.558411;41.189793
BRIB2;AV.GIL VICENTE;S8;BERNARDIM RIBEIRO;-8.61132;41.112164
TLHA2;AV.AEROPORTO;N10;TELHEIRA;-8.675603;41.230362
MED2;R.MEDANCELHE;C9;MEDANCELHE;-8.558395;41.189106
TLHA1;AV.AEROPORTO;N10;TELHEIRA;-8.674981;41.230587
PRU3;R.PEDRAS RUBRAS;N10;PEDRAS RUBRAS;-8.666854;41.238827
JPAZ1;R.JOÃO COUTINHO;C2;JULGADO DE PAZ;-8.644267;41.175552
JPAZ2;R.JOÃO COUTINHO;C2;JULGADO DE PAZ;-8.64494;41.175976
AAL;AV.ALIADOS;C1;AV.ALIADOS;-8.611257;41.147934
RLC1;R.ELIAS GARCIA;C9;RIO LEÇA;-8.555076;41.224754
RLC2;R.ELIAS GARCIA;C9;RIO LEÇA;-8.555719;41.22444
RCA;R.ARROTEIA;C5;RICARDO ALVES;-8.596791;41.18386
PASS;R.PASSEIO ALEGRE;C2;PASSEIO ALEGRE;-8.667578;41.147736
VL1;AV.GEN.HUMBERTO DELGADO;C8;VILAR;-8.530076;41.155228
VL2;AV.GEN.HUMBERTO DELGADO;C8;VILAR;-8.529919;41.15504
CLVR2;AV.5 OUTUBRO;C10;CALVÁRIO;-8.499346;41.19316
CLVR1;AV.5 OUTUBRO;C10;CALVÁRIO;-8.500001;41.194122
GCRT;R.SÁ BANDEIRA;C1;GONÇALO CRISTÓVÃO;-8.605623;41.152508
CLRG;R.ASSUNÇÃO;C1;CLÉRIGOS;-8.61522;41.145515
INFH2;AV.INFANTE D.HENRIQUE;S8;INFANTE D.HENRIQUE;-8.61541;41.120373
INFH1;AV.INFANTE D.HENRIQUE;S8;INFANTE D. HENRIQUE;-8.615377;41.11958
IRM2;R.PINHEIRO MANSO;C2;IGREJA DE RAMALDE;-8.649086;41.168182
IRM1;R.PINHEIRO MANSO;C2;IGREJA DE RAMALDE;-8.648726;41.16822
VCHS;AV.OLIVEIRA ZÍNA;C10;VALE CHÃS;-8.506962;41.19441
AC3;R.ENG.DUARTE PACHECO;C5;ALTINO  COELHO;-8.621358;41.239563
AC4;R.ENG.DUARTE PACHECO;C5;ALTINO  COELHO;-8.621531;41.23957
MAIA4;PR.MUNICÍPIO;C5;MAIA (CAMARA);-8.622363;41.232635
ARSR1;ESTR.CIRCUNVALAÇÃO;C6;ROT. DA AREOSA;-8.581197;41.180676
MAIA3;R.AUGUSTO SIMÕES;C5;MAIA (CÂMARA);-8.621239;41.23239
NDA1;R.FREIXO;C1;NOEDA;-8.584083;41.146088
NDA2;R.FREIXO;C1;NOEDA;-8.583592;41.145878
RPM1;R.MONSANTO;C1;R.PARTICULAR MONSANTO;-8.616935;41.171783
RPM2;R.MONSANTO;C1;R.PARTICULAR MONSANTO;-8.616849;41.17192
RCT1;R.MOALDE;C5;R. CENTRO;-8.605229;41.191147
PAV2;AV.5 OUTUBRO;C10;PAV. GIMNODESPORT.;-8.500834;41.195724
RCT2;R.MOALDE;C5;R.CENTRO;-8.605539;41.19139
PAV1;AV.DESPORTOS;C10;PAV. GIMNODESPORT.;-8.501263;41.195183
CHAS2;AV.ESCULTORES;S8;CHÃS;-8.641568;41.142536
CHAS1;IC2 ACESSOS;S8;CHÃS;-8.64188;41.14388
CHAS3;AV.ESCULTORES;S8;CHÃS;-8.642066;41.14216
SBNT;PR.ALMEIDA GARRETT;C1;EST.S.BENTO;-8.61085;41.14571
VML;R.MEIRAL;C6;VIELA MEIRAL;-8.571019;41.149597
MNSO2;R.CUSTIÓ;C5;MANSO;-8.640452;41.22669
SBO2;AV.D.MANUEL II;C5;SOBREIRO;-8.62026;41.233936
IGRT2;AV.DA CONDUTA;C9;IGREJA RIO TINTO;-8.55991;41.177334
ACV;R.CARVALHA DE BAIXO;C8;AV.CARVALHA;-8.538873;41.163536
MNSO1;R.CUSTIÓ;C5;MANSO;-8.640143;41.226574
IGRT3;AV.DR.DOMINGOS GONÇALVES DE SÁ;C9;IGREJA RIO TINTO;-8.558736;41.17694
INSA2;R.BARTOLOMEU VELHO;C2;IGREJA N.SRA DA AJUDA;-8.659021;41.153496
INSA1;R.BARTOLOMEU VELHO;C2;IGREJA N.SRA DA AJUDA;-8.659301;41.153194
SBO1;AV.D.MANUEL II;C5;SOBREIRO;-8.620483;41.233963
IGRT1;R.LOURINHA;C9;IGREJA RIO TINTO 1;-8.558922;41.1787
VN1;R.5 OUTUBRO;C5;VIA NORTE;-8.6269;41.19096
RTV2;R.TENENTE VALADIM;S1;R. TENENTE VALADIM;-8.636926;41.129738
BRA5;R.MIOSÓTIS;C2;BR. DO AMIAL;-8.619766;41.17707
VN2;R.5 OUTUBRO;C5;VIA NORTE;-8.627191;41.191143
RTV1;R.TENENTE VALADIM;S1;R. TENENTE VALADIM;-8.637208;41.129723
BRA4;R.AURÉLIO PAZ DOS REIS;C2;BR. DO AMIAL;-8.620347;41.176605
RF1;R.ENG.FARINAS ALMEIDA;C11;RIO FERREIRA;-8.507395;41.151867
BRA1;R.MIOSÓTIS;C2;BR.DO AMIAL;-8.620031;41.176476
RF2;R.ENG.FARINAS ALMEIDA;C11;RIO FERREIRA;-8.50719;41.15204
BRC2;AV.GIL VICENTE;S8;BR. CEDRO;-8.609304;41.111683
BRC1;AV.GIL VICENTE;S8;BR. CEDRO;-8.609343;41.111565
SBR1;R.RODRIGUES FREITAS;C9;SAIBREIRAS;-8.56043;41.21113
SBR2;R.RODRIGUES FREITAS;C9;SAIBREIRAS;-8.560857;41.211067
CONT2;ESTR.N.107;C3;CONTINENTE;-8.663299;41.184307
SST2;R.ESTRADA NOVA;C9;SISTELO;-8.563213;41.18157
1STCT;R.SOUTO CONTUMIL;C6;SOUTO DE CONTUMIL;-8.578636;41.167023
SST1;R.ESTRADA NOVA;C9;SISTELO;-8.563073;41.18144
BRB4;ESTR.CIRCUNVALAÇÃO;C6;BERNARDIM RIBEIRO;-8.56588;41.16532
BRB3;ESTR.CIRCUNVALAÇÃO;C6;BERNARDIM RIBEIRO;-8.565994;41.164936
RLG3;AV.CALOUSTE GULBENKIAM;C3;RUA DA LAGOA;-8.662158;41.19189
RLG4;AV.CALOUSTE GULBENKIAM;C3;RUA DA LAGOA;-8.6623745;41.191856
TRM2;R.PONTE PARADA;C9;TERRAMONTE;-8.596693;41.20429
TRM1;R.PONTE PARADA;C9;TERRAMONTE;-8.59648;41.20426
MAII1;R.PADRE JOSÉ P.DUARTE;C5;MAIA (IGREJA);-8.630279;41.234474
RFZ;R.ALEGRIA;C1;R. FIRMEZA;-8.604326;41.15126
HSS1;R.CONCEIÇÃO FERNANDES;S9;HOSP. SANTOS SILVA;-8.591108;41.105465
HSS2;R.CONCEIÇÃO FERNANDES;S9;HOSP. SANTOS SILVA;-8.591131;41.105717
PRDR1;AV.RODRIGUES FREITAS;C1;PRADO REPOUSO;-8.596676;41.1461
AEP;AV.ANT.MACEDO;C4;ASSOC. EMP. PORTUGAL;-8.689387;41.194916
AF1;R.FONSECA DIAS;C10;ÁGUAS FERREAS;-8.484157;41.183826
AF2;R.FONSECA DIAS;C10;ÁGUAS FERREAS;-8.484913;41.184338
PRDR2;AV.RODRIGUES FREITAS;C1;PRADO REPOUSO;-8.5966;41.14598
EMDN2;R.EDUARDO J.R.FIGUEIRA;C10;EMÍDIO NAVARRO;-8.492551;41.193626
INF1;LGO.S.FRANCISCO;C1;INFANTE;-8.615965;41.14067
DACM1;R.GUARDEIRAS;N10;DR. A. CARLOS MAIA;-8.664805;41.245625
DACM2;R.GUARDEIRAS;N10;DR. A. CARLOS MAIA;-8.664706;41.245377
RGM;R.AVILHO;C5;RUI GAMEIRO;-8.639411;41.193653
OUTE2;R.D.MANUEL II;C5;OUTEIRO;-8.605212;41.237793
OUTE1;LGO.OUTEIRO VERMOIM;C5;OUTEIRO;-8.605068;41.237774
OUTE4;R.MANUEL LARANJEIRA;C1;OUTEIRO;-8.597734;41.171272
OUTE3;R.MANUEL LARANJEIRA;C1;OUTEIRO;-8.597483;41.171074
MCST1;R.GEN.HUMBERTO DELGADO;C9;MONTES DA COSTA;-8.5346365;41.211407
MCST2;R.GEN.HUMBERTO DELGADO;C9;MONTES DA COSTA;-8.535089;41.211277
ENV;R.ESTRADA NOVA;C9;ESTRADA NOVA;-8.568116;41.181087
EMDN1;R.EDUARDO J.R.FIGUEIRA;C10;EMÍDIO NAVARRO;-8.492504;41.193783
CDF2;R.CEDOFEITA;C1;CEDOFEITA;-8.618884;41.154556
CDF1;R.ÁLVARES CABRAL;C1;CEDOFEITA;-8.618597;41.15512
GCZ6;R.SOUSA AROSO;C3;E. SEC. G. ZARCO;-8.677558;41.17739
MAIE2;AV.D.MANUEL II;C5;MAIA (ESTÁDIO);-8.61579;41.236435
MAIE1;AV.D.MANUEL II;C5;MAIA (ESTÁDIO);-8.615567;41.236298
BRCV;R.SOUSA PINTO;C1;BR.CARVALHIDO;-8.622739;41.16912
TNG2;R.GENERAL HUMBERTO DELGADO;C9;TV.NOVA DA GIESTA;-8.582713;41.189285
TNG1;R.GENERAL HUMBERTO DELGADO;C9;TV. NOVA DA GIESTA;-8.582358;41.189354
MEIR;R.AFONSO ALBUQUERQUE;C8;MEIRAL;-8.562806;41.1679
AGN;R.DR.JOSÉ AGUIAR NOGUEIRA;C10;AGUIAR NOGUEIRA;-8.486212;41.185535
CONT1;ESTR.N.107;C3;CONTINENTE;-8.6615305;41.183113
CHAO2;R.GEN.HUMBERTO DELGADO;C9;CHÃOS;-8.538191;41.21033
CHAO1;R.GEN.HUMBERTO DELGADO;C9;CHÃOS;-8.538148;41.21024
CONS2;R.CANTOR ZECA AFONSO;C1;CONSTITUIÇÃO;-8.608985;41.163166
CRST2;R.CRASTO;S2;CRASTO;-8.637338;41.09956
CONS1;R.FARIA GUIMARÃES;C1;CONSTITUIÇÃO;-8.606254;41.163853
BEL2;R.ILHA S.MIGUEL;C9;BELA;-8.548664;41.226833
CONS3;R.ANTERO QUENTAL;C1;CONSTITUIÇÃO;-8.610904;41.163494
BEL1;R.ILHA S.MIGUEL;C9;BELA;-8.548641;41.226288
CRST1;R.CRASTO;S2;CRASTO;-8.637129;41.099216
MIS3;R.MIOSÓTIS;C2;MIOSÓTIS;-8.618808;41.178074
MIS4;R.MIOSÓTIS;C2;MIOSÓTIS;-8.618936;41.17809
ARSM1;R.D.AFONSO HENRIQUES;C9;AREOSA (MERCADO);-8.582571;41.182835
ARSM2;R.D.AFONSO HENRIQUES;C9;AREOSA (MERCADO);-8.582768;41.182903
CUTM1;R.ANTÓNIO SIMÕES;C9;CUTAMAS;-8.591831;41.19036
CUTM2;R.ANTÓNIO SIMÕES;C9;CUTAMAS;-8.591536;41.189995
RBSS2;AV.ASSOC.EMP.DE PORTUGAL;C1;ROT. DO BESSA;-8.6393795;41.164597
RBSS1;AV.ASSOC.EMP.DE PORTUGAL;C1;ROT. DO BESSA;-8.640393;41.165943
BRG2;R.S.BRÁS;C4;BR.GUARDAS;-8.668673;41.22035
BRG1;R.S.BRÁS;C4;BR.GUARDAS;-8.668544;41.220486
EQ3;R.RESTAURAÇÃO;C1;ENTRE QUINTAS;-8.62774;41.145184
TRR4;R.DIOGO BOTELHO;C2;TORRES;-8.66417;41.150555
RPPC2;R.BOA HORA;C3;R. PADRE PORTO CARRERO;-8.665202;41.212288
RPPC1;R.BOA HORA;C3;R. PADRE PORTO CARRERO;-8.665381;41.21239
EQ4;R.RESTAURAÇÃO;C1;ENTRE QUINTAS;-8.627917;41.145325
MRG1;R.NOVA ALFÂNDEGA;C1;MIRAGAIA;-8.618536;41.141598
QULH1;R.ARREGADAS;C9;QUELHAS;-8.578857;41.218822
HUMB2;R.GENERAL HUMBERTO DELGADO;C9;HUMBERTO DELGADO;-8.584559;41.187073
QULH2;R.ARREGADAS;C9;QUELHAS;-8.578868;41.218937
HUMB1;R.GENERAL HUMBERTO DELGADO;C9;HUMBERTO DELGADO;-8.58439;41.187096
MRG2;R.NOVA ALFÂNDEGA;C1;MIRAGAIA;-8.618941;41.14164
FZL1;AV.LIBERDADE;C4;FUZELHAS;-8.704276;41.189316
SEND2;VIA ESTRUTURANTE DE CRESTINS;C5;SENDAL;-8.652487;41.23333
FZL2;AV.LIBERDADE;C4;FUZELHAS;-8.704368;41.189156
SEND1;VIA ESTRUTURANTE DE CRESTINS;C5;SENDAL;-8.652775;41.23334
ESAS2;R.LARANJEIRAS;C5;ESC.SEC.ABEL SALAZAR;-8.605427;41.197525
ESAS1;R.LARANJEIRAS;C5;ESC.SEC.ABEL SALAZAR;-8.605308;41.19746
ENV2;R.ESTRADA NOVA;C9;ESTRADA NOVA;-8.568416;41.18114
FMPT;R.JOÃO BARROS;S8;FERNÃO MENDES PINTO;-8.610684;41.114433
VTO4;R.RESTAURAÇÃO;C1;VIRIATO;-8.619661;41.14609
DISP1;R.CONS.VELOSO CRUZ;S8;DISPENSÁRIO;-8.614902;41.129276
SONH;R.ANTERO QUENTAL;C9;SONHOS;-8.54147;41.216652
DISP2;R.CONS.VELOSO CRUZ;S8;DISPENSÁRIO;-8.615459;41.129143
ESRT2;TV.CAVADA NOVA;C9;ESC.SEC.de RIO TINTO;-8.549306;41.175365
LAGE2;R.LAGE;C5;LAGE;-8.619433;41.23037
ESRT1;TV.CAVADA NOVA;C9;ESC.SEC.de RIO TINTO;-8.548979;41.17536
RL1;R.PONTE MOREIRA;C5;RIO LEÇA;-8.647089;41.236362
TRR3;R.DIOGO BOTELHO;C2;TORRES;-8.664572;41.150776
CI22;R.MONTE BURGOS;C1;CINTURA INTERNA;-8.62628;41.17209
RL2;R.PONTE MOREIRA;C5;RIO LEÇA;-8.647091;41.236168
CI21;R.MONTE BURGOS;C1;CINTURA INTERNA;-8.626235;41.17274
ACST2;TV.ÁLVARO CASTELÕES;C1;ÁLVARO CASTELÕES;-8.601613;41.166557
PNV3;AV.BOAVISTA;C2;PAULO NOVAIS;-8.660233;41.16308
LGDM2;R.DR.DOMINGOS MATOS;S8;L. DOMINGOS MATOS;-8.632738;41.12242
PNV2;AV.BOAVISTA;C2;PAULO NOVAIS;-8.660164;41.163242
SMMM1;R.GODINHO FARIA;C5;S.MAMEDE (MERCADO);-8.611538;41.191063
ENXN4;TV.5 OUTUBRO;C5;ENXINHÃES;-8.598977;41.222054
RCNH2;R.CONCHAS;C9;R. CONCHAS;-8.59078;41.22119
ENXN3;TV.5 OUTUBRO;C5;ENXINHÃES;-8.59883;41.22208
RCNH1;R.CONCHAS;C9;R.CONCHAS;-8.590277;41.22117
GUFS1;R.DR.GERMANO VIEIRA;C5;GUEIFÃES;-8.602833;41.218147
GUFS2;R.DR.GERMANO VIEIRA;C5;GUEIFÃES;-8.602837;41.218006
MRI1;R.BARÃO CORVO;S8;MARIANI;-8.622943;41.127808
MRI2;R.BARÃO CORVO;S8;MARIANI;-8.623204;41.127865
IFOZ1;R.PASSEIO ALEGRE;C2;IGREJA DA FOZ;-8.669859;41.148643
SMMM2;R.SILVA BRINCO;C5;S. MAMEDE (MERCADO);-8.611867;41.190662
RM4;R.JOÃO COUTINHO;C2;RAMALDE DO MEIO;-8.642313;41.17355
ABL1;R.LOMBA;C3;ABELHEIRA;-8.665481;41.206295
RM3;R.JOÃO COUTINHO;C2;RAMALDE DO MEIO;-8.642153;41.173656
ABL2;R.LOMBA;C3;ABELHEIRA;-8.665829;41.206192
PREA2;AV.VILLAGARCIA AROSA;C3;PARQUE DE REAL;-8.673261;41.17908
LBM1;RUA ALFREDO DOS SANTOS OLIVEIRA;S8;LABORIM;-8.60846;41.10707
CI32;R.AMIAL;C1;CINTURA INTERNA;-8.613176;41.173656
CI31;R.AMIAL;C1;CINTURA INTERNA;-8.613062;41.173904
PREA1;R.DR.EDUARDO TORRES;C3;PARQUE DE REAL;-8.673374;41.179695
BFAL1;R.FALCÃO;C6;BR. FALCÃO;-8.575308;41.15865
BFAL2;R.FALCÃO;C6;BR. FALCÃO;-8.575263;41.15896
ENX1;ESTR.CIRCUNVALAÇÃO;C6;ENXURREIRAS;-8.587999;41.179638
ENX2;ESTR.CIRCUNVALAÇÃO;C6;ENXURREIRAS;-8.588506;41.179916
ENX3;TV.ENXURREIRAS;C9;ENXURREIRAS;-8.588516;41.18047
AL1;AV.ALIADOS;C1;AV. ALIADOS;-8.61087;41.147396
PRMR2;R.MACHADO SANTOS;S8;PR. M. SILVA REIS;-8.631918;41.127884
AL2;AV.ALIADOS;C1;AV. ALIADOS;-8.610818;41.147617
PRMR1;R.MACHADO SANTOS;S8;PR. M. SILVA REIS;-8.632108;41.127613
AL3;AV.ALIADOS;C1;AV. ALIADOS;-8.611388;41.147545
MVP3;R.MONCHIQUE;C1;MUSEU VINHO PORTO;-8.627113;41.14482
MVP4;R.MONCHIQUE;C1;MUSEU VINHO PORTO;-8.627013;41.144756
SBVT;R.TAIPAS;C1;S.BENTO DA VITÓRIA;-8.617178;41.143642
AL7;AV.ALIADOS;C1;AV. ALIADOS;-8.611348;41.1483
MVP1;R.MONCHIQUE;C1;MUSEU VINHO PORTO;-8.627019;41.144894
MVP2;R.MONCHIQUE;C1;MUSEU VINHO PORTO;-8.626299;41.14476
RMST3;R.MOSTEIRO LEÇA;C5;RUA DE MOSTEIRO;-8.620264;41.20514
TAR6;AV.GEN.HUMBERTO DELGADO;C8;TARALHÃO;-8.530553;41.15211
TAR5;AV.GEN.HUMBERTO DELGADO;C8;TARALHÃO;-8.53078;41.15195
ABM2;R.PROF.MOTA PINTO;C2;ALBERTO MACEDO;-8.6543255;41.16696
ABM1;R.PROF.MOTA PINTO;C2;ALBERTO MACEDO;-8.65423;41.167164
ALF;R.S.VICENTE;N16;ALFENA;-8.525595;41.240757
RMST4;R.MOSTEIRO LEÇA;C5;RUA DE MOSTEIRO;-8.620461;41.205067
REXP1;R.VELOSO SALGADO;C4;ROT. DA EXPONOR;-8.694349;41.20184
REXP2;R.VELOSO SALGADO;C4;ROT. DA EXPONOR;-8.69391;41.201736
OLVR2;R.S.VICENTE;N16;OLIVEIRAS;-8.5294695;41.22764
AM1;R.D.AFONSO HENRIQUES;C9;ALTO DA MAIA;-8.567265;41.206387
OLVR1;R.S.VICENTE;N16;OLIVEIRAS;-8.529123;41.227795
AM2;R.D.AFONSO HENRIQUES;C9;ALTO DA MAIA;-8.567206;41.207493
AM3;AV.LIDADOR MAIA;C9;ALTO DA MAIA;-8.565632;41.206596
ASP4;ESTR.CIRCUNVALAÇÃO;C6;ASPRELA;-8.595487;41.181908
AM4;AV.LIDADOR MAIA;C9;ALTO DA MAIA;-8.566255;41.20691
CAVE3;AV.RAMOS PINTO;S8;LGO. DA CRUZ;-8.619408;41.137207
CAVE4;AV.RAMOS PINTO;S8;LGO. DA CRUZ;-8.619476;41.137123
CAVE1;AV.DIOGO LEITE;S8;SANDEMAN CELLARS (CAVES);-8.612801;41.137943
ASP3;ESTR.CIRCUNVALAÇÃO;C6;ASPRELA;-8.595389;41.18171
CAVE2;LGO.MIGUEL BOMBARDA;S8;SANDEMAN CELLARS (CAVES);-8.613137;41.137684
ASP1;R.STA.LUZIA;C2;ALBERTO SAMPAIO;-8.625759;41.17654
MAIA;AV.VISCONDE BARREIROS;C5;MAIA;-8.623589;41.23283
INFS1;AV.D.JOAO I;C8;INFANTE SANTO;-8.5496235;41.16766
CDL2;R.VERA CRUZ;S8;CANDAL;-8.6306505;41.133606
APDL2;AV.LIBERDADE;C4;APDL;-8.703048;41.187843
APDL1;AV.LIBERDADE;C4;APDL;-8.703048;41.188084
OTH2;AV.D.JOAO I;C8;OUTEIRINHO;-8.551762;41.16878
OTH1;AV.D.JOAO I;C8;OUTEIRINHO;-8.551983;41.168705
VLC1;ESTR.CIRCUNVALAÇÃO;C6;VILA COVA;-8.567408;41.17258
VLC2;ESTR.CIRCUNVALAÇÃO;C6;VILA COVA;-8.567359;41.173054
ESCL;R.DR.JOSÉ A.MARQUES;C6;ESCOLAS;-8.570193;41.163895
ANG;AV.REPÚBLICA;S8;ANGOLA;-8.605744;41.122437
DPA1;R.MEDANCELHE;C9;DR.PORFÍRIO ANDRADE;-8.557999;41.18678
DPA2;R.MEDANCELHE;C9;DR.PORFÍRIO ANDRADE;-8.558397;41.18751
MAIN4;R.MAÍNÇA;C5;MAÍNÇA;-8.6198635;41.197495
MAIN3;R.MAÍNÇA;C5;MAÍNÇA;-8.619756;41.19743
ARSF4;R.GENERAL HUMBERTO DELGADO;C9;AREOSA (FEIRA);-8.58233;41.185223
LAGE3;R.LAGE;C5;LAGE;-8.619163;41.23024
CMPT2;R.BARTOLOMEU VELHO;C2;CAMPO PASTELEIRA;-8.661787;41.15292
ARSF3;R.ANT.FELICIANO CASTILHO;C9;AREOSA (FEIRA);-8.5821;41.185272
RPR;R.PRAIA;S2;R.PRAIA;-8.660814;41.104008
CMPT1;R.BARTOLOMEU VELHO;C2;CAMPO PASTELEIRA;-8.662377;41.152245
MAL3;AV.BOAVISTA;C2;MALACA;-8.684121;41.16709
MAL2;AV.BOAVISTA;C2;MALACA;-8.684426;41.16732
JA2;AV.ESCULTORES;S8;JARDINS DA ARRÁBIDA;-8.638901;41.139057
JA1;AV.ESCULTORES;S8;JARDINS DA ARRÁBIDA;-8.638423;41.13879
CHV4;AV.DA CONDUTA;C8;CHÃO VERDE;-8.555486;41.173954
CHV3;AV.DA CONDUTA;C8;CHÃO VERDE;-8.555668;41.173935
CHV2;R.PEDRO ÁLVARES CABRAL;C8;CHÃO VERDE;-8.5569515;41.17266
CHV1;R.PEDRO ÁLVARES CABRAL;C8;CHÃO VERDE;-8.55622;41.17296
AP1;R.S.GENS;C5;ANTÓNIO PEDRO;-8.6445265;41.188023
AP2;R.S.GENS;C5;ANTÓNIO PEDRO;-8.645199;41.18815
RDA1;R.N.SRA.FATIMA;S2;REGO D ÁGUA;-8.633991;41.112442
RDA2;R.BARREIRO;S2;REGO D ÁGUA;-8.635847;41.11193
MAIZ;R.N.SRA.BOM DESPACHO;C5;MAIA (ZOO);-8.630265;41.236187
INFS2;AV.D.JOAO I;C8;INFANTE SANTO;-8.548758;41.16744
PCVL2;R.SOL POENTE;C4;PERO COVILHÃ;-8.701216;41.197083
PCVL1;R.SOL POENTE;C4;PERO COVILHÃ;-8.701057;41.197117
MERL;R.MEIRAL;C6;MEIRAL;-8.572496;41.148766
JB1;R.CAMPO ALEGRE;C1;JARDIM BOTÂNICO;-8.644009;41.154594
JMRR2;AV.REPÚBLICA;S8;JARDIM DO MORRO;-8.608177;41.13607
JMRR1;AV.REPÚBLICA;S8;JARDIM DO MORRO;-8.608182;41.135605
GUD1;R.CRUZ GUARDEIRAS;N10;GUARDEIRAS;-8.655583;41.254036
JB2;R.CAMPO ALEGRE;C1;JARDIM BOTÂNICO;-8.643387;41.15432
FRA2;R.GUARDEIRAS;N10;FEIRA;-8.666025;41.242455
FRA1;R.GUARDEIRAS;N10;FEIRA;-8.666236;41.24237
GUD2;R.CRUZ GUARDEIRAS;N10;GUARDEIRAS;-8.654434;41.25436
PREG1;R.DR.JOSÉ A.MARQUES;C6;PESO DA RÉGUA;-8.569353;41.162422
JAZ;R.DIREITA VISO;C2;JERÓNIMO AZEVEDO;-8.645202;41.180584
BRNS;R.BERNARDO SANTARENO;C3;BERNARDO SANTARENO;-8.672157;41.1768
CDPD;R.FERNÃO MENDES PINTO;S8;CONDE D.PEDRO;-8.608759;41.11517
BRO2;R.D.AFONSO HENRIQUES;C9;BRÁS OLEIRO;-8.576013;41.19785
BRO1;R.D.AFONSO HENRIQUES;C9;BRÁS OLEIRO;-8.57597;41.197166
AST2;R.MOSTEIRO;C9;ÁGUAS SANTAS;-8.577824;41.2104
AST1;R.MOSTEIRO;C9;ÁGUAS SANTAS;-8.5779;41.210106
STA2;R.S.GENS;C5;STA. APOLONIA;-8.640972;41.189648
RMOS2;R.MOSTEIRO;C9;R. DO MOSTEIRO;-8.579972;41.208744
RMOS1;R.MOSTEIRO;C9;R. DO MOSTEIRO;-8.580613;41.208054
STA1;R.S.GENS;C5;STA. APOLONIA;-8.640832;41.18958
PBSS1;R.PADRE ANTÓNIO VIEIRA;C1;PINTO BESSA;-8.58809;41.148956
AR1;R.MOALDE;C5;ALMIRANTE REIS;-8.604802;41.194233
AR2;R.MOALDE;C5;ALMIRANTE REIS;-8.604937;41.194344
PBSS4;R.PINTO BESSA;C1;PINTO BESSA;-8.588592;41.149605
IMTT1;AV.F.PEREIRA MELO;C2;IMTT;-8.648754;41.178513
IMTT2;AV.F.PEREIRA MELO;C2;IMTT;-8.648958;41.178642
PBSS2;R.PADRE ANTÓNIO VIEIRA;C1;PINTO BESSA;-8.588292;41.148956
RSH;R.SRA.DA HORA;C6;SRA. DA HORA;-8.5765915;41.1453
PSG1;R.CÊRCO PORTO;C6;PEDRAS SALGADAS;-8.569491;41.159233
FTNH1;R.STA.CATARINA;C1;FONTINHA;-8.604433;41.156483
CSAD1;R.ESCOLAS;C9;CENTRO SAÚDE;-8.589091;41.21813
CSAD2;R.ESCOLAS;C9;CENTRO SAÚDE;-8.588702;41.218758
FTNH2;R.STA.CATARINA;C1;FONTINHA;-8.6047125;41.15559
CUS4;LGO.SOUTO;C5;CUSTÓIAS;-8.642063;41.20232
TLHR1;R.AMIAL;C6;TELHEIRA;-8.613891;41.17829
VLG5;ROT. NATÁLIA CORREIA;C10;VALONGO-CONTINENTE;-8.489742;41.197296
BRP2;R.ROCHA PEIXOTO;C2;BAIRRO DA PREVIDÊNCIA;-8.657389;41.16563
CUS3;LGO.SOUTO;C5;CUSTÓIAS;-8.642458;41.202934
BRP1;R.ROCHA PEIXOTO;C2;BAIRRO DA PREVIDÊNCIA;-8.657753;41.165794
CUS1;LGO.SOUTO;C5;CUSTÓIAS;-8.641493;41.20312
RSUL2;R.RECAREI;C5;RECAREI (SUL);-8.633518;41.20117
TLHR3;R.TELHEIRA;C6;R.TELHEIRA;-8.614565;41.177856
TLHR2;R.AMIAL;C6;TELHEIRA;-8.614149;41.17722
RSUL1;R.RECAREI;C5;RECAREI (SUL);-8.633325;41.201008
JD1;R. AREIAS;C6;JOÃO DE DEUS;-8.557868;41.15787
JD2;AV.REPÚBLICA;S8;JOÃO DE DEUS;-8.605557;41.125416
LCMS1;R.ANT.FELICIANO CASTILHO;C9;LUÍS DE CAMÕES;-8.587132;41.18589
JD4;R. AREIAS;C6;JOÃO DE DEUS;-8.55809;41.157814
AS1;R.MOSTEIRO;C9;ANTÓNIO SANTOS;-8.583406;41.20605
AS2;R.MOSTEIRO;C9;ANTÓNIO SANTOS;-8.583605;41.206028
ARR;TV.RASA;S8;ANTÓNIO R.ROCHA;-8.609655;41.117336
FEL1;R.ARROTEIA;C5;FELICIANA;-8.596738;41.18632
FEL2;R.ARROTEIA;C5;FELICIANA;-8.596863;41.18652
STC1;R.CONDOMINHAS;C2;S.TA CATARINA;-8.650941;41.150757
TLHO2;R.SILVA BRINCO;C5;TELHEIRO;-8.613001;41.186283
TLHO1;R.SILVA BRINCO;C5;TELHEIRO;-8.613027;41.1849
STC2;R.CONDOMINHAS;C2;S.TA CATARINA;-8.651044;41.150536
CDR2;R.CRUZ GUARDEIRAS;N10;CEDRO;-8.660427;41.24923
CDR1;R.1;N10;CEDRO;-8.661484;41.249344
GLV2;R.GUERRA JUNQUEIRO;C9;GIL VICENTE;-8.581005;41.19272
GLV1;R.GUERRA JUNQUEIRO;C9;GIL VICENTE;-8.580813;41.192844
TAZ2;AV.ENG.DUARTE PACHECO;C10;TAPADA AZEVEDO;-8.52693;41.201702
TAZ1;AV.ENG.DUARTE PACHECO;C10;TAPADA AZEVEDO;-8.52691;41.202217
ELVG1;TÚNEL RIBEIRA;C1;ELEVADOR GUINDAIS;-8.61044;41.141113
ELVG2;TÚNEL RIBEIRA;C1;ELEVADOR GUINDAIS;-8.610418;41.141273
BNJ2;ESTR.CIRCUNVALAÇÃO;C6;BONJÓIA;-8.574623;41.151814
BNJ1;ESTR.CIRCUNVALAÇÃO;C6;BONJÓIA;-8.5750885;41.151676
MNH1;R.ESCOLA MANINHO;S2;MANINHO;-8.632529;41.109962
BRR2;R.GUERRA JUNQUEIRO;C8;BARREIROS;-8.522274;41.159214
MNH2;R.ESCOLA MANINHO;S2;MANINHO;-8.632706;41.109573
BRR1;R.GUERRA JUNQUEIRO;C8;BARREIROS;-8.522162;41.15911
PCRQ1;R.ANTÓNIO J.ALMEIDA;C5;PONTE CARRAQUINHO;-8.644838;41.206577
ALMG2;R.OSCAR DA SILVA;C4;ALMEIRIGA;-8.696411;41.208218
ALMG1;R.OSCAR DA SILVA;C4;ALMEIRIGA;-8.696211;41.208195
FACD;R.CEDOFEITA;C1;FACULDADE DIREITO;-8.61784;41.151924
MRS2;R.5 OUTUBRO;C1;MOREIRA SÁ;-8.632833;41.162373
BAR1;R.ORIENTAL;C4;BARÃO;-8.690108;41.224937
LAPA2;LGO.LAPA;C1;LAPA;-8.612948;41.156994
BAR2;R.ORIENTAL;C4;BARÃO;-8.691796;41.224445
LAPA1;LGO.LAPA;C1;LAPA;-8.612291;41.15679
STE2;PRACETA HEROIS ULTRAMAR;C8;S.TA EULÁLIA;-8.528904;41.159767
MEIL2;R.D.AFONSO HENRIQUES;C9;MEILÃO;-8.565451;41.211193
MEIL1;R.D.AFONSO HENRIQUES;C9;MEILÃO;-8.565557;41.21081
STE1;PRACETA HEROIS ULTRAMAR;C8;S.TA EULÁLIA;-8.529575;41.160072
PSL2;R.ANTÓNIO MANUEL SEQUEIRA;C11;PASSAL;-8.5019045;41.15185
PSL1;R.ANTÓNIO MANUEL SEQUEIRA;C11;PASSAL;-8.501886;41.151752
BRRS;R.BARROSA;S8;BARROSA;-8.6122055;41.12505
FRGO;R.IGREJA MADALENA;S2;FORMIGUEIRO;-8.644545;41.101963
BLFZ1;R.SÁ BANDEIRA;C1;BOLHÃO (FIRMEZA);-8.606153;41.151638
STE5;PRACETA HEROIS ULTRAMAR;C8;S.TA EULÁLIA;-8.528953;41.160004
COND1;R.ALEIXO;C2;CONDOMINHAS;-8.649466;41.150963
PREC1;ESTR.CIRCUNVALAÇÃO;C2;PRECIOSA;-8.656764;41.17756
AV1;ESTR.CIRCUNVALAÇÃO;C2;ALTO DO VISO;-8.6430235;41.18409
AV2;ESTR.CIRCUNVALAÇÃO;C2;ALTO DO VISO;-8.641346;41.18421
PREC2;ESTR.CIRCUNVALAÇÃO;C2;PRECIOSA;-8.6568575;41.17768
AUS;R.ALEGRIA;C1;ESC. AURÉLIA SOUSA;-8.600538;41.16045
MRR1;R.BRITO CAPELO;C1;MARRACUENE;-8.620089;41.16165
PCRJ2;PR.CORUJEIRA;C6;PR. DA CORUJEIRA;-8.578478;41.158337
MRR2;R.EGAS MONIZ;C1;MARRACUENE;-8.619711;41.162594
PCRJ1;R.MAURICIO PEREIRA PINTO;C6;PR. DA CORUJEIRA;-8.579824;41.15662
NOC;VIA ACESSO P.ARRÁBIDA-V.N.GAIA;S8;NÓ CANDAL;-8.64006;41.14526
ABX1;R.S.BRÁS;C4;ALDEIA  BAIXO;-8.67155;41.22018
TCRZ2;R.DR.OLIVEIRA LOBO;C8;TV.CRUZES;-8.549542;41.161102
ABX2;R.S.BRÁS;C4;ALDEIA DE BAIXO;-8.671493;41.219982
TCRZ1;R.CRUZES;C8;TV.CRUZES;-8.549475;41.16074
BVLH2;TV.BICA VELHA;C1;BICA VELHA;-8.620601;41.16786
BVLH3;R.S.DINIS;C1;BICA VELHA;-8.620651;41.167496
CMG3;AV.REPÚBLICA;S8;CÂMARA DE GAIA;-8.606486;41.130318
BVLH1;R.S.DINIS;C1;BICA VELHA;-8.619284;41.167725
CMG1;AV.REPÚBLICA;S8;CÂMARA DE GAIA;-8.606517;41.131126
AKI1;R.D.HENRIQUE CERNACHE;S8;AKI;-8.625712;41.12209
AKI2;R.D.HENRIQUE CERNACHE;S8;AKI;-8.625667;41.121986
NP1;R.DR.ALBANO SÁ LIMA;C4;NOGUEIRA PINTO;-8.699254;41.19184
R7N1;R.5;N10;R.7(NASCENTE);-8.661607;41.252537
NP2;R.DR.JOSÉ D.OLIVEIRA;C4;NOGUEIRA PINTO;-8.699571;41.19145
BRSL;R.PROF.SOUSA JÚNIOR;C2;BR. STA.LUZIA;-8.6262455;41.17755
SCC1;R.BÉLGICA;S1;SPORT CLUBE CANIDELO;-8.645438;41.13029
SCC2;R.BÉLGICA;S1;SPORT CLUBE CANIDELO;-8.645614;41.13025
CORM2;R.D.AFONSO HENRIQUES;C9;CORIM;-8.574742;41.200375
CORM1;R.D.AFONSO HENRIQUES;C9;CORIM;-8.574352;41.20062
FEP1;R.DR.ROBERTO FRIAS;C6;FACULDADE DE ECONOMIA;-8.600216;41.175358
SXO1;R.D.JOÃO CASTRO;C8;SEIXO;-8.5260935;41.18492
FEP2;R.DR.ROBERTO FRIAS;C6;FACULDADE DE ECONOMIA;-8.600063;41.175594
BAT1;R.OSCAR DA SILVA;C4;BATARIA;-8.696479;41.205936
BAT2;R.OSCAR DA SILVA;C4;BATARIA;-8.696739;41.205853
BVCT1;PR.MOUZINHO ALBUQUERQUE;C1;BOAVISTA CORREIOS;-8.627791;41.158146
STG2;R.NOVA SANTEGÃOS;C9;SANTEGÃOS;-8.570046;41.19121
STG1;R.NOVA SANTEGÃOS;C9;SANTEGÃOS;-8.569784;41.19122
RUL1;ESTR.CIRCUNVALAÇÃO;C2;RUELA;-8.651767;41.179417
RUL2;ESTR.CIRCUNVALAÇÃO;C2;RUELA;-8.651916;41.17952
SXO2;R.D.JOÃO CASTRO;C8;SEIXO;-8.526665;41.1844
ASZ4;R.SANTOS DIAS;C5;ABEL SALAZAR;-8.609367;41.200058
MARG2;R.MANUEL J.FERNANDES SANTOS;C9;MARGINAL;-8.547666;41.223026
MARG1;R.MANUEL J.FERNANDES SANTOS;C9;MARGINAL;-8.547531;41.223064
ASZ2;R.GODINHO FARIA;C5;ABEL SALAZAR;-8.611807;41.2001
ASZ3;R.SANTOS DIAS;C5;ABEL SALAZAR;-8.608591;41.20004
ASZ1;R.GODINHO FARIA;C5;ABEL SALAZAR;-8.612232;41.201244
PBLS;R.BELMONTE;C1;PALÁCIO DA BOLSA;-8.615528;41.142834
MAVO2;R.CIDRES;C4;MONTE AVÓ;-8.676159;41.212578
MAVO1;R.CIDRES;C4;MONTE AVÓ;-8.676003;41.2127
R7P1;R.1;N10;R.7(POENTE);-8.663267;41.25183
DCS3;R.LEVADA;C9;DAVID CORREIA DA SILVA;-8.560426;41.172436
TELH1;AV.DESCOBRIMENTOS;S8;TELHEIRA;-8.618769;41.117794
TELH2;AV.DESCOBRIMENTOS;S8;TELHEIRA;-8.619266;41.117832
MRT1;R.D.AFONSO HENRIQUES;C9;MIRANTE;-8.562772;41.213375
MARB;R.ARRÁBIDA;C2;MOCIDADE ARRÁBIDA;-8.646287;41.1515
MRT2;R.D.AFONSO HENRIQUES;C9;MIRANTE;-8.563158;41.213394
OLB2;R.DR.OLIVEIRA LOBO;C8;OLIVEIRA LOBO;-8.54723;41.163433
OLB1;R.DR.OLIVEIRA LOBO;C8;OLIVEIRA LOBO;-8.546925;41.163483
PRMV2;VIA DE ARDEGÃES;C9;PRIMAVERA;-8.575225;41.2312
PRMV1;R.DR.JOAQUIM NOGUEIRA SANTOS;C9;PRIMAVERA;-8.575103;41.231113
BRV4;R.DR.VASCO VALENTE;C2;BAIRRO DA VILARINHA;-8.66025;41.166332
VLN1;R.MARTIM MONIZ;C2;VILA NOVA;-8.664311;41.17263
BRV3;R.DR.VASCO VALENTE;C2;BAIRRO DA VILARINHA;-8.660033;41.166496
BRV2;AV.ANTUNES GUIMARÃES;C2;BAIRRO VILARINHA;-8.660432;41.16679
BRV1;AV.ANTUNES GUIMARÃES;C2;BAIRRO VILARINHA;-8.659943;41.16709
RCRT2;R.FEZ;C2;R.CRASTO;-8.671162;41.161816
RCRT1;R.FEZ;C2;R.CRASTO;-8.671636;41.16187
GDM1;R.BONFIM;C1;GODIM;-8.591393;41.153023
PSP1;R.AUGUSTO MARTINS;C5;PSP;-8.62198;41.23115
MAV1;AV.FERNÃO MAGALHAES;C1;MONTE AVENTINO;-8.590181;41.16309
STNH1;R.MANUEL J.FERNANDES SANTOS;C9;SOUTINHO;-8.543428;41.22176
STNH2;R.S.VICENTE;C9;SOUTINHO;-8.5432005;41.222042
BRVS;ESTR.CIRCUNVALAÇÃO;C2;BAIRRO DO VISO;-8.648612;41.1812
MAV2;AV.FERNÃO MAGALHAES;C1;MONTE AVENTINO;-8.5904;41.16313
FND1;R.CABEDA;C9;FUNDIÇÃO;-8.529526;41.209026
FND2;R.CABEDA;C9;FUNDIÇÃO;-8.529736;41.20902
DCS4;R.LEVADA;C9;DAVID CORREIA DA SILVA;-8.56027;41.172504
1CDR2;R. GENERAL JOSÉ VICENTE FREITAS;C3;RUA CÂNDIDO DOS REIS;-8.657523;41.199306
FCA;VIA PANORÂMICA EDGAR CARDOSO;C1;FACULDADE ARQUITETURA;-8.637238;41.14961
ARRV1;R.ARREGADAS;C9;ARREGADAS (VIADUTO);-8.574819;41.219753
ARRV2;R.ARREGADAS;C9;ARREGADAS (VIADUTO);-8.574767;41.21991
PREP2;R.D.PEDRO V;S8;PARQUE DA REPÚBLICA;-8.605979;41.124573
MATI;AV.D.AFONSO HENRIQUES;C3;MATOSINHOS (IGREJA);-8.68495;41.186226
SPAZ2;R.S.VICENTE;C9;S.RA DA PAZ;-8.534971;41.22236
SPAZ1;R.S.VICENTE;C9;S.RA DA PAZ;-8.534567;41.222237
ESP1;LGO.CAPELA;C5;ESPOSADE;-8.649853;41.213284
ESP2;LGO.CAPELA;C5;ESPOSADE;-8.649923;41.213146
MATR;R.A.CASAIS MONTEIRO;C1;MATERNIDADE;-8.622719;41.15101
ALUM2;TV.SENRA;S1;ALUMIARA;-8.653957;41.131798
LMBG1;R.GATÕES;C3;LOMBA (GATÕES);-8.660281;41.207333
ALUM1;R.BÉLGICA;S1;ALUMIARA;-8.652289;41.132572
CORI2;R.D.AFONSO HENRIQUES;C9;CORISCOS;-8.57166;41.20326
CORI1;R.D.AFONSO HENRIQUES;C9;CORISCOS;-8.572223;41.202568
AZV;R.AZEVÊDO;C6;AZEVEDO;-8.566513;41.151646
LMBG2;R.FERROVIÁRIO;C3;LOMBA (GATÕES);-8.660271;41.207493
PSR2;R.PASSARIAS;N16;PASSARIAS;-8.538657;41.230347
BMAF1;R.BEATA D. MAFALDA;C6;BEATA MAFALDA;-8.575398;41.165222
PSR1;R.PASSARIAS;N16;PASSARIAS;-8.538497;41.230244
SPC2;R.ANTÓNIO MANUEL SEQUEIRA;C11;S.PEDRO C. /PASSAL;-8.499796;41.152336
SPC3;R.ANTÓNIO MANUEL SEQUEIRA;C11;S.PEDRO C. /PASSAL;-8.499917;41.152325
SPC1;R.ANTÓNIO MANUEL SEQUEIRA;C11;S. PEDRO DA COVA;-8.504023;41.151917
JM2;R.CAMPO ALEGRE;C1;JUNTA MASSARELOS;-8.630155;41.152523
FRN1;R.D.AFONSO HENRIQUES;C9;FORNO;-8.57778;41.194405
JM1;R.CAMPO ALEGRE;C1;JUNTA MASSARELOS;-8.631175;41.15272
ASZE1;R.PINTOR ANTÓNIO CRUZ;C2;PINTOR ARPAD SZENES;-8.652693;41.15723
CML2;R.ELIAS GARCIA;C9;CAMÉLIAS;-8.558838;41.21743
C24A3;C.24 AGOSTO;C1;CAMPO 24 DE AGOSTO;-8.598923;41.148838
CML1;R.ELIAS GARCIA;C9;CAMÉLIAS;-8.55863;41.217106
C24A2;R.BONFIM;C1;CAMPO 24 DE AGOSTO;-8.597729;41.148647
FRN2;R.D.AFONSO HENRIQUES;C9;FORNO;-8.577736;41.19471
C24A1;C.24 AGOSTO;C1;CAMPO 24 DE AGOSTO;-8.598445;41.14897
FALC;R.ESCOLAS;C6;FALCÃO;-8.575252;41.160435
ISEP4;R.ANT.BERNARDINO ALMEIDA;C6;ISEP/AGRA;-8.608087;41.176502
ISEP3;R.ANT.BERNARDINO ALMEIDA;C6;ISEP/AGRA;-8.60786;41.17664
ISEP2;R.S.TOMÉ;C6;I.S.E.P.;-8.609272;41.17832
SRPT1;R.MONTE BURGOS;C2;S.RA DO PORTO;-8.628729;41.1779
ISEP1;R.S.TOMÉ;C6;I.S.E.P.;-8.6090975;41.1786
SRPT2;R.MONTE BURGOS;C2;S.RA DO PORTO;-8.628713;41.1775
COVN1;R.CABEDA;C9;COVINA;-8.530123;41.21027
COVN2;R.9 AGOSTO;C9;COVINA;-8.531146;41.20976
C24A5;R.BONFIM;C1;CAMPO 24 DE AGOSTO;-8.597592;41.14895
C24A4;AV.FERNÃO MAGALHAES;C1;CAMPO 24 AGOSTO;-8.597789;41.150627
JMA;R.JOSÉ MARIA ALVES;S1;JOSÉ MARIA ALVES;-8.651778;41.13068
BVLB2;R.GONDIVAI;C5;B. V. LEÇA BALIO;-8.633312;41.2111
FVLH2;R.S.ROQUE LAMEIRA;C1;FONTE VELHA;-8.5867815;41.157635
FVLH1;TV.FONTE VELHA;C1;FONTE VELHA;-8.58491;41.157692
5OTR1;R.5 OUTUBRO;C9;5 DE OUTUBRO;-8.546837;41.217976
ALDN2;R.OCIDENTAL;C4;ALDEIA NOVA;-8.710714;41.224525
5OTR2;R.5 OUTUBRO;C9;5 DE OUTUBRO;-8.547131;41.21798
ALDN1;R.OCIDENTAL;C4;ALDEIA NOVA;-8.710662;41.22468
STJ3;R.COSTA CABRAL;C6;S.TA JUSTA;-8.586597;41.174503
ESR1;AV.FERNÃO MAGALHAES;C1;ESC.SOARES DOS REIS;-8.593932;41.15729
STJ4;AV.FERNÃO MAGALHAES;C6;STA. JUSTA;-8.5848055;41.174
BVLB1;R.GONDIVAI;C5;B. V. LEÇA BALIO;-8.633133;41.211216
ESR2;AV.FERNÃO MAGALHAES;C1;ESC.SOARES DOS REIS;-8.594071;41.1574
STJ1;AV.FERNÃO MAGALHAES;C6;STA. JUSTA;-8.584745;41.173702
JN3;R.GONÇALO CRISTÓVÃO;C1;JORNAL DE NOTÍCIAS;-8.606471;41.153603
JMR;R.JUSTINO MARQUES;C4;JUSTINO MARQUES;-8.680833;41.22682
STJ2;R.COSTA CABRAL;C6;S.TA JUSTA;-8.586152;41.175144
TFL1;R.TENENTE VALADIM;S8;TV. FONTE LODOSA;-8.632738;41.132366
